XYE0598 160139 
GG TESTYZYX
160139 ZLXYYMYX
FCCI74 ZSLY 160137
TAF ZSLY 160137Z 160312 32005MPS CAVOK
TX03/06Z TNM03/12Z=




XYE0599 160140 
GG TESTYZYX
160140 ZLXYYMYX
FCCI67 ZLTS 160138
TAF ZLTS 160138Z 160312 VRB01MPS CAVOK TX03/07Z TNM03/03Z=




XYE0600 160140 
GG TESTYZYX
160140 ZLXYYMYX
FCCI73 ZBHD 160126
TAF ZBHD 160126Z 160312 30006MPS CAVOK TX08/07Z TN02/12Z =




XYE0601 160140 
GG TESTYZYX
160140 ZLXYYMYX
FCCI34 ZSHC 160139
TAF ZSHC 160139Z 160312 31005G11MPS 3100 HZ NSC TX07/06Z TN02/12Z=




XYE0602 160140 
GG TESTYZYX
160140 ZLXYYMYX
FCCI64 ZSWX 160138
TAF ZSWX 160138Z 160312 32006MPS 6000 NSC TX04/03Z TN01/12Z=




XYE0603 160141 
GG TESTYZYX
160141 ZLXYYMYX
FCCI66 ZUYB 160130
TAF ZUYB 160130Z 160312 29002MPS 9999 SCT040 TX10/08Z TN08/03Z=




XYE0604 160141 
GG TESTYZYX
160141 ZLXYYMYX
FCCI73 ZBYZ 160140
TAF ZBYZ 160140Z 160312 29006MPS CAVOK TXM08/07Z TNM11/12Z=




XYE0605 160142 
GG TESTYZYX
160142 ZLXYYMYX
FCCI86 ZUTR 160141
TAF ZUTR 160141Z 160312 06004G09MPS 6000 SCT020 BKN040
TX09/07Z TN04/15Z=




XYE0606 160142 
GG TESTYZYX
160142 ZLXYYMYX
FCCI63 ZBER 160137
TAF ZBER 160137Z 160312 30008G13MPS CAVOK TXM10/07Z TNM16/03Z
TEMPO 0508 31010G15MPS=




XYE0607 160142 
GG TESTYZYX
160142 ZLXYYMYX
FTCI64 ZSWX 160141
TAF ZSWX 160141Z 160606 31005MPS 6000 NSC TX06/06Z TNM02/22Z=




XYE0608 160143 
GG TESTYZYX
160143 ZLXYYMYX
FCCI44 ZSYT 160145
TAF ZSYT 160145Z 160009 31008G15MPS 6000 SCT023 TXM01/06Z TNM04/09Z
T
EMPO 0004 2500 -SHSN SCT006 BKN016=




XYE0609 160144 
GG TESTYZYX
160144 ZLXYYMYX
FCCI67 ZLGY 160143
TAF ZLGY 160143Z 160312 26006MPS 8000 NSC TXM02/07Z TNM11/12Z=




XYE0610 160145 
GG TESTYZYX
160145 ZLXYYMYX
FCCI44 ZSWH 160143
TAF ZSWH 160143Z 160312 34007G13MPS 1500 -SHSN SCT007 OVC020
TXM02/05Z
TNM07/12Z TEMPO 0307 0600 SHSN=




XYE0611 160145 
GG TESTYZYX
160145 ZLXYYMYX
FCCI36 ZUBD 160144
TAF ZUBD 160144Z 160312 VRB05G10MPS 9999 FEW050 BKN066 TX04/07Z
TNM02/12Z TEMPO
0912 -SHSN=




XYE0612 160145 
GG TESTYZYX
160145 ZLXYYMYX
FCCI76 ZPLJ 160144
TAF ZPLJ 160144Z 160312 04003MPS 9999 BKN040 TX15/08Z TN09/12Z
BECMG 0406 22004MPS=




XYE0613 160146 
GG TESTYZYX
160146 ZLXYYMYX
FCCI67 ZLJQ 160144
TAF ZLJQ 160144Z 160312 11004MPS CAVOK TXM04/07Z TNM10/12Z=




XYE0614 160148 
GG TESTYZYX
160148 ZLXYYMYX
SPCI34 ZSSS 160146
SPECI ZSSS 160146Z 31009G14MPS CAVOK 05/M11 Q1033 NOSIG=




XYE0615 160149 
GG TESTYZYX
160149 ZLXYYMYX
FCCI63 ZBXH 160147
TAF ZBXH 160147Z 160312 29009G14MPS 9999 FEW030 TXM13/07Z TNM18/12Z=




XYE0616 160151 
GG TESTYZYX
160151 ZLXYYMYX
FCCI76 ZPDL 160147
TAF ZPDL 160147Z 160312 19008G13MPS 9999 FEW026 BKN040
TX17/07Z TN13/12Z=




XYE0617 160153 
FF TESTYZYX
160153 ZLXYYMYX
FTCI39 ZWWW 160151 AAA
TAF AMD ZWWW 160151Z 160024 21003MPS 1600 BR BKN013 TXM15/09Z
 TNM20/23Z
TEMPO 0105 0800 FZFG
BECMG 0304 35002MPS 1100 BR
BECMG 1314 18002MPS 2000 BR=




XYE0618 160154 
GG TESTYZYX
160154 ZLXYYMYX
FCCI74 ZSJD 160150
TAF ZSJD 160150Z 160312 03004MPS 6000 NSC TX12/07Z TN02/12Z=




XYE0619 160155 
GG TESTYZYX
160155 ZLXYYMYX
FCCI86 ZUQJ 160149
TAF ZUQJ 160149Z 160312 03002MPS 4000 BR FEW010 SCT023 BKN040
TX06/07Z
TN04/12Z=




XYE0620 160158 
GG TESTYZYX
160158 ZLXYYMYX
SACI73 ZBDT 160200
METAR ZBDT 160200Z 28006MPS 250V310 CAVOK M11/M24 Q1029 NOSIG=




XYE0621 160159 
GG TESTYZYX
160159 ZLXYYMYX
SACI76 ZPLC 160200
METAR ZPLC 160200Z 11003MPS 060V150 CAVOK 12/08 Q1028 NOSIG=




XYE0622 160159 
GG TESTYZYX
160159 ZLXYYMYX
SACI64 ZSJU 160200
METAR ZSJU 160200Z AUTO 21002MPS 160V250 9999 /// ////// 10/M10
Q1034=




XYE0623 160200 
GG TESTYZYX
160200 ZLXYYMYX
SACI65 ZGBS 160200
METAR ZGBS 160200Z 34002MPS 280V050 8000 BKN033 15/04 Q1033 NOSIG=




XYE0624 160200 
GG TESTYZYX
160200 ZLXYYMYX
SACI64 ZSNT 160200
METAR ZSNT 160200Z 32010MPS CAVOK 03/M12 Q1034 NOSIG=




XYE0625 160200 
GG TESTYZYX
160200 ZLXYYMYX
SACI67 ZLYA 160200
METAR ZLYA 160200Z 24003MPS CAVOK M08/M18 Q1039 NOSIG=




XYE0626 160200 
GG TESTYZYX
160200 ZLXYYMYX
SACI86 ZURK 160200
METAR ZURK 160200Z 23003MPS CAVOK M03/M13 Q1022 NOSIG=




XYE0627 160200 
GG TESTYZYX
160200 ZLXYYMYX
SACI64 ZSZS 160200
METAR ZSZS 160200Z 34011G19MPS CAVOK 07/M09 Q1031 NOSIG=




XYE0628 160200 
GG TESTYZYX
160200 ZLXYYMYX
SACI35 ZGSD 160200
METAR ZGSD 160200Z 01011G17MPS CAVOK 17/05 Q1026 NOSIG=




XYE0629 160200 
GG TESTYZYX
160200 ZLXYYMYX
SACI66 ZUDC 160200
METAR ZUDC 160200Z AUTO 23008MPS 200V290 9999 /// ////// M05/M11
Q1029 NOSIG=




XYE0630 160200 
GG TESTYZYX
160200 ZLXYYMYX
SACI67 ZLYL 160200
METAR ZLYL 160200Z 27006MPS CAVOK M12/M23 Q1035 NOSIG=




XYE0631 160200 
GG TESTYZYX
160200 ZLXYYMYX
SACI77 ZLXH 160200
METAR ZLXH 160200Z AUTO VRB01MPS //// ///////// M12/M19 Q1031=




XYE0632 160200 
GG TESTYZYX
160200 ZLXYYMYX
SACI67 ZLDH 160200
METAR ZLDH 160200Z 19005MPS CAVOK M13/M18 Q1042 NOSIG=




XYE0633 160200 
GG TESTYZYX
160200 ZLXYYMYX
SACI74 ZSYA 160200
METAR ZSYA 160200Z 32007MPS CAVOK 03/M11 Q1035 NOSIG=




XYE0634 160200 
GG TESTYZYX
160200 ZLXYYMYX
SACI75 ZHNY 160200
METAR ZHNY 160200Z 30003MPS CAVOK 05/M20 Q1040 NOSIG=




XYE0635 160200 
GG TESTYZYX
160200 ZLXYYMYX
SACI36 ZUUU 160200
METAR ZUUU 160200Z VRB01MPS CAVOK 08/M10 Q1041 NOSIG=




XYE0636 160200 
GG TESTYZYX
160200 ZLXYYMYX
SPCI64 ZSSH 160155
SPECI ZSSH 160155Z 32007MPS CAVOK 00/M17 Q1035 NOSIG=




XYE0637 160200 
GG TESTYZYX
160200 ZLXYYMYX
SACI67 ZLHZ 160200
METAR ZLHZ 160200Z VRB01MPS CAVOK 03/M08 Q1041 NOSIG=




XYE0638 160200 
GG TESTYZYX
160200 ZLXYYMYX
SACI67 ZLTS 160200
METAR ZLTS 160200Z 09001MPS CAVOK M05/M11 Q1042 NOSIG=




XYE0639 160200 
GG TESTYZYX
160200 ZLXYYMYX
SACI67 ZLZW 160200
METAR ZLZW 160200Z 31004MPS CAVOK M09/M24 Q1038 NOSIG=




XYE0640 160200 
GG TESTYZYX
160200 ZLXYYMYX
SACI37 ZLXN 160200
METAR ZLXN 160200Z 32004MPS 290V350 4000 HZ NSC M13/M19 Q1036
NOSIG=




XYE0641 160200 
GG TESTYZYX
160200 ZLXYYMYX
SACI73 ZBSN 160200
METAR ZBSN 160200Z 27005MPS CAVOK M04/M16 Q1031 NOSIG=




XYE0642 160200 
GG TESTYZYX
160200 ZLXYYMYX
SACI78 ZYFY 160200
METAR ZYFY 160200Z 04003MPS CAVOK M24/M27 Q1018 NOSIG=




XYE0643 160200 
GG TESTYZYX
160200 ZLXYYMYX
SACI34 ZSOF 160200
METAR ZSOF 160200Z 32007MPS CAVOK 03/M12 Q1038 NOSIG=




XYE0644 160200 
GG TESTYZYX
160200 ZLXYYMYX
SACI34 ZSWZ 160200
METAR ZSWZ 160200Z 33006MPS 300V360 8000 NSC 12/M06 Q1030 NOSIG=




XYE0645 160200 
GG TESTYZYX
160200 ZLXYYMYX
SACI68 ZYBS 160200
METAR ZYBS 160200Z 33003MPS 270V020 2000 -SN BR FEW004 SCT016
M17/M20
Q1010 NOSIG=




XYE0646 160200 
GG TESTYZYX
160200 ZLXYYMYX
SACI73 ZBZJ 160200
METAR ZBZJ 160200Z 32009MPS CAVOK M10/M22 Q1029 NOSIG=




XYE0647 160200 
GG TESTYZYX
160200 ZLXYYMYX
SACI33 ZBAA 160200
METAR ZBAA 160200Z 30009G15MPS CAVOK M02/M19 Q1032 NOSIG=




XYE0648 160200 
GG TESTYZYX
160200 ZLXYYMYX
SACI33 ZBTJ 160200
METAR ZBTJ 160200Z 31006MPS CAVOK M02/M19 Q1032 NOSIG=




XYE0649 160200 
GG TESTYZYX
160200 ZLXYYMYX
SACI63 ZBMZ 160200
METAR ZBMZ 160200Z 28002MPS 230V310 CAVOK M23/M26 Q1018 NOSIG=




XYE0650 160200 
GG TESTYZYX
160200 ZLXYYMYX
SACI73 ZBSH 160200
METAR ZBSH 160200Z 27006MPS CAVOK M04/M23 Q1030 NOSIG=




XYE0651 160200 
GG TESTYZYX
160200 ZLXYYMYX
SACI67 ZLQY 160200
METAR ZLQY 160200Z 30004MPS CAVOK M08/M22 Q1037 NOSIG=




XYE0652 160200 
GG TESTYZYX
160200 ZLXYYMYX
SACI67 ZLGM 160200
METAR ZLGM 160200Z 21003MPS 9999 FEW100 M17/M30 Q1033 NOSIG=




XYE0653 160200 
GG TESTYZYX
160200 ZLXYYMYX
SACI77 ZLDL 160200
METAR ZLDL 160200Z AUTO VRB01MPS 9999 // ////// M18/M31 Q1034=




XYE0654 160200 
GG TESTYZYX
160200 ZLXYYMYX
SACI37 ZLXY 160200
METAR ZLXY 160200Z 30003MPS 240V330 CAVOK 02/M20 Q1042 NOSIG=




XYE0655 160200 
GG TESTYZYX
160200 ZLXYYMYX
SACI63 ZBUH 160200
METAR ZBUH 160200Z 24004MPS CAVOK M11/M24 Q1036 NOSIG=




XYE0656 160200 
GG TESTYZYX
160200 ZLXYYMYX
SACI33 ZBSJ 160200
METAR ZBSJ 160200Z 31004MPS CAVOK 00/M19 Q1034 NOSIG=




XYE0657 160200 
GG TESTYZYX
160200 ZLXYYMYX
SACI89 ZWHM 160200
METAR ZWHM 160200Z 09003MPS CAVOK M16/M20 Q1043 NOSIG=




XYE0658 160200 
GG TESTYZYX
160200 ZLXYYMYX
SACI69 ZWTC 160200
METAR ZWTC 160200Z 11002MPS CAVOK M13/M21 Q1036 NOSIG=




XYE0659 160200 
GG TESTYZYX
160200 ZLXYYMYX
SACI35 ZGGG 160200
METAR ZGGG 160200Z 02009MPS CAVOK 15/01 Q1030 NOSIG=




XYE0660 160201 
GG TESTYZYX
160200 ZLXYYMYX
SACI69 ZWAK 160200
METAR ZWAK 160200Z 36001MPS 7000 NSC M20/M22 Q1041 NOSIG=




XYE0661 160201 
GG TESTYZYX
160200 ZLXYYMYX
SACI34 ZSAM 160200
METAR ZSAM 160200Z 36004MPS 9999 BKN060 16/06 Q1027 NOSIG=




XYE0662 160201 
GG TESTYZYX
160200 ZLXYYMYX
SACI35 ZGOW 160200
METAR ZGOW 160200Z 01005MPS 320V030 CAVOK 17/05 Q1027 NOSIG=




XYE0663 160201 
GG TESTYZYX
160200 ZLXYYMYX
SACI68 ZYAS 160200
METAR ZYAS 160200Z 30003MPS 3000 HZ NSC M11/M18 Q1026=




XYE0664 160201 
GG TESTYZYX
160200 ZLXYYMYX
SACI73 ZBLL 160200
METAR ZBLL 160200Z 30004MPS 240V330 CAVOK M12/M21 Q1035 NOSIG=




XYE0665 160201 
GG TESTYZYX
160200 ZLXYYMYX
SACI74 ZSWY 160200
METAR ZSWY 160200Z 02005MPS 9999 FEW040 10/M02 Q1033 NOSIG=




XYE0666 160201 
GG TESTYZYX
160200 ZLXYYMYX
SACI66 ZUZH 160200
METAR ZUZH 160200Z 08002MPS 040V120 9999 FEW023 OVC033 05/M01
Q1029 NOSIG=




XYE0667 160201 
GG TESTYZYX
160200 ZLXYYMYX
SACI35 ZGKL 160200
METAR ZGKL 160200Z 03007MPS 010V180 CAVOK 12/M07 Q1035 NOSIG=




XYE0668 160201 
GG TESTYZYX
160200 ZLXYYMYX
SACI45 ZHHH 160200
METAR ZHHH 160200Z 04004MPS 350V080 CAVOK 06/M16 Q1041 NOSIG=




XYE0669 160201 
GG TESTYZYX
160200 ZLXYYMYX
SACI45 ZHYC 160200
METAR ZHYC 160200Z 18004MPS CAVOK 06/M07 Q1041 NOSIG=




XYE0670 160201 
GG TESTYZYX
160200 ZLXYYMYX
SACI77 ZLZY 160200
METAR ZLZY 160200Z 14004MPS CAVOK M13/M23 Q1036 NOSIG=




XYE0671 160201 
GG TESTYZYX
160200 ZLXYYMYX
SACI37 ZLIC 160200
METAR ZLIC 160200Z 22006MPS CAVOK M08/M21 Q1036 NOSIG=




XYE0672 160201 
GG TESTYZYX
160200 ZLXYYMYX
SACI35 ZJSY 160200
METAR ZJSY 160200Z 07005MPS 040V110 9999 FEW066 27/17 Q1020 NOSIG=




XYE0673 160201 
GG TESTYZYX
160200 ZLXYYMYX
SACI44 ZSQD 160200
METAR ZSQD 160200Z 31009G14MPS 280V340 CAVOK M01/M15 Q1031 NOSIG=




XYE0674 160201 
GG TESTYZYX
160200 ZLXYYMYX
SACI35 ZGSZ 160200
METAR ZGSZ 160200Z 01011G16MPS CAVOK 16/03 Q1028 NOSIG=




XYE0675 160201 
GG TESTYZYX
160200 ZLXYYMYX
SACI34 ZSHC 160200
METAR ZSHC 160200Z 31008MPS CAVOK 06/M16 Q1035 NOSIG=




XYE0676 160201 
GG TESTYZYX
160200 ZLXYYMYX
SACI39 ZWTN 160200
METAR ZWTN 160200Z 00000MPS CAVOK M15/M18 Q1038 NOSIG=




XYE0677 160201 
GG TESTYZYX
160200 ZLXYYMYX
SACI45 ZGHA 160200
METAR ZGHA 160200Z 06005MPS 360V090 CAVOK 08/M13 Q1039 NOSIG=




XYE0678 160201 
GG TESTYZYX
160201 ZLXYYMYX
SACI44 ZSCN 160200
METAR ZSCN 160200Z 34005MPS 310V020 CAVOK 07/M13 Q1038 NOSIG=




XYE0679 160201 
GG TESTYZYX
160201 ZLXYYMYX
SACI63 ZBLA 160200
METAR ZBLA 160200Z 21004MPS CAVOK M30/M34 Q1018 NOSIG=




XYE0680 160201 
GG TESTYZYX
160201 ZLXYYMYX
SACI63 ZBTL 160200
METAR ZBTL 160200Z 35004MPS CAVOK M15/M22 Q1024 NOSIG=




XYE0681 160201 
GG TESTYZYX
160201 ZLXYYMYX
SACI33 ZBYN 160200
METAR ZBYN 160200Z 28006MPS 250V310 CAVOK M06/M24 Q1034 NOSIG=




XYE0682 160201 
GG TESTYZYX
160201 ZLXYYMYX
SACI73 ZBYC 160200
METAR ZBYC 160200Z 31003MPS 270V360 CAVOK M00/M21 Q1042 NOSIG=




XYE0683 160201 
GG TESTYZYX
160201 ZLXYYMYX
SACI37 ZLLL 160200
METAR ZLLL 160200Z VRB01MPS CAVOK M12/M20 Q1036 NOSIG=




XYE0684 160201 
GG TESTYZYX
160201 ZLXYYMYX
SACI75 ZGHC 160200
METAR ZGHC 160200Z AUTO VRB03G08MPS 9999 // ////// 09/M04 Q1034=




XYE0685 160201 
GG TESTYZYX
160201 ZLXYYMYX
SACI65 ZGCJ 160200
METAR ZGCJ 160200Z 05006MPS 030V090 9999 SCT050 10/M09 Q1039
NOSIG=




XYE0686 160201 
GG TESTYZYX
160201 ZLXYYMYX
SACI68 ZYDQ 160200
METAR ZYDQ 160200Z 33005MPS 6000 NSC M23/M25 Q1022 NOSIG=




XYE0687 160201 
GG TESTYZYX
160201 ZLXYYMYX
SACI45 ZHCC 160200
METAR ZHCC 160200Z 29008MPS CAVOK 02/M21 Q1038 NOSIG=




XYE0688 160201 
GG TESTYZYX
160201 ZLXYYMYX
SACI35 ZGNN 160200
METAR ZGNN 160200Z 05004MPS CAVOK 14/05 Q1032 NOSIG=




XYE0689 160201 
GG TESTYZYX
160201 ZLXYYMYX
SACI44 ZSJN 160200
METAR ZSJN 160200Z 28006MPS 250V310 CAVOK M01/M17 Q1035 NOSIG=




XYE0690 160201 
GG TESTYZYX
160201 ZLXYYMYX
SACI39 ZWTL 160200
METAR ZWTL 160200Z 36002MPS CAVOK M11/M17 Q1048 NOSIG=




XYE0691 160201 
GG TESTYZYX
160201 ZLXYYMYX
SACI35 ZJHK 160200
METAR ZJHK 160200Z 36005MPS 330V040 7000 OVC030 17/11 Q1025 NOSIG=




XYE0692 160201 
GG TESTYZYX
160201 ZLXYYMYX
SACI34 ZSSS 160200
METAR ZSSS 160200Z 31009MPS CAVOK 05/M10 Q1033 NOSIG=




XYE0693 160201 
GG TESTYZYX
160201 ZLXYYMYX
SACI69 ZWAT 160200
METAR ZWAT 160200Z 00000MPS CAVOK M16/M24 Q1038 NOSIG=




XYE0694 160201 
GG TESTYZYX
160201 ZLXYYMYX
SACI39 ZWWW 160200
METAR ZWWW 160200Z 31001MPS 1400 R25/1500N BR NSC M21/M23 Q1041
NOSIG=




XYE0695 160201 
GG TESTYZYX
160201 ZLXYYMYX
SACI33 ZBHH 160200
METAR ZBHH 160200Z 14004MPS 110V180 9999 FEW040 M13/M19 Q1030 NOSIG=




XYE0696 160201 
GG TESTYZYX
160201 ZLXYYMYX
SACI63 ZBCF 160200
METAR ZBCF 160200Z 30003MPS 230V340 CAVOK M11/M24 Q1022 NOSIG=




XYE0697 160201 
GG TESTYZYX
160201 ZLXYYMYX
SACI66 ZUNC 160200
METAR ZUNC 160200Z VRB01MPS CAVOK 07/M08 Q1041 NOSIG=




XYE0698 160201 
GG TESTYZYX
160201 ZLXYYMYX
SACI86 ZUPS 160200
METAR ZUPS 160200Z AUTO 01004MPS 9999 /// ////// M02/M03 Q1036
NOSIG=




XYE0699 160201 
GG TESTYZYX
160201 ZLXYYMYX
SACI73 ZBAL 160200
METAR ZBAL 160200Z 07002MPS CAVOK M09/M22 Q1037 NOSIG=




XYE0700 160201 
GG TESTYZYX
160201 ZLXYYMYX
SACI68 ZYDD 160200
METAR ZYDD 160200Z 36003MPS CAVOK M08/M19 Q1024 NOSIG=




XYE0701 160201 
GG TESTYZYX
160201 ZLXYYMYX
SACI65 ZGZJ 160200
METAR ZGZJ 160200Z 36007G12MPS 320V030
CAVOK
16/06 Q1026
NOSIG=




XYE0702 160201 
GG TESTYZYX
160201 ZLXYYMYX
SACI34 ZSPD 160200
METAR ZSPD 160200Z 30009G14MPS 270V330 8000 NSC 05/M09 Q1033 NOSIG=




XYE0703 160201 
GG TESTYZYX
160201 ZLXYYMYX
SACI34 ZSNB 160200
METAR ZSNB 160200Z 32007MPS 8000 NSC 06/M11 Q1033 NOSIG=




XYE0704 160201 
GG TESTYZYX
160201 ZLXYYMYX
SACI89 ZWNL 160200
METAR ZWNL 160200Z 06001MPS CAVOK M10/M18 Q1034 NOSIG=




XYE0705 160201 
GG TESTYZYX
160201 ZLXYYMYX
SACI63 ZBXH 160200
METAR ZBXH 160200Z 28009MPS CAVOK M20/M25 Q1022 NOSIG=




XYE0706 160201 
GG TESTYZYX
160201 ZLXYYMYX
SACI38 ZYTX 160200
METAR ZYTX 160200Z 20002MPS 4000 FU NSC M15/M20 Q1025 NOSIG=




XYE0707 160201 
GG TESTYZYX
160201 ZLXYYMYX
SACI73 ZBHD 160200
METAR ZBHD 160200Z 29008MPS CAVOK 02/M22 Q1036 NOSIG=




XYE0708 160201 
GG TESTYZYX
160201 ZLXYYMYX
SACI44 ZSLG 160200
METAR ZSLG 160200Z 31004MPS CAVOK 01/M18 Q1035 NOSIG=




XYE0709 160201 
GG TESTYZYX
160201 ZLXYYMYX
SACI86 ZUKJ 160200
METAR ZUKJ 160200Z 04004MPS 020V080 9999 SCT050 05/M06 Q1037 NOSIG=




XYE0710 160202 
GG TESTYZYX
160201 ZLXYYMYX
SACI78 ZYTN 160200
METAR ZYTN 160200Z 27004MPS 6000 NSC M15/M19 Q1018=




XYE0711 160202 
GG TESTYZYX
160201 ZLXYYMYX
SACI68 ZYCY 160200
METAR ZYCY 160200Z 34006MPS 300V360 CAVOK M07/M24 Q1026 NOSIG=




XYE0712 160202 
GG TESTYZYX
160201 ZLXYYMYX
SACI34 ZSNJ 160200
METAR ZSNJ 160200Z 33005MPS 300V360 CAVOK 04/M13 Q1036 NOSIG=




XYE0713 160202 
GG TESTYZYX
160201 ZLXYYMYX
SACI38 ZYHB 160200
METAR ZYHB 160200Z 28003MPS 250V310 1300 R23/1300N -SN BR SCT006
SCT033 M20/M22
Q1021 BECMG TL0300 2500=




XYE0714 160202 
GG TESTYZYX
160201 ZLXYYMYX
SACI36 ZUCK 160200
METAR ZUCK 160200Z VRB01MPS 9999 -RA SCT030 06/M01 Q1040 NOSIG=




XYE0715 160202 
GG TESTYZYX
160201 ZLXYYMYX
SACI38 ZYCC 160200
METAR ZYCC 160200Z 33002MPS 310V020 1400 R24/1600N -SN BR SCT010
OVC020 M18/M21 Q1022 BECMG TL0330 1600 -SN BR=




XYE0716 160202 
GG TESTYZYX
160201 ZLXYYMYX
SACI65 ZGMX 160200
METAR ZGMX 160200Z 35006MPS CAVOK 14/M00 Q1030 NOSIG=




XYE0717 160202 
GG TESTYZYX
160201 ZLXYYMYX
SACI65 ZGLG 160200
METAR ZGLG 160200Z 02006MPS CAVOK 10/M13 Q1038 NOSIG=




XYE0718 160202 
GG TESTYZYX
160201 ZLXYYMYX
SACI36 ZUXC 160200
METAR ZUXC 160200Z 35004MPS 9999 OVC050 06/M04 Q1031 NOSIG=




XYE0719 160202 
GG TESTYZYX
160201 ZLXYYMYX
SACI73 ZBAR 160200
METAR ZBAR 160200Z 07001MPS CAVOK M17/M28 Q1038=




XYE0720 160202 
GG TESTYZYX
160201 ZLXYYMYX
SACI63 ZBER 160200
METAR ZBER 160200Z 28007MPS CAVOK M17/M22 Q1028 NOSIG=




XYE0721 160202 
GG TESTYZYX
160201 ZLXYYMYX
SACI34 ZSLQ 160200
METAR ZSLQ 160200Z 33008MPS CAVOK 08/M12 Q1031 NOSIG=




XYE0722 160202 
GG TESTYZYX
160201 ZLXYYMYX
SACI68 ZYMD 160200
METAR ZYMD 160200Z VRB01MPS 1200 BR FU NSC M16/M19 Q1014 NOSIG=




XYE0723 160202 
GG TESTYZYX
160201 ZLXYYMYX
SACI68 ZYJZ 160200
METAR ZYJZ 160200Z 01004MPS CAVOK M07/M24 Q1028 NOSIG=




XYE0724 160202 
GG TESTYZYX
160201 ZLXYYMYX
SACI69 ZWBL 160200
METAR ZWBL 160200Z VRB01MPS 4000 BR NSC M24/M27 Q1044 NOSIG=




XYE0725 160202 
GG TESTYZYX
160201 ZLXYYMYX
SACI38 ZYTL 160200
METAR ZYTL 160200Z 32010MPS CAVOK M04/M16 Q1027 NOSIG=




XYE0726 160202 
GG TESTYZYX
160201 ZLXYYMYX
SACI36 ZPPP 160200
METAR ZPPP 160200Z 05006MPS 9999 BKN016 OVC030 00/M01 Q1033 NOSIG=




XYE0727 160202 
GG TESTYZYX
160201 ZLXYYMYX
SACI74 ZSJJ 160200
METAR ZSJJ 160200Z 36006MPS CAVOK 07/M15 Q1038 NOSIG=




XYE0728 160202 
GG TESTYZYX
160201 ZLXYYMYX
SACI67 ZLJC 160200
METAR ZLJC 160200Z AUTO 00000MPS /// /// M07/M23 Q1038 NOSIG=




XYE0729 160202 
GG TESTYZYX
160201 ZLXYYMYX
SACI76 ZPTC 160200
METAR ZPTC 160200Z VRB01MPS CAVOK 13/06 Q1026 NOSIG=




XYE0730 160202 
GG TESTYZYX
160201 ZLXYYMYX
SACI36 ZUGY 160200
METAR ZUGY 160200Z 02003MPS 350V060 8000 SCT015 OVC040 03/01 Q1036
NOSIG=




XYE0731 160202 
GG TESTYZYX
160201 ZLXYYMYX
SACI39 ZWSH 160200
METAR ZWSH 160200Z 31003MPS 6000 NSC M14/M16 Q1038 NOSIG=




XYE0732 160202 
GG TESTYZYX
160201 ZLXYYMYX
SACI68 ZYLD 160200
METAR ZYLD 160200Z 26005MPS 6000 -SN FEW033 M25/M28 Q1017 NOSIG=




XYE0733 160202 
GG TESTYZYX
160201 ZLXYYMYX
SACI68 ZYYJ 160200
METAR ZYYJ 160200Z 28009MPS 9999 SCT040 M11/M16 Q1015 NOSIG=




XYE0734 160202 
GG TESTYZYX
160201 ZLXYYMYX
SACI66 ZUGU 160200
METAR ZUGU 160200Z 08003MPS CAVOK 05/M20 Q1040 NOSIG=




XYE0735 160202 
GG TESTYZYX
160201 ZLXYYMYX
SACI86 ZULB 160200
METAR ZULB 160200Z VRB04MPS 9999 SCT015 BKN040 06/M04 Q1035 NOSIG=




XYE0736 160202 
GG TESTYZYX
160201 ZLXYYMYX
SACI66 ZUYB 160200
METAR ZUYB 160200Z 26002MPS CAVOK 08/M00 Q1041 NOSIG=




XYE0737 160202 
GG TESTYZYX
160201 ZLXYYMYX
SACI66 ZUJZ 160200
METAR ZUJZ 160200Z 21001MPS 9999 FEW020 OVC040 M09/M16 Q1030 NOSIG=




XYE0738 160202 
GG TESTYZYX
160201 ZLXYYMYX
SACI75 ZHSN 160200
METAR ZHSN 160200Z 28010MPS CAVOK M12/M27 Q1030 NOSIG=




XYE0739 160202 
GG TESTYZYX
160201 ZLXYYMYX
SACI66 ZUMY 160200 RRA
METAR ZUMY 160200Z 00000MPS CAVOK 06/M14 Q1041 NOSIG=




XYE0740 160202 
GG TESTYZYX
160201 ZLXYYMYX
SACI68 ZYJX 160200
METAR ZYJX 160200Z 30003MPS 3000 FU FEW010 SCT033 M17/M21 Q1016
NOSIG=




XYE0741 160202 
GG TESTYZYX
160201 ZLXYYMYX
SACI34 ZSFZ 160200
METAR ZSFZ 160200Z 35003MPS 320V030 CAVOK 15/04 Q1029 NOSIG=




XYE0742 160202 
GG TESTYZYX
160201 ZLXYYMYX
SACI45 ZHLY 160200
METAR ZHLY 160200Z 27007MPS CAVOK 01/M19 Q1039 NOSIG=




XYE0743 160202 
GG TESTYZYX
160201 ZLXYYMYX
SACI74 ZSDY 160200
METAR ZSDY 160200Z 30007MPS CAVOK M03/M20 Q1033 NOSIG=




XYE0744 160202 
GG TESTYZYX
160202 ZLXYYMYX
SACI67 ZLYS 160200
METAR ZLYS 160200Z 00000MPS 4000 -SN SCT033 OVC060 M08/M09 Q1027
NOSIG=




XYE0745 160202 
GG TESTYZYX
160202 ZLXYYMYX
SACI68 ZYJM 160200
METAR ZYJM 160200Z 26002MPS 2000 BR FU NSC M22/M25 Q1019 NOSIG=




XYE0746 160202 
GG TESTYZYX
160202 ZLXYYMYX
SACI68 ZYMH 160200
METAR ZYMH 160200Z 25003MPS CAVOK M32/M35 Q1017 NOSIG=




XYE0747 160202 
GG TESTYZYX
160202 ZLXYYMYX
SACI89 ZWKC 160200
METAR ZWKC 160200Z 04003MPS 2500 FU NSC M17/M20 Q1042 NOSIG=




XYE0748 160202 
GG TESTYZYX
160202 ZLXYYMYX
SACI68 ZYHE 160200
METAR ZYHE 160200Z 36005MPS CAVOK M26/M32 Q1018 NOSIG=




XYE0749 160202 
GG TESTYZYX
160202 ZLXYYMYX
SACI86 ZUBJ 160200
METAR ZUBJ 160200Z 34004MPS 9999 -SG SCT010 OVC023 M00/M01 Q1037
NOSIG
=




XYE0750 160202 
GG TESTYZYX
160202 ZLXYYMYX
SACI74 ZSGZ 160200
METAR ZSGZ 160200Z 01006MPS 7000 NSC 11/M02 Q1035 NOSIG=




XYE0751 160202 
GG TESTYZYX
160202 ZLXYYMYX
SACI73 ZBCZ 160200
METAR ZBCZ 160200Z 29007MPS CAVOK M06/M22 Q1033 NOSIG=




XYE0752 160202 
GG TESTYZYX
160202 ZLXYYMYX
SACI78 ZYJD 160200
METAR ZYJD 160200Z 00000MPS 7000 NSC M30/M34 Q1020 NOSIG=




XYE0753 160202 
GG TESTYZYX
160202 ZLXYYMYX
SACI39 ZWKM 160200
METAR ZWKM 160200Z 09001MPS 3500 BR BKN005 M24/M26 Q1047 NOSIG=




XYE0754 160202 
GG TESTYZYX
160202 ZLXYYMYX
SACI75 ZHXF 160200
METAR ZHXF 160200Z 34005MPS CAVOK 07/M12 Q1041 NOSIG=




XYE0755 160203 
GG TESTYZYX
160202 ZLXYYMYX
SACI69 ZWYN 160200
METAR ZWYN 160200Z 01001MPS 6000 NSC M16/M20 Q1034 NOSIG=




XYE0756 160203 
GG TESTYZYX
160202 ZLXYYMYX
SACI73 ZBYZ 160200
METAR ZBYZ 160200Z 28006MPS CAVOK M11/M22 Q1034 NOSIG=




XYE0757 160203 
GG TESTYZYX
160202 ZLXYYMYX
SACI63 ZBUL 160200
METAR ZBUL 160200Z 00000MPS CAVOK M17/M24 Q1021 NOSIG=




XYE0758 160203 
GG TESTYZYX
160202 ZLXYYMYX
SACI66 ZUDX 160200
METAR ZUDX 160200Z 00000MPS 9999 BKN050 08/M05 Q1040 NOSIG=




XYE0759 160203 
GG TESTYZYX
160202 ZLXYYMYX
SACI35 ZGZH 160200
METAR ZGZH 160200Z 32004MPS CAVOK 14/M01 Q1033 NOSIG=




XYE0760 160203 
GG TESTYZYX
160202 ZLXYYMYX
SACI86 ZUNP 160200
METAR ZUNP 160200Z AUTO 03006MPS //// // ///100 08/M04 Q1037 =




XYE0761 160203 
GG TESTYZYX
160202 ZLXYYMYX
SACI44 ZSXZ 160200
METAR ZSXZ 160200Z 32005MPS 280V010 CAVOK 01/M17 Q1037 NOSIG=




XYE0762 160203 
GG TESTYZYX
160202 ZLXYYMYX
SACI65 ZGBH 160200
METAR ZGBH 160200Z 36007MPS 9999 BKN036 14/05 Q1028 NOSIG=




XYE0763 160203 
GG TESTYZYX
160202 ZLXYYMYX
SACI64 ZSWX 160200
METAR ZSWX 160200Z 32006G12MPS CAVOK 04/M15 Q1034 NOSIG=




XYE0764 160203 
GG TESTYZYX
160202 ZLXYYMYX
SACI64 ZSTX 160200
METAR ZSTX 160200Z 09002MPS CAVOK 06/M10 Q1036 NOSIG=




XYE0765 160203 
GG TESTYZYX
160203 ZLXYYMYX
SACI76 ZPZT 160200
METAR ZPZT 160200Z 23003MPS 8000 -SN SCT010 OVC016 M02/M04 Q1038
NOSIG=




XYE0766 160203 
GG TESTYZYX
160203 ZLXYYMYX
SACI63 ZBOW 160200
METAR ZBOW 160200Z 30005MPS CAVOK M11/M20 Q1033 NOSIG=




XYE0767 160203 
GG TESTYZYX
160203 ZLXYYMYX
SACI75 ZHES 160200
METAR ZHES 160200Z VRB01MPS 6000 NSC 08/02 Q1038 NOSIG=




XYE0768 160203 
GG TESTYZYX
160203 ZLXYYMYX
SACI66 ZUKD 160200
METAR ZUKD 160200Z 22003MPS 180V260 9999 FEW050 M03/M12 Q1028 NOSIG=




XYE0769 160203 
GG TESTYZYX
160203 ZLXYYMYX
SACI74 ZSJG 160200
METAR ZSJG 160200Z 32004MPS 300V360 CAVOK 01/M15 Q1036 NOSIG=




XYE0770 160203 
GG TESTYZYX
160203 ZLXYYMYX
SACI44 ZSYT 160200
METAR ZSYT 160200Z 30008MPS 260V320 9999 -SHSN FEW033 M03/M09 Q1029
NOSIG=




XYE0771 160203 
GG TESTYZYX
160203 ZLXYYMYX
SACI76 ZPWS 160200
METAR ZPWS 160200Z 01005MPS 340V040 9999 SCT009 OVC023 03/02 Q1033
NOSIG=




XYE0772 160203 
GG TESTYZYX
160203 ZLXYYMYX
SACI67 ZLJQ 160200
METAR ZLJQ 160200Z 29002MPS CAVOK M10/M24 Q1037 NOSIG=




XYE0773 160203 
GG TESTYZYX
160203 ZLXYYMYX
SACI76 ZPSM 160200
METAR ZPSM 160200Z VRB01MPS 9999 SCT026 16/13 Q1026 NOSIG=




XYE0774 160203 
GG TESTYZYX
160203 ZLXYYMYX
SACI76 ZPDL 160200
METAR ZPDL 160200Z 17009MPS 9999 BKN050 11/04 Q1027 NOSIG=




XYE0775 160203 
GG TESTYZYX
160203 ZLXYYMYX
SACI64 ZSYW 160200
METAR ZSYW 160200Z 01003MPS 250V040 CAVOK 07/M15 Q1034 NOSIG=




XYE0776 160203 
GG TESTYZYX
160203 ZLXYYMYX
SACI76 ZPJH 160200
METAR ZPJH 160200Z 00000MPS 3000 BR SCT004 OVC026 16/16 Q1023 NOSIG=




XYE0777 160203 
GG TESTYZYX
160203 ZLXYYMYX
SACI86 ZUQJ 160200
METAR ZUQJ 160200Z AUTO 05002MPS 020V080 //// // //// 06/03 Q1038=




XYE0778 160203 
GG TESTYZYX
160203 ZLXYYMYX
SPCI36 ZUGY 160200
SPECIAL ZUGY TEST=




XYE0779 160203 
GG TESTYZYX
160203 ZLXYYMYX
SACI64 ZSYN 160200
METAR ZSYN 160200Z 32008MPS CAVOK 01/M16 Q1034 NOSIG=




XYE0780 160203 
GG TESTYZYX
160203 ZLXYYMYX
SACI65 ZGWZ 160200
METAR ZGWZ 160200Z 01006MPS 340V050 9999 FEW040 14/M01 Q1032
NOSIG=




XYE0781 160204 
GG TESTYZYX
160204 ZLXYYMYX
SACI86 ZUYI 160200
METAR ZUYI 160200Z 36004MPS 320V040 9999 SCT015 OVC040 05/02 Q1036
NOS
IG=




XYE0782 160204 
GG TESTYZYX
160204 ZLXYYMYX
SACI63 ZBDS 160200
METAR ZBDS 160200Z 29007MPS CAVOK M12/M23 Q1030 NOSIG=




XYE0783 160204 
GG TESTYZYX
160204 ZLXYYMYX
SACI86 ZUAS 160200
METAR ZUAS 160200Z 09005MPS 4500 -DZ BR FEW003 SCT008 OVC026 00/00
Q1036 NOSIG=




XYE0784 160204 
GG TESTYZYX
160204 ZLXYYMYX
SACI64 ZSFY 160200
METAR ZSFY 160200Z 31005MPS 260V360 CAVOK 02/M17 Q1039 NOSIG=




XYE0785 160204 
GG TESTYZYX
160204 ZLXYYMYX
SACI45 ZGDY 160200
METAR ZGDY 160200Z 06004MPS CAVOK 07/M12 Q1041 NOSIG=




XYE0786 160204 
GG TESTYZYX
160204 ZLXYYMYX
SACI86 ZUWX 160200
METAR ZUWX 160200Z 36002MPS 340V040 2000 BR NSC 06/05 Q1038 NIOSIG=
=




XYE0787 160204 
GG TESTYZYX
160204 ZLXYYMYX
SACI86 ZUTR 160200
METAR ZUTR 160200Z 06004MPS 030V100 9999 BKN040 05/M11 Q1038 NOSIG=




XYE0788 160204 
GG TESTYZYX
160204 ZLXYYMYX
SACI36 ZUBD 160200
METAR ZUBD 160200Z 14010MPS 9999 FEW050 M05/M11 Q1027 NOSIG=




XYE0789 160204 
GG TESTYZYX
160204 ZLXYYMYX
SACI86 ZUZY 160200
METAR ZUZY 160200Z VRB01MPS 5000 BR SCT015 OVC030 05/03 Q1038 NOSIG=




XYE0790 160204 
GG TESTYZYX
160204 ZLXYYMYX
SACI76 ZPDQ 160200
METAR ZPDQ 160200Z 04002MPS 350V100 9999 SCT026 02/M05 Q1032 NOSIG=




XYE0791 160204 
GG TESTYZYX
160204 ZLXYYMYX
SACI66 ZULZ 160200
METAR ZULZ 160200Z 00000MPS 9999 FEW040 08/00 Q1041 NOSIG=
=




XYE0792 160204 
GG TESTYZYX
160204 ZLXYYMYX
SACI64 ZSJH 160200
METAR ZSJH 160200Z 31004MPS 250V360 CAVOK 04/M09 Q1038 NOSIG=




XYE0793 160204 
GG TESTYZYX
160204 ZLXYYMYX
SACI69 ZWKL 160200 RRA
METAR ZWKL 160200Z 00000MPS 4400 BR NSC M17/M18 Q1043 NOSIG=




XYE0794 160204 
GG TESTYZYX
160204 ZLXYYMYX
SACI66 ZUGH 160200
METAR ZUGH 160200Z 35001MPS CAVOK 07/M06 Q1041 NOSIG=




XYE0795 160204 
GG TESTYZYX
160204 ZLXYYMYX
SACI65 ZGCD 160200
METAR ZGCD 160200Z 02002MPS CAVOK 07/M11 Q1042 NOSIG=




XYE0796 160204 
GG TESTYZYX
160204 ZLXYYMYX
SACI63 ZBES 160200
METAR ZBES 160200Z 06001MPS CAVOK M30/M34 Q1016 NOSIG=




XYE0797 160205 
GG TESTYZYX
160205 ZLXYYMYX
SACI74 ZSJD 160200
METAR ZSJD 160200Z 02004MPS CAVOK 06/M13 Q1037 NOSIG=




XYE0798 160205 
GG TESTYZYX
160205 ZLXYYMYX
SACI44 ZSCG 160200
METAR ZSCG 160200Z 32007MPS CAVOK 03/M15 Q1035 NOSIG=




XYE0799 160205 
GG TESTYZYX
160205 ZLXYYMYX
SACI76 ZPLJ 160200
METAR ZPLJ 160200Z VRB01MPS 9999 FEW040 BKN090 09/01 Q1026 NOSIG=




XYE0800 160205 
GG TESTYZYX
160205 ZLXYYMYX
SACI86 ZUNZ 160200
METAR ZUNZ 160200Z VRB01MPS 9999 BKN070 04/M05 Q1025 NOSIG=




XYE0801 160205 
GG TESTYZYX
160205 ZLXYYMYX
SACI67 ZLGY 160200 RRA
METAR ZLGY 160200Z 30002MPS CAVOK M09/M23 Q1035 NOSIG=




XYE0802 160205 
GG TESTYZYX
160205 ZLXYYMYX
SACI76 ZPBS 160200
METAR ZPBS 160200Z VRB01MPS 9999 SCT030 11/04 Q1026 NOSIG=




XYE0803 160205 
GG TESTYZYX
160205 ZLXYYMYX
SACI44 ZSWH 160200
METAR ZSWH 160200Z 31007MPS 0500 SHSN SCT005 OVC020 M05/M05 Q1026
NOSIG=




XYE0804 160205 
GG TESTYZYX
160205 ZLXYYMYX
SACI76 ZPMS 160200
METAR ZPMS 160200Z 00000MPS 3000 BR BKN040 10/09 Q1023 NOSIG=




XYE0805 160206 
GG TESTYZYX
160206 ZLXYYMYX
SACI74 ZSQZ 160200
METAR ZSQZ 160200Z 34005MPS 310V010 9999 SCT046 16/04 Q1028 NOSIG=




XYE0806 160206 
GG TESTYZYX
160206 ZLXYYMYX
SACI74 ZSLO 160200
METAR ZSLO 160200Z 03005MPS 7000 FEW040 10/M00 Q1033 NOSIG=




XYE0807 160206 
GG TESTYZYX
160206 ZLXYYMYX
SACI74 ZSGS 160200
METAR ZSGS 160200Z 04005MPS 360V060 7000 NSC 10/M03 Q1037 NOSIG=




XYE0808 160206 
GG TESTYZYX
160206 ZLXYYMYX
SACI36 ZUAL 160200
METAR ZUAL 160200Z 36002MPS 9999 FEW020 OVC050 M14/M31 Q1026 NOSIG=




XYE0809 160206 
GG TESTYZYX
160206 ZLXYYMYX
SACI36 ZULS 160200
METAR ZULS 160200Z 08003MPS 060V120 9999 FEW083 03/M08 Q1024 NOSIG=




XYE0810 160206 
GG TESTYZYX
160206 ZLXYYMYX
SACI44 ZSWF 160200
METAR ZSWF 160200Z 31008MPS CAVOK M02/M21 Q1033 NOSIG=




XYE0811 160207 
GG TESTYZYX
160207 ZLXYYMYX
SACI64 ZSSH 160200 RRA
METAR ZSSH 160200Z 32008MPS CAVOK 00/M18 Q1035 NOSIG=




XYE0812 160207 
GG TESTYZYX
160207 ZLXYYMYX
SACI74 ZSLY 160200
METAR ZSLY 160200Z 29003MPS 250V360 CAVOK M01/M18 Q1035 NOSIG=




XYE0813 160207 
GG TESTYZYX
160207 ZLXYYMYX
SPCI74 ZSYC 160206
METAR ZSYC 160200Z 02004MPS 350V070 CAVOK 10/M09 Q1038 NOSIG=




XYE0814 160209 
FF TESTYZYX
160209 ZLXYYMYX
FCCI36 ZUBD 160020 AAA
TAF AMD ZUBD 160208Z 160312 CNL=




XYE0815 160211 
GG TESTYZYX
160211 ZLXYYMYX
FCCI39 ZWKM 160140
TAF ZWKM 160140Z 160312 24004MPS 8000 NSC TXM15/09Z TNM21/03Z=




XYE0816 160211 
FF TESTYZYX
160211 ZLXYYMYX
SACI68 ZYQQ 160200 CCA
METAR COR ZYQQ 160200Z 35002MPS 3000 FU BR NSC M20/M24 Q1023
NOSIG=




XYE0817 160214 
GG TESTYZYX
160214 ZLXYYMYX
SPCI34 ZSSS 160213
SPECI ZSSS 160213Z 32008G13MPS CAVOK 05/M10 Q1033 NOSIG=




XYE0818 160214 
GG TESTYZYX
160214 ZLXYYMYX
FTCI45 ZGHA 160213
TAF ZGHA 160213Z 160606 36004MPS 6000 NSC TX12/07Z TNM01/22Z=




XYE0819 160215 
GG TESTYZYX
160215 ZLXYYMYX
SPCI33 ZBHH 160213
SPE
CHECK
TEXT
NEW ENDING ADDED ZBHHXMXX=




XYE0820 160215 
GG TESTYZYX
160215 ZLXYYMYX
SPCI33 ZBHH 160214
SPECI ZBHH RYRYRYRYRYRYRYRY=




XYE0821 160217 
GG TESTYZYX
160217 ZLXYYMYX
SPCI33 ZBHH 160216
SPECI ZBHH 160216Z RYRYRYRYRYRYRYRYRY=




XYE0822 160219 
GG TESTYZYX
160219 ZLXYYMYX
FTCI36 ZUUU 160218
TAF ZUUU 160218Z 160606 20003MPS 5000 BR SCT050 TX12/07Z TN04/23Z=




XYE0823 160220 
FF TESTYZYX
160220 ZLXYYMYX
FVAU01 ADRM 160213
VA ADVISORY
DTG: 20141216/0213Z
VAAC: DARWIN
VOLCANO: SINABUNG 261080
PSN: N0310 E09823
AREA: INDONESIA
SUMMIT ELEV: 2460M
ADVISORY NR: 2014/573
INFO SOURCE: CVGHM WEBCAM, MTSAT
AVIATION COLOUR CODE: ORANGE
ERUPTION DETAILS: VA OBS TO FL140 TO NW AT 14/0210Z
OBS VA DTG: 16/0215Z
OBS VA CLD:
SFC/FL140 N0315 E09825 - N0320 E09800 - N0250 E09810 -
N0305 E09825 - N0315 E09825 MOV SW 15KT
FCST VA CLD +6HR: 16/0815Z
SFC/FL140 N0315 E09825 - N0320 E09800 - N0250 E09810 -
N0305 E09825 - N0315 E09825
FCST VA CLD +12HR: 16/1415Z
SFC/FL140 N0315 E09825 - N0320 E09800 - N0250 E09810 -
N0305 E09825 - N0315 E09825
FCST VA CLD +18HR: 16/2015Z
SFC/FL140 N0315 E09825 - N0320 E09800 - N0250 E09810 -
N0305 E09825 - N0315 E09825
RMK: VA IS UNIDENTIFIABLE ON SAT IMAGERY. WEBCAM INDICATES HIGH
LEVEL ASH HAS DISSAPATED, HOWEVER INTERMITENT ERUPTIONS AND
PYROCLASTIC FLOWS ARE ONGOING. ** USE TEXT PRODUCT FOR FLIGHT
PLANNING**
NXT ADVISORY: NO LATER THAN 20141216/0815Z




XYE0824 160223 
GG TESTYZYX
160223 ZLXYYMYX
FTCI38 ZYTX 160223
TAF ZYTX 160223Z 160606 30004MPS 6000 NSC TXM10/06Z TNM23/22Z=




XYE0825 160225 
FF TESTYZYX
160225 ZLXYYMYX
FCCI86 ZUAS 160224 AAA
TAF AMD ZUAS 160224Z 160312 06004MPS 4000 -FZRA BR FEW003 SCT008
OVC023 TX00/07Z TNM01/12Z=




XYE0826 160228 
FF TESTYZYX
160228 ZLXYYMYX
WSCI37 ZLXY 160225
ZLHW SIGMET 1 VALID 160240/160640 ZLXY- ZLHW LANZHOU FIR SEV TURB
 FCST S OF N36 ABV FL230 STNR NC=




XYE0827 160229 
GG TESTYZYX
160229 ZLXYYMYX
SPCI38 ZYHB 160227
SPECI ZYHB 160227Z 32003MPS 2000 -SN BR FEW006 SCT033 M20/M22 Q1021
BECMG
TL0330 3000=




XYE0828 160230 
GG TESTYZYX
160230 ZLXYYMYX
SACI38 ZYTX 160230
METAR ZYTX 160230Z 18002MPS 4000 FU NSC M13/M19 Q1025 NOSIG=




XYE0829 160230 
GG TESTYZYX
160230 ZLXYYMYX
SACI33 ZBTJ 160230
METAR ZBTJ 160230Z 31007MPS CAVOK M01/M19 Q1032 NOSIG=




XYE0830 160230 
GG TESTYZYX
160230 ZLXYYMYX
SACI33 ZBAA 160230
METAR ZBAA 160230Z 30009MPS CAVOK M02/M19 Q1032 NOSIG=




XYE0831 160230 
GG TESTYZYX
160230 ZLXYYMYX
SACI36 ZUUU 160230
METAR ZUUU 160230Z VRB01MPS CAVOK 08/M10 Q1041 NOSIG=




XYE0832 160230 
GG TESTYZYX
160230 ZLXYYMYX
SACI35 ZGSZ 160230
METAR ZGSZ 160230Z 01010G15MPS CAVOK 17/03 Q1027 NOSIG=




XYE0833 160230 
GG TESTYZYX
160230 ZLXYYMYX
SACI33 ZBYN 160230
METAR ZBYN 160230Z 29007MPS CAVOK M06/M23 Q1034 NOSIG=




XYE0834 160231 
GG TESTYZYX
160231 ZLXYYMYX
SACI34 ZSSS 160230
METAR ZSSS 160230Z 30008MPS 280V350 CAVOK 05/M10 Q1033 NOSIG=




XYE0835 160231 
GG TESTYZYX
160231 ZLXYYMYX
SACI34 ZSHC 160230
METAR ZSHC 160230Z 31008MPS 270V350 CAVOK 06/M18 Q1035 NOSIG=




XYE0836 160231 
GG TESTYZYX
160231 ZLXYYMYX
SACI39 ZWWW 160230
METAR ZWWW 160230Z 27001MPS 1400 R25/0900V1300U BR NSC M21/M23 Q1041
NOSIG=




XYE0837 160231 
GG TESTYZYX
160231 ZLXYYMYX
SACI35 ZGGG 160230
METAR ZGGG 160230Z 03010G15MPS 010V070 CAVOK 15/00 Q1030 NOSIG=




XYE0838 160231 
GG TESTYZYX
160231 ZLXYYMYX
SACI38 ZYTL 160230
METAR ZYTL 160230Z 31010G15MPS 280V350 CAVOK M04/M15 Q1027 NOSIG=




XYE0839 160231 
GG TESTYZYX
160231 ZLXYYMYX
SACI34 ZSPD 160230
METAR ZSPD 160230Z 30010MPS 8000 NSC 05/M10 Q1032 NOSIG=




XYE0840 160231 
GG TESTYZYX
160231 ZLXYYMYX
SACI66 ZUJZ 160230
METAR ZUJZ 160230Z 17001MPS 9999 BKN060 M07/M18 Q1030 NOSIG=




XYE0841 160236 
GG TESTYZYX
160236 ZLXYYMYX
FCCI74 ZSLO 160233
TAF ZSLO 160233Z 160312 02005MPS 7000 SCT036 TX16/07Z
TN07/12Z=




XYE0842 160237 
GG TESTYZYX
160237 ZLXYYMYX
SPCI44 ZSWH 160235
SPECI ZSWH 160235Z 31008MPS 4000 -SHSN SCT005 OVC020 M05/M05 Q1026
RESHSN NOSIG=




XYE0843 160237 
GG TESTYZYX
160237 ZLXYYMYX
FTCI34 ZSNB 160235
TAF ZSNB 160235Z 160606 32008G15MPS 5000 HZ NSC TX07/06Z TNM01/21Z=




XYE0844 160257 
GG TESTYZYX
160257 ZLXYYMYX
FCCI67 ZLJC 160254
TAF ZLJC 160254Z 160615 36004MPS CAVOK TXM02/08Z TNM10/15Z=




XYE0845 160258 
FF TESTYZYX
160258 ZLXYYMYX
WACI35 ZGGG 160249
ZGZU AIRMET 1 VALID 160300/160700 ZGGG-
ZGZU GUANGZHOU FIR SFC WSPD 65KMH FCST S OF N24 AND E OF E110
STNR NC=




XYE0846 160258 
GG TESTYZYX
160258 ZLXYYMYX
SACI73 ZBDT 160300
METAR ZBDT 160300Z 28007G13MPS 240V320 CAVOK M10/M24 Q1028 NOSIG=




XYE0847 160258 
GG TESTYZYX
160258 ZLXYYMYX
SACI66 ZUNC 160300
METAR ZUNC 160300Z VRB01MPS CAVOK 08/M08 Q1041 NOSIG=




XYE0848 160259 
GG TESTYZYX
160259 ZLXYYMYX
SACI76 ZPLC 160300
METAR ZPLC 160300Z 14005MPS CAVOK 14/08 Q1028 NOSIG=




XYE0849 160259 
GG TESTYZYX
160259 ZLXYYMYX
SACI64 ZSJU 160300
METAR ZSJU 160300Z AUTO 22002MPS 130V290 9999 /// ////// 10/M11
Q1034=




XYE0850 160300 
GG TESTYZYX
160300 ZLXYYMYX
SACI64 ZSNT 160300
METAR ZSNT 160300Z 31007MPS CAVOK 04/M12 Q1033 NOSIG=




XYE0851 160300 
GG TESTYZYX
160300 ZLXYYMYX
SACI67 ZLYA 160300
METAR ZLYA 160300Z 28004MPS 250V310 CAVOK M04/M20 Q1039 NOSIG=




XYE0852 160300 
GG TESTYZYX
160300 ZLXYYMYX
SACI67 ZLYL 160300
METAR ZLYL 160300Z 28006MPS CAVOK M09/M23 Q1035 NOSIG=




XYE0853 160300 
GG TESTYZYX
160300 ZLXYYMYX
SACI65 ZGBS 160300
METAR ZGBS 160300Z VRB02MPS 9999 BKN040 16/03 Q1033 NOSIG=




XYE0854 160300 
GG TESTYZYX
160300 ZLXYYMYX
SACI73 ZBSN 160300
METAR ZBSN 160300Z 29009MPS CAVOK M03/M17 Q1030 NOSIG=




XYE0855 160300 
GG TESTYZYX
160300 ZLXYYMYX
SACI35 ZGSD 160300
METAR ZGSD 160300Z 36009G15MPS 330V030 CAVOK 17/05 Q1026 NOSIG=




XYE0856 160300 
GG TESTYZYX
160300 ZLXYYMYX
SACI66 ZUDC 160300
METAR ZUDC 160300Z AUTO 23010G15MPS 9999 /// ////// M04/M11 Q1030
NOSIG=




XYE0857 160300 
GG TESTYZYX
160300 ZLXYYMYX
SACI73 ZBZJ 160300
METAR ZBZJ 160300Z 31008MPS CAVOK M09/M22 Q1029 NOSIG=




XYE0858 160300 
GG TESTYZYX
160300 ZLXYYMYX
SACI77 ZLXH 160300
METAR ZLXH 160300Z AUTO VRB01MPS //// ///////// M09/M18 Q1031=




XYE0859 160300 
GG TESTYZYX
160300 ZLXYYMYX
SACI74 ZSYA 160300
METAR ZSYA 160300Z 30007G13MPS CAVOK 03/M10 Q1035 NOSIG=




XYE0860 160300 
GG TESTYZYX
160300 ZLXYYMYX
SACI67 ZLDH 160300
METAR ZLDH 160300Z 19004MPS CAVOK M10/M16 Q1042 NOSIG=




XYE0861 160300 
GG TESTYZYX
160300 ZLXYYMYX
SACI67 ZLTS 160300
METAR ZLTS 160300Z 13001MPS CAVOK M03/M12 Q1042 NOSIG=




XYE0862 160300 
GG TESTYZYX
160300 ZLXYYMYX
SACI67 ZLHZ 160300
METAR ZLHZ 160300Z 22002MPS CAVOK 05/M11 Q1041 NOSIG=




XYE0863 160300 
GG TESTYZYX
160300 ZLXYYMYX
SACI36 ZUUU 160300
METAR ZUUU 160300Z VRB01MPS CAVOK 09/M10 Q1041 NOSIG=




XYE0864 160300 
GG TESTYZYX
160300 ZLXYYMYX
SACI65 ZGCD 160300
METAR ZGCD 160300Z 03002MPS CAVOK 08/M13 Q1042 NOSIG=




XYE0865 160300 
GG TESTYZYX
160300 ZLXYYMYX
SACI64 ZSZS 160300
METAR ZSZS 160300Z 34013G19MPS CAVOK 07/M09 Q1031 NOSIG=




XYE0866 160300 
GG TESTYZYX
160300 ZLXYYMYX
SACI67 ZLZW 160300
METAR ZLZW 160300Z 31005MPS CAVOK M05/M25 Q1038 NOSIG=




XYE0867 160300 
GG TESTYZYX
160300 ZLXYYMYX
SACI37 ZLIC 160300
METAR ZLIC 160300Z 22007MPS CAVOK M06/M20 Q1037 NOSIG=




XYE0868 160300 
GG TESTYZYX
160300 ZLXYYMYX
SACI37 ZLXN 160300
METAR ZLXN 160300Z 29005MPS 2900 HZ NSC M11/M18 Q1036 NOSIG=




XYE0869 160300 
GG TESTYZYX
160300 ZLXYYMYX
SACI37 ZLXY 160300
METAR ZLXY 160300Z 27002MPS 230V320 CAVOK 03/M19 Q1043 NOSIG=




XYE0870 160300 
GG TESTYZYX
160300 ZLXYYMYX
SACI33 ZBAA 160300
METAR ZBAA 160300Z 29009MPS CAVOK M02/M19 Q1031 NOSIG=




XYE0871 160300 
GG TESTYZYX
160300 ZLXYYMYX
SACI34 ZSAM 160300
METAR ZSAM 160300Z 01005MPS CAVOK 17/06 Q1027 NOSIG=




XYE0872 160300 
GG TESTYZYX
160300 ZLXYYMYX
SACI78 ZYFY 160300
METAR ZYFY 160300Z VRB01MPS CAVOK M23/M28 Q1018 NOSIG=




XYE0873 160300 
GG TESTYZYX
160300 ZLXYYMYX
SACI35 ZGKL 160300
METAR ZGKL 160300Z VRB06MPS CAVOK 13/M08 Q1035 NOSIG=




XYE0874 160300 
GG TESTYZYX
160300 ZLXYYMYX
SACI34 ZSOF 160300
METAR ZSOF 160300Z 31006MPS CAVOK 04/M12 Q1038 NOSIG=




XYE0875 160300 
GG TESTYZYX
160300 ZLXYYMYX
SACI35 ZGSZ 160300
METAR ZGSZ 160300Z 36010MPS CAVOK 17/03 Q1027 NOSIG=




XYE0876 160300 
GG TESTYZYX
160300 ZLXYYMYX
SACI35 ZGGG 160300
METAR ZGGG 160300Z 02010G16MPS 350V050 CAVOK 16/M00 Q1029 NOSIG=




XYE0877 160300 
GG TESTYZYX
160300 ZLXYYMYX
SACI89 ZWHM 160300
METAR ZWHM 160300Z 10003MPS CAVOK M12/M18 Q1044 NOSIG=




XYE0878 160300 
GG TESTYZYX
160300 ZLXYYMYX
SACI33 ZBSJ 160300
METAR ZBSJ 160300Z 33005MPS 250V350 CAVOK 01/M20 Q1034 NOSIG=




XYE0879 160300 
GG TESTYZYX
160300 ZLXYYMYX
SACI75 ZHNY 160300
METAR ZHNY 160300Z 29005MPS CAVOK 06/M19 Q1040 NOSIG=




XYE0880 160300 
GG TESTYZYX
160300 ZLXYYMYX
SACI63 ZBMZ 160300
METAR ZBMZ 160300Z 28005MPS CAVOK M21/M24 Q1018 NOSIG=




XYE0881 160300 
GG TESTYZYX
160300 ZLXYYMYX
SACI44 ZSLG 160300
METAR ZSLG 160300Z 31005MPS CAVOK 01/M18 Q1034 NOSIG=




XYE0882 160300 
GG TESTYZYX
160300 ZLXYYMYX
SACI66 ZUYB 160300
METAR ZUYB 160300Z 30002MPS 250V350 CAVOK 09/M02 Q1041 NOSIG=




XYE0883 160300 
GG TESTYZYX
160300 ZLXYYMYX
SACI67 ZLQY 160300
METAR ZLQY 160300Z 30005MPS CAVOK M07/M22 Q1038 NOSIG=




XYE0884 160301 
GG TESTYZYX
160300 ZLXYYMYX
SACI86 ZURK 160300
METAR ZURK 160300Z VRB01MPS CAVOK 01/M14 Q1022 NOSIG=




XYE0885 160301 
GG TESTYZYX
160300 ZLXYYMYX
SACI63 ZBUH 160300
METAR ZBUH 160300Z 25006MPS CAVOK M08/M24 Q1036 NOSIG=




XYE0886 160301 
GG TESTYZYX
160300 ZLXYYMYX
SACI77 ZLDL 160300
METAR ZLDL 160300Z AUTO 00000MPS 9999 // ////// M16/M29 Q1034=




XYE0887 160301 
GG TESTYZYX
160300 ZLXYYMYX
SACI37 ZLLL 160300
METAR ZLLL 160300Z 16002MPS 120V190 CAVOK M09/M19 Q1036 NOSIG=




XYE0888 160301 
GG TESTYZYX
160300 ZLXYYMYX
SACI34 ZSWZ 160300
METAR ZSWZ 160300Z 33006MPS 8000 NSC 13/M07 Q1029 NOSIG=




XYE0889 160301 
GG TESTYZYX
160300 ZLXYYMYX
SACI69 ZWTC 160300
METAR ZWTC 160300Z 04005MPS CAVOK M16/M22 Q1036 NOSIG=




XYE0890 160301 
GG TESTYZYX
160300 ZLXYYMYX
SACI68 ZYCY 160300
METAR ZYCY 160300Z 32006MPS CAVOK M06/M24 Q1026 NOSIG=




XYE0891 160301 
GG TESTYZYX
160300 ZLXYYMYX
SACI44 ZSQD 160300
METAR ZSQD 160300Z 31010MPS 270V350 CAVOK M00/M16 Q1030 NOSIG=




XYE0892 160301 
GG TESTYZYX
160300 ZLXYYMYX
SACI89 ZWKC 160300
METAR ZWKC 160300Z 03003MPS 4000 FU NSC M16/M19 Q1043 NOSIG=




XYE0893 160301 
GG TESTYZYX
160300 ZLXYYMYX
SACI35 ZGOW 160300
METAR ZGOW 160300Z 01006MPS 340V040 CAVOK 17/05 Q1026 NOSIG=




XYE0894 160301 
GG TESTYZYX
160300 ZLXYYMYX
SACI73 ZBLL 160300
METAR ZBLL 160300Z 30005MPS 270V340 CAVOK M11/M21 Q1035 NOSIG=




XYE0895 160301 
GG TESTYZYX
160300 ZLXYYMYX
SACI35 ZJSY 160300
METAR ZJSY 160300Z 14002MPS CAVOK 28/17 Q1020 NOSIG=




XYE0896 160301 
GG TESTYZYX
160300 ZLXYYMYX
SACI33 ZBTJ 160300
METAR ZBTJ 160300Z 31008G14MPS 290V350 CAVOK M01/M19 Q1032 NOSIG=




XYE0897 160301 
GG TESTYZYX
160300 ZLXYYMYX
SACI63 ZBLA 160300
METAR ZBLA 160300Z 22003MPS 7000 NSC M29/M32 Q1018 NOSIG=




XYE0898 160301 
GG TESTYZYX
160300 ZLXYYMYX
SACI65 ZGLG 160300
METAR ZGLG 160300Z 01007MPS CAVOK 11/M14 Q1038 NOSIG=




XYE0899 160301 
GG TESTYZYX
160300 ZLXYYMYX
SACI33 ZBYN 160300
METAR ZBYN 160300Z 29007MPS CAVOK M05/M23 Q1034 NOSIG=




XYE0900 160301 
GG TESTYZYX
160300 ZLXYYMYX
SACI38 ZYTX 160300
METAR ZYTX 160300Z 23002MPS 200V330 6000 NSC M12/M18 Q1024 NOSIG=




XYE0901 160301 
GG TESTYZYX
160300 ZLXYYMYX
SACI44 ZSJN 160300
METAR ZSJN 160300Z 29006MPS 260V320 CAVOK 01/M18 Q1034 NOSIG=




XYE0902 160301 
GG TESTYZYX
160300 ZLXYYMYX
SACI68 ZYBS 160300
METAR ZYBS 160300Z 33003MPS 280V020 3000 -SN BR FEW005 SCT016
M17/M20
Q1009 NOSIG=




XYE0903 160301 
GG TESTYZYX
160300 ZLXYYMYX
SACI34 ZSSS 160300
METAR ZSSS 160300Z 32009MPS CAVOK 06/M12 Q1033 NOSIG=




XYE0904 160301 
GG TESTYZYX
160300 ZLXYYMYX
SACI34 ZSPD 160300
METAR ZSPD 160300Z 30008G13MPS CAVOK 06/M10 Q1032 NOSIG=




XYE0905 160301 
GG TESTYZYX
160300 ZLXYYMYX
SACI68 ZYDD 160300
METAR ZYDD 160300Z 35006MPS CAVOK M08/M20 Q1024 NOSIG=




XYE0906 160301 
GG TESTYZYX
160300 ZLXYYMYX
SACI78 ZYTN 160300
METAR ZYTN 160300Z 26003MPS 7000 NSC M14/M18 Q1017=




XYE0907 160301 
GG TESTYZYX
160300 ZLXYYMYX
SACI86 ZUBJ 160300
METAR ZUBJ 160300Z 36002MPS 330V040 9999 -SG SCT010 OVC023 M00/M01
Q10
37 NOSIG=




XYE0908 160301 
GG TESTYZYX
160300 ZLXYYMYX
SACI36 ZUBD 160300
METAR ZUBD 160300Z AUTO 14011G19MPS 100V200 9999 /// ////// M02/M11
Q1028
NOSIG=




XYE0909 160301 
GG TESTYZYX
160300 ZLXYYMYX
SACI33 ZBHH 160300
METAR ZBHH 160300Z 23004MPS 9999 FEW040 M11/M19 Q1030 NOSIG=




XYE0910 160301 
GG TESTYZYX
160301 ZLXYYMYX
SACI65 ZGZJ 160300
METAR ZGZJ 160300Z 01005MPS 320V070
CAVOK
16/06 Q1026
NOSIG=




XYE0911 160301 
GG TESTYZYX
160301 ZLXYYMYX
SACI45 ZHYC 160300
METAR ZHYC 160300Z 17002MPS CAVOK 07/M09 Q1041 NOSIG=




XYE0912 160301 
GG TESTYZYX
160301 ZLXYYMYX
SACI75 ZGHC 160300
METAR ZGHC 160300Z AUTO 35004MPS 300V040 9999 // ////// 10/M05
Q1034=




XYE0913 160301 
GG TESTYZYX
160301 ZLXYYMYX
SACI73 ZBSH 160300
METAR ZBSH 160300Z 27005MPS CAVOK M03/M22 Q1029 NOSIG=




XYE0914 160301 
GG TESTYZYX
160301 ZLXYYMYX
SACI69 ZWAT 160300
METAR ZWAT 160300Z 30001MPS CAVOK M17/M23 Q1038 NOSIG=




XYE0915 160301 
GG TESTYZYX
160301 ZLXYYMYX
SACI39 ZWTL 160300
METAR ZWTL 160300Z 03002MPS CAVOK M09/M16 Q1048 NOSIG=




XYE0916 160301 
GG TESTYZYX
160301 ZLXYYMYX
SACI68 ZYAS 160300
METAR ZYAS 160300Z 31002MPS 290V350 ž˜00 NSC M10/M18 Q1026=




XYE0917 160301 
GG TESTYZYX
160301 ZLXYYMYX
SACI89 ZWNL 160300
METAR ZWNL 160300Z 17001MPS CAVOK M11/M18 Q1034 NOSIG=




XYE0918 160301 
GG TESTYZYX
160301 ZLXYYMYX
SACI34 ZSHC 160300
METAR ZSHC 160300Z 32008G13MPS 290V350 CAVOK 06/M17 Q1035
NOSIG=




XYE0919 160301 
GG TESTYZYX
160301 ZLXYYMYX
SACI44 ZSCN 160300
METAR ZSCN 160300Z 34006G11MPS CAVOK 08/M15 Q1038 NOSIG=




XYE0920 160301 
GG TESTYZYX
160301 ZLXYYMYX
SACI34 ZSNJ 160300
METAR ZSNJ 160300Z 33007MPS 300V360 CAVOK 04/M15 Q1036 NOSIG=




XYE0921 160301 
GG TESTYZYX
160301 ZLXYYMYX
SACI45 ZHCC 160300
METAR ZHCC 160300Z 29010MPS CAVOK 03/M23 Q1038 NOSIG=




XYE0922 160301 
GG TESTYZYX
160301 ZLXYYMYX
SACI69 ZWAK 160300
METAR ZWAK 160300Z VRB01MPS 7000 NSC M16/M19 Q1041 NOSIG=




XYE0923 160301 
GG TESTYZYX
160301 ZLXYYMYX
SACI77 ZLZY 160300
METAR ZLZY 160300Z 08002MPS CAVOK M06/M21 Q1036 NOSIG=




XYE0924 160301 
GG TESTYZYX
160301 ZLXYYMYX
SACI73 ZBYC 160300
METAR ZBYC 160300Z 33005MPS 270V020 CAVOK 01/M24 Q1042 NOSIG=




XYE0925 160301 
GG TESTYZYX
160301 ZLXYYMYX
SACI35 ZGNN 160300
METAR ZGNN 160300Z 03006MPS CAVOK 15/04 Q1031 NOSIG=




XYE0926 160301 
GG TESTYZYX
160301 ZLXYYMYX
SACI36 ZUXC 160300
METAR ZUXC 160300Z 36004MPS 330V030 9999 OVC050 06/M03 Q1032 NOSIG=




XYE0927 160301 
GG TESTYZYX
160301 ZLXYYMYX
SACI73 ZBHD 160300
METAR ZBHD 160300Z 30007MPS CAVOK 03/M23 Q1035 NOSIG=




XYE0928 160301 
GG TESTYZYX
160301 ZLXYYMYX
SACI75 ZHSN 160300
METAR ZHSN 160300Z 29007G12MPS 230V320 CAVOK M10/M25 Q1031 NOSIG=




XYE0929 160301 
GG TESTYZYX
160301 ZLXYYMYX
SACI86 ZUYI 160300
METAR ZUYI 160300Z 02003MPS 340V060 9999 SCT015 OVC040 05/02 Q1036
NOS
IG=




XYE0930 160301 
GG TESTYZYX
160301 ZLXYYMYX
SACI63 ZBXH 160300
METAR ZBXH 160300Z 29010MPS CAVOK M18/M23 Q1021 NOSIG=




XYE0931 160301 
GG TESTYZYX
160301 ZLXYYMYX
SACI76 ZPDL 160300
METAR ZPDL 160300Z 17005MPS 140V200 9999 BKN050 12/04 Q1027 NOSIG=




XYE0932 160301 
GG TESTYZYX
160301 ZLXYYMYX
SACI86 ZUKJ 160300
METAR ZUKJ 160300Z 04003MPS 360V080 9999 FEW050 05/M07 Q1037 NOSIG=




XYE0933 160302 
GG TESTYZYX
160301 ZLXYYMYX
SACI38 ZYHB 160300
METAR ZYHB 160300Z 30003MPS 260V330 2000 BR NSC M20/M23 Q1020 BECMG
TL0430
5000=




XYE0934 160302 
GG TESTYZYX
160301 ZLXYYMYX
SACI45 ZGHA 160300
METAR ZGHA 160300Z 04007MPS 360V070 CAVOK 10/M14 Q1039 NOSIG=




XYE0935 160302 
GG TESTYZYX
160301 ZLXYYMYX
SACI34 ZSNB 160300
METAR ZSNB 160300Z 31011MPS CAVOK 07/M12 Q1033 NOSIG=




XYE0936 160302 
GG TESTYZYX
160301 ZLXYYMYX
SACI39 ZWWW 160300
METAR ZWWW 160300Z VRB01MPS 1400 R25/1100U BR NSC M18/M20 Q1040
BECMG
TL0450 1600 BR=




XYE0937 160302 
GG TESTYZYX
160301 ZLXYYMYX
SACI68 ZYJX 160300
METAR ZYJX 160300Z 36004MPS 3000 FU SCT033 M17/M21 Q1015 NOSIG=




XYE0938 160302 
GG TESTYZYX
160301 ZLXYYMYX
SACI35 ZJHK 160300
METAR ZJHK 160300Z 02006MPS 7000 BKN030 17/12 Q1025 NOSIG=




XYE0939 160302 
GG TESTYZYX
160301 ZLXYYMYX
SACI68 ZYDQ 160300
METAR ZYDQ 160300Z 33006MPS 5000 NSC M22/M24 Q1022 NOSIG=




XYE0940 160302 
GG TESTYZYX
160301 ZLXYYMYX
SACI63 ZBER 160300
METAR ZBER 160300Z 30011MPS CAVOK M15/M22 Q1028 NOSIG=




XYE0941 160302 
GG TESTYZYX
160301 ZLXYYMYX
SACI66 ZUZH 160300
METAR ZUZH 160300Z 08004MPS 040V100 9999 SCT023 OVC040 05/M01
Q1030 NOSIG=




XYE0942 160302 
GG TESTYZYX
160301 ZLXYYMYX
SACI45 ZHHH 160300
METAR ZHHH 160300Z 36002MPS 280V050 CAVOK 07/M16 Q1040 NOSIG=




XYE0943 160302 
GG TESTYZYX
160301 ZLXYYMYX
SACI66 ZUJZ 160300
METAR ZUJZ 160300Z 20002MPS 180V240 9999 SCT060 M07/M18 Q1030 NOSIG=




XYE0944 160302 
GG TESTYZYX
160301 ZLXYYMYX
SACI65 ZGCJ 160300
METAR ZGCJ 160300Z 07005MPS 030V110 CAVOK 11/M11 Q1039 NOSIG=




XYE0945 160302 
GG TESTYZYX
160301 ZLXYYMYX
SACI65 ZGMX 160300
METAR ZGMX 160300Z 34005MPS CAVOK 15/M01 Q1030 NOSIG=




XYE0946 160302 
GG TESTYZYX
160301 ZLXYYMYX
SACI38 ZYTL 160300
METAR ZYTL 160300Z 32010G17MPS 290V350 9999 BKN040 M04/M16 Q1026
NOSIG=




XYE0947 160302 
GG TESTYZYX
160301 ZLXYYMYX
SACI36 ZUGY 160300
METAR ZUGY 160300Z 02004MPS 9999 FEW023 OVC040 04/M00 Q1036 NOSIG=




XYE0948 160302 
GG TESTYZYX
160301 ZLXYYMYX
SACI68 ZYJM 160300
METAR ZYJM 160300Z 14001MPS 2000 BR FU NSC M21/M25 Q1018 NOSIG=




XYE0949 160302 
GG TESTYZYX
160301 ZLXYYMYX
SACI36 ZPPP 160300
METAR ZPPP 160300Z 05007MPS 9999 BKN016 OVC030 00/M01 Q1034 NOSIG=




XYE0950 160302 
GG TESTYZYX
160301 ZLXYYMYX
SACI68 ZYJZ 160300
METAR ZYJZ 160300Z 35011MPS CAVOK M06/M24 Q1027 NOSIG=




XYE0951 160302 
GG TESTYZYX
160301 ZLXYYMYX
SACI39 ZWSH 160300
METAR ZWSH 160300Z 31004MPS 6000 NSC M13/M16 Q1038 NOSIG=




XYE0952 160302 
GG TESTYZYX
160301 ZLXYYMYX
SACI38 ZYCC 160300
METAR ZYCC 160300Z 33002MPS 290V010 1800 -SN BR SCT010 OVC020
M17/M21 Q1021 BECMG TL0430 3000 BR=




XYE0953 160302 
GG TESTYZYX
160301 ZLXYYMYX
SACI67 ZLGM 160300
METAR ZLGM 160300Z 26003MPS 9999 FEW100 M14/M30 Q1033 NOSIG=




XYE0954 160302 
GG TESTYZYX
160301 ZLXYYMYX
SACI86 ZUPS 160300
METAR ZUPS 160300Z AUTO 01003MPS 330V030 9999 /// ////// M02/M03
Q1036
NOSIG=




XYE0955 160302 
GG TESTYZYX
160301 ZLXYYMYX
SACI63 ZBTL 160300
METAR ZBTL 160300Z 35004MPS CAVOK M15/M21 Q1024 NOSIG=




XYE0956 160302 
GG TESTYZYX
160301 ZLXYYMYX
SACI67 ZLJQ 160300
METAR ZLJQ 160300Z 19001MPS CAVOK M06/M25 Q1037 NOSIG=




XYE0957 160302 
GG TESTYZYX
160301 ZLXYYMYX
SACI67 ZLGY 160300
METAR ZLGY 160300Z 33004MPS 300V360 CAVOK M08/M23 Q1036 NOSIG=




XYE0958 160302 
GG TESTYZYX
160301 ZLXYYMYX
SACI67 ZLYS 160300
METAR ZLYS 160300Z 24001MPS 4500 -SN SCT033 OVC060 M07/M09 Q1028
NOSIG=




XYE0959 160302 
GG TESTYZYX
160301 ZLXYYMYX
SACI67 ZLJC 160300
METAR ZLJC 160300Z 00000MPS CAVOK M04/M25 Q1038 NOSIG=




XYE0960 160302 
GG TESTYZYX
160301 ZLXYYMYX
SACI65 ZGBH 160300
METAR ZGBH 160300Z 01008MPS 9999 BKN040 14/04 Q1028 NOSIG=




XYE0961 160302 
GG TESTYZYX
160301 ZLXYYMYX
SACI34 ZSLQ 160300
METAR ZSLQ 160300Z 33009MPS CAVOK 09/M12 Q1031 NOSIG=




XYE0962 160302 
GG TESTYZYX
160301 ZLXYYMYX
SACI68 ZYMD 160300
METAR ZYMD 160300Z VRB01MPS 1500 BR FU NSC M14/M18 Q1013 NOSIG=




XYE0963 160302 
GG TESTYZYX
160301 ZLXYYMYX
SACI69 ZWKL 160300
METAR ZWKL 160300Z 00000MPS 7000 NSC M13/M15 Q1043 NOSIG=




XYE0964 160302 
GG TESTYZYX
160301 ZLXYYMYX
SACI74 ZSWY 160300
METAR ZSWY 160300Z 01007MPS CAVOK 11/M06 Q1033 NOSIG=




XYE0965 160302 
GG TESTYZYX
160301 ZLXYYMYX
SACI86 ZUQJ 160300
METAR ZUQJ 160300Z VRB01MPS 5000 BR SCT026 OVC040 06/03 Q1038
NOSIG=




XYE0966 160302 
GG TESTYZYX
160301 ZLXYYMYX
SACI63 ZBCF 160300
METAR ZBCF 160300Z 32008G13MPS 270V360 9999 FEW040 M10/M25 Q1022
NOSIG
=




XYE0967 160302 
GG TESTYZYX
160301 ZLXYYMYX
SACI68 ZYMH 160300
METAR ZYMH 160300Z 25003MPS CAVOK M28/M31 Q1017 NOSIG=




XYE0968 160302 
GG TESTYZYX
160301 ZLXYYMYX
SACI36 ZUCK 160300
METAR ZUCK 160300Z 02002MPS 350V110 9999 -RA SCT030 06/M01 Q1040
NOSIG=




XYE0969 160302 
GG TESTYZYX
160301 ZLXYYMYX
SACI34 ZSFZ 160300
METAR ZSFZ 160300Z 02004MPS 330V070 CAVOK 15/04 Q1028 NOSIG=




XYE0970 160302 
GG TESTYZYX
160301 ZLXYYMYX
SACI78 ZYJD 160300
METAR ZYJD 160300Z 14001MPS CAVOK M27/M30 Q1019 NOSIG=




XYE0971 160302 
GG TESTYZYX
160301 ZLXYYMYX
SACI45 ZHLY 160300
METAR ZHLY 160300Z 29010G16MPS 260V330 CAVOK 03/M22 Q1039 NOSIG=




XYE0972 160302 
GG TESTYZYX
160301 ZLXYYMYX
SACI35 ZGZH 160300
METAR ZGZH 160300Z 34006MPS CAVOK 14/M06 Q1033 NOSIG=




XYE0973 160302 
GG TESTYZYX
160301 ZLXYYMYX
SACI68 ZYHE 160300
METAR ZYHE 160300Z 36004MPS CAVOK M25/M31 Q1017 NOSIG=




XYE0974 160302 
GG TESTYZYX
160301 ZLXYYMYX
SACI69 ZWYN 160300
METAR ZWYN 160300Z 07004MPS CAVOK M10/M16 Q1034 NOSIG=




XYE0975 160302 
GG TESTYZYX
160301 ZLXYYMYX
SACI66 ZUMY 160300 RRA
METAR ZUMY 160300Z VRB01MPS CAVOK 07/M15 Q1041 NOSIG=




XYE0976 160302 
GG TESTYZYX
160302 ZLXYYMYX
SACI86 ZUNP 160300
METAR ZUNP 160300Z 03006MPS 350V060 7000 SCT033 09/M04 Q1037 NOSIG=




XYE0977 160302 
GG TESTYZYX
160302 ZLXYYMYX
SACI68 ZYQQ 160300
METAR ZYQQ 160300Z 32002MPS 5000 FU BR NSC M20/M24
Q1022 NOSIG=




XYE0978 160302 
GG TESTYZYX
160302 ZLXYYMYX
SACI68 ZYYJ 160300
METAR ZYYJ 160300Z 29009MPS 9999 FEW040 M10/M16 Q1014 NOSIG=




XYE0979 160302 
GG TESTYZYX
160302 ZLXYYMYX
SACI75 ZHXF 160300
METAR ZHXF 160300Z 33006MPS CAVOK 08/M14 Q1041 NOSIG=




XYE0980 160302 
GG TESTYZYX
160302 ZLXYYMYX
FTCI37 ZLLL 160300
TAF ZLLL 160300Z 160606 19003MPS 5000 FU NSC TXM03/08Z TNM18/24Z=




XYE0981 160302 
GG TESTYZYX
160302 ZLXYYMYX
SACI73 ZBYZ 160300
METAR ZBYZ 160300Z 26008MPS CAVOK M08/M21 Q1034 NOSIG=




XYE0982 160302 
GG TESTYZYX
160302 ZLXYYMYX
SACI64 ZSSH 160300
METAR ZSSH 160300Z 35008MPS 310V020 CAVOK 01/M18 Q1035 NOSIG=




XYE0983 160303 
GG TESTYZYX
160302 ZLXYYMYX
SACI39 ZWTN 160300
METAR ZWTN 160300Z 15001MPS CAVOK M14/M17 Q1038 NOSIG=




XYE0984 160303 
GG TESTYZYX
160302 ZLXYYMYX
SACI68 ZYLD 160300
METAR ZYLD 160300Z 27004MPS 8000 FEW033 M24/M28 Q1017 NOSIG=




XYE0985 160303 
GG TESTYZYX
160302 ZLXYYMYX
SACI44 ZSYT 160300
METAR ZSYT 160300Z 31009G14MPS 280V340 9999 -SHSN FEW033 M03/M09
Q1028 NOSIG=




XYE0986 160303 
GG TESTYZYX
160302 ZLXYYMYX
SACI63 ZBUL 160300
METAR ZBUL 160300Z VRB01MPS CAVOK M16/M24 Q1020 NOSIG=




XYE0987 160303 
GG TESTYZYX
160302 ZLXYYMYX
SACI66 ZUGU 160300
METAR ZUGU 160300Z VRB01MPS CAVOK 06/M19 Q1040 NOSIG=




XYE0988 160303 
GG TESTYZYX
160302 ZLXYYMYX
SACI76 ZPTC 160300
METAR ZPTC 160300Z 32002MPS CAVOK 13/07 Q1027 NOSIG=




XYE0989 160303 
GG TESTYZYX
160303 ZLXYYMYX
SACI64 ZSWX 160300
METAR ZSWX 160300Z 32008MPS CAVOK 05/M17 Q1034 NOSIG=




XYE0990 160303 
GG TESTYZYX
160303 ZLXYYMYX
SACI63 ZBOW 160300
METAR ZBOW 160300Z 30005MPS CAVOK M09/M20 Q1033 NOSIG=




XYE0991 160303 
GG TESTYZYX
160303 ZLXYYMYX
SACI76 ZPWS 160300
METAR ZPWS 160300Z 03006MPS 9999 SCT009 OVC023 03/02 Q1033 NOSIG=




XYE0992 160303 
GG TESTYZYX
160303 ZLXYYMYX
FTCI37 ZLIC 160301
TAF ZLIC 160301Z 160606 23004G09MPS 8000 NSC TXM04/08Z TNM13/23Z=




XYE0993 160303 
GG TESTYZYX
160303 ZLXYYMYX
FTCI38 ZYCC 160305
TAF ZYCC 160305Z 160606 35003MPS 3000 BR BKN023 TXM14/06Z TNM20/21Z=




XYE0994 160303 
GG TESTYZYX
160303 ZLXYYMYX
SACI39 ZWKM 160300
METAR ZWKM 160300Z 00000MPS 3500 BR BKN005 M23/M25 Q1047 NOSIG=




XYE0995 160303 
GG TESTYZYX
160303 ZLXYYMYX
FCCI86 ZUNP 160302
TAF ZUNP 160302Z 160312 03005MPS 9999 SCT043 TX12/07Z TN08/12Z=




XYE0996 160303 
GG TESTYZYX
160303 ZLXYYMYX
SACI65 ZGWZ 160300
METAR ZGWZ 160300Z 04005MPS 350V080 CAVOK 15/M02 Q1031 NOSIG=




XYE0997 160303 
GG TESTYZYX
160303 ZLXYYMYX
FTCI34 ZSOF 160302
TAF ZSOF 160302Z 160606 32004MPS 5000 HZ NSC TX06/06Z TNM04/22Z=




XYE0998 160303 
GG TESTYZYX
160303 ZLXYYMYX
SACI64 ZSTX 160300
METAR ZSTX 160300Z 04002MPS CAVOK 07/M10 Q1035 NOSIG=




XYE0999 160303 
GG TESTYZYX
160303 ZLXYYMYX
SACI44 ZSXZ 160300
METAR ZSXZ 160300Z 30005MPS 250V340 CAVOK 02/M16 Q1036 NOSIG=




XYE1000 160303 
GG TESTYZYX
160303 ZLXYYMYX
SACI86 ZULB 160300
METAR ZULB 160300Z VRB07MPS 9999 FEW016 SCT040 07/M05 Q1035 NOSIG=




XYE1001 160303 
GG TESTYZYX
160303 ZLXYYMYX
SACI63 ZBDS 160300
METAR ZBDS 160300Z 30010MPS CAVOK M10/M23 Q1031 NOSIG=




XYE1002 160303 
GG TESTYZYX
160303 ZLXYYMYX
SACI74 ZSJG 160300
METAR ZSJG 160300Z 32007MPS CAVOK 03/M17 Q1036 NOSIG=




XYE1003 160303 
GG TESTYZYX
160303 ZLXYYMYX
SACI76 ZPZT 160300
METAR ZPZT 160300Z 25003MPS 6000 -SN FEW010 OVC016 M02/M03 Q1038
NOSIG=




XYE1004 160303 
GG TESTYZYX
160303 ZLXYYMYX
SACI76 ZPDQ 160300
METAR ZPDQ 160300Z 19007G13MPS 150V220 9999 SCT026 05/M08 Q1032
NOSIG=




XYE1005 160303 
GG TESTYZYX
160303 ZLXYYMYX
SACI76 ZPSM 160300
METAR ZPSM 160300Z VRB01MPS 9999 SCT026 18/11 Q1026 NOSIG=




XYE1006 160304 
GG TESTYZYX
160303 ZLXYYMYX
SACI64 ZSYW 160300
METAR ZSYW 160300Z 33004MPS 280V340 CAVOK 08/M17 Q1033 NOSIG=




XYE1007 160304 
GG TESTYZYX
160303 ZLXYYMYX
SACI73 ZBCZ 160300
METAR ZBCZ 160300Z 29005MPS 260V330 CAVOK M05/M22 Q1033 NOSIG=




XYE1008 160304 
GG TESTYZYX
160303 ZLXYYMYX
SACI74 ZSJD 160300
METAR ZSJD 160300Z 03004MPS 350V060 CAVOK 07/M12 Q1037 NOSIG=




XYE1009 160304 
GG TESTYZYX
160304 ZLXYYMYX
SACI66 ZULZ 160300
METAR ZULZ 160300Z 00000MPS CAVOK 08/M02 Q1041 NOSIG=
=




XYE1010 160304 
GG TESTYZYX
160304 ZLXYYMYX
SACI64 ZSFY 160300
METAR ZSFY 160300Z 31006MPS 290V020 CAVOK 03/M19 Q1038 NOSIG=




XYE1011 160304 
GG TESTYZYX
160304 ZLXYYMYX
SACI63 ZBES 160300
METAR ZBES 160300Z 00000MPS CAVOK M27/M32 Q1016 NOSIG=




XYE1012 160304 
FF TESTYZYX
160304 ZLXYYMYX
FTCI63 ZBER 160303 AAA
TAF AMD ZBER 160303Z 160024 CNL=




XYE1013 160304 
GG TESTYZYX
160304 ZLXYYMYX
SACI86 ZUTR 160300
METAR ZUTR 160300Z 05005MPS 9999 BKN040 05/M11 Q1038 NOSIG=




XYE1014 160304 
GG TESTYZYX
160304 ZLXYYMYX
SACI74 ZSDY 160300
METAR ZSDY 160300Z AUTO 28008MPS//// // ////// M02/M21 Q1032 NOSIG=




XYE1015 160304 
GG TESTYZYX
160304 ZLXYYMYX
SACI75 ZHES 160300
METAR ZHES 160300Z VRB01MPS 7000 NSC 09/01 Q1037 NOSIG=




XYE1016 160304 
GG TESTYZYX
160304 ZLXYYMYX
FTCI65 ZGZJ 160303
TAF ZGZJ 160303Z 160606 36006G11MPS CAVOK TX18/07Z TN10/23Z=




XYE1017 160304 
GG TESTYZYX
160304 ZLXYYMYX
SACI86 ZUWX 160300
METAR ZUWX 160300Z VRB01G07MPS CAVOK 08/M00 Q1038 NIOSIG=
=




XYE1018 160304 
GG TESTYZYX
160304 ZLXYYMYX
SACI45 ZGDY 160300
METAR ZGDY 160300Z 06004MPS CAVOK 08/M14 Q1040 NOSIG=




XYE1019 160304 
FF TESTYZYX
160304 ZLXYYMYX
WSCI45 ZHHH 160303
ZHWH SIGMET 1 VALID 160320/160720 ZHHH-
ZHWH WUHAN FIR SEV TURB FCST
N OF N28 ABV FL230 STNR NC=




XYE1020 160304 
GG TESTYZYX
160304 ZLXYYMYX
SACI76 ZPJH 160300
METAR ZPJH 160300Z VRB01MPS 6000 FEW013 19/17 Q1023 NOSIG=




XYE1021 160304 
GG TESTYZYX
160304 ZLXYYMYX
SACI86 ZUZY 160300
METAR ZUZY 160300Z VRB01MPS 6000 SCT015 OVC030 05/03 Q1038 NOSIG=




XYE1022 160305 
GG TESTYZYX
160304 ZLXYYMYX
SACI76 ZPLJ 160300
METAR ZPLJ 160300Z 18004MPS 9999 FEW040 12/01 Q1027 NOSIG=




XYE1023 160305 
GG TESTYZYX
160304 ZLXYYMYX
SACI74 ZSYC 160300
METAR ZSYC 160300Z 04006MPS 020V080 CAVOK 10/M13 Q1038 NOSIG=




XYE1024 160305 
GG TESTYZYX
160305 ZLXYYMYX
SACI44 ZSCG 160300
METAR ZSCG 160300Z 32009MPS CAVOK 04/M15 Q1035 NOSIG=




XYE1025 160305 
FF TESTYZYX
160305 ZLXYYMYX
SACI69 ZWBL 160300 CCA
METAR COR ZWBL 160300Z VRB01MPS 1000 BR NSC M24/M27 Q1044 NOSIG=




XYE1026 160305 
GG TESTYZYX
160305 ZLXYYMYX
SACI86 ZUAS 160300
METAR ZUAS 160300Z 06005MPS 6000 -DZ FEW006 SCT011 OVC026 01/01
Q1036
NOSIG=




XYE1027 160305 
GG TESTYZYX
160305 ZLXYYMYX
SACI76 ZPMS 160300
METAR ZPMS 160300Z VRB01MPS 4000 BR BKN040 13/10 Q1023 NOSIG=




XYE1028 160305 
GG TESTYZYX
160305 ZLXYYMYX
SACI64 ZSJH 160300
METAR ZSJH 160300Z 30004MPS 210V340 CAVOK 05/M11 Q1038 NOSIG=




XYE1029 160305 
GG TESTYZYX
160305 ZLXYYMYX
SACI66 ZUGH 160300
METAR ZUGH 160300Z 19001MPS CAVOK 09/M14 Q1041 NOSIG=




XYE1030 160305 
GG TESTYZYX
160305 ZLXYYMYX
SACI74 ZSQZ 160300
METAR ZSQZ 160300Z 32006MPS 300V360 9999 BKN056 16/03 Q1027 NOSIG=




XYE1031 160305 
GG TESTYZYX
160305 ZLXYYMYX
SACI86 ZUNZ 160300
METAR ZUNZ 160300Z 22004MPS 180V240 9999 BKN050 05/M06 Q1026 NOSIG=




XYE1032 160306 
GG TESTYZYX
160305 ZLXYYMYX
SACI36 ZULS 160300
METAR ZULS 160300Z VRB01MPS 9999 FEW036 04/M10 Q1024 NOSIG=




XYE1033 160306 
GG TESTYZYX
160306 ZLXYYMYX
FTCI35 ZJSY 160259
TAF ZJSY 160259Z 160606 09004MPS 9999 SCT050 TX28/06Z TN21/18Z=




XYE1034 160306 
GG TESTYZYX
160306 ZLXYYMYX
SACI74 ZSLO 160300
METAR ZSLO 160300Z 02006MPS 6000 FEW040 11/M01 Q1032 NOSIG=




XYE1035 160306 
GG TESTYZYX
160306 ZLXYYMYX
FTCI36 ZUCK 160304
TAF ZUCK 160304Z 160606 02003MPS 5000 BR SCT040 TX08/07Z
TN04/23Z=




XYE1036 160306 
GG TESTYZYX
160306 ZLXYYMYX
SACI64 ZSYN 160300
METAR ZSYN 160300Z 30010MPS CAVOK 02/M17 Q1033 NOSIG=




XYE1037 160306 
GG TESTYZYX
160306 ZLXYYMYX
SACI76 ZPBS 160300
METAR ZPBS 160300Z VRB01MPS 9999 BKN030 13/05 Q1026 NOSIG=




XYE1038 160306 
GG TESTYZYX
160306 ZLXYYMYX
SACI66 ZUKD 160300
METAR ZUKD 160300Z 24006MPS 220V280 9999 FEW050 M01/M12 Q1028 NOSIG=




XYE1039 160306 
GG TESTYZYX
160306 ZLXYYMYX
SACI74 ZSGZ 160300
METAR ZSGZ 160300Z 36005G12MPS 7000 NSC 11/M04 Q1035 NOSIG=




XYE1040 160306 
GG TESTYZYX
160306 ZLXYYMYX
SACI73 ZBAL 160300
METAR ZBAL 160300Z VRB02MPS CAVOK M08/M24 Q1037 NOSIG=




XYE1041 160307 
GG TESTYZYX
160307 ZLXYYMYX
SACI36 ZUAL 160300
METAR ZUAL 160300Z 34003MPS 9999 FEW020 OVC050 M12/M29 Q1027 NOSIG=




XYE1042 160307 
GG TESTYZYX
160307 ZLXYYMYX
SACI44 ZSWF 160300
METAR ZSWF 160300Z 32008MPS CAVOK M01/M21 Q1032 NOSIG=




XYE1043 160307 
GG TESTYZYX
160307 ZLXYYMYX
SACI74 ZSGS 160300
METAR ZSGS 160300Z 05005MPS 360V140 7000 NSC 10/M06 Q1037 NOSIG=




XYE1044 160307 
GG TESTYZYX
160307 ZLXYYMYX
SACI74 ZSLY 160300
METAR ZSLY 160300Z 30007MPS 260V330 CAVOK 00/M19 Q1034 NOSIG=




XYE1045 160307 
GG TESTYZYX
160307 ZLXYYMYX
SPCI33 ZBHH 160305
ZBHH 160305Z RYRYRYRYRYRYRYRY=




XYE1046 160307 
GG TESTYZYX
160307 ZLXYYMYX
SACI44 ZSWH 160300
METAR ZSWH 160300Z 33010MPS 1000 -SHSN SCT005 OVC020 M04/M04 Q1026
RESHSN NOSIG=




XYE1047 160307 
GG TESTYZYX
160307 ZLXYYMYX
FTCI44 ZSJN 160306
TAF ZSJN 160306Z 160606 29003MPS 5000 HZ NSC TX06/06Z TNM10/22Z=




XYE1048 160308 
GG TESTYZYX
160308 ZLXYYMYX
FTCI38 ZYTL 160307
TAF ZYTL 160307Z 160606 32010G18MPS 6000 BKN040 TXM04/06Z TNM08/22Z
TEMPO 0612 2000 -SN SCT008 BKN040 BECMG 1112 32007G14MPS=




XYE1049 160308 
GG TESTYZYX
160308 ZLXYYMYX
FTCI44 ZSYT 160310
TAF ZSYT 160310Z 160606 31007G13MPS 6000 SCT023 TXM01/06Z TNM07/22Z=




XYE1050 160308 
GG TESTYZYX
160308 ZLXYYMYX
FTCI33 ZBHH 160307
TAF ZBHH 160307Z 160606 24004MPS CAVOK TXM08/08Z TNM19/22Z=




XYE1051 160308 
GG TESTYZYX
160308 ZLXYYMYX
FTCI63 ZBMZ 160302
TAF ZBMZ 160302Z 160606 30007MPS CAVOK TXM17/06Z TNM32/22Z BECMG
2021
08005MPS=




XYE1052 160309 
GG TESTYZYX
160309 ZLXYYMYX
FTCI35 ZGGG 160304
TAF ZGGG 160304Z 160606 36010G17MPS 9999 SCT040 TX18/07Z
TN10/22Z
BECMG 1314 36005MPS=




XYE1053 160310 
GG TESTYZYX
160310 ZLXYYMYX
FTCI35 ZGNN 160307
TAF ZGNN 160307Z 160606 03004MPS CAVOK TX16/07Z TN07/22Z=




XYE1054 160311 
GG TESTYZYX
160311 ZLXYYMYX
FTCI34 ZSWZ 160310
TAF ZSWZ 160310Z 160606 34004MPS 5000 BR NSC TX14/06Z TN02/21Z=




XYE1055 160312 
FF TESTYZYX
160311 ZLXYYMYX
FCCI68 ZYJZ 160310 AAA
TAF AMD ZYJZ 160310Z 160312 CNL=




XYE1056 160312 
GG TESTYZYX
160312 ZLXYYMYX
FTCI45 ZHCC 160310
TAF ZHCC 160310Z 160606 30009G15MPS CAVOK TX06/07Z TNM02/22Z BECMG
1112
27004MPS=




XYE1057 160312 
GG TESTYZYX
160312 ZLXYYMYX
FTCI44 ZSQD 160310
TAF ZSQD 160310Z 160606 32009G15MPS 5000 BR NSC TX00/05Z TNM08/22Z
BECMG 1011 32004MPS=




XYE1058 160312 
GG TESTYZYX
160312 ZLXYYMYX
FTCI33 ZBAA 160300
TAF ZBAA 160330Z 160606 31009G17MPS CAVOK TX02/05Z TNM08/22Z BECMG
0910 32004MPS BECMG 0203 19005MPS=




XYE1059 160312 
FF TESTYZYX
160312 ZLXYYMYX
SACI66 ZUDX 160300 CCA
METAR COR ZUDX 160300Z 36003MPS 340V040 9999 BKN050 10/M15 Q1040
NOSIG=




XYE1060 160312 
GG TESTYZYX
160312 ZLXYYMYX
FTCI37 ZLXY 160312
TAF ZLXY 160312Z 160606 26004MPS 5000 HZ NSC TX05/07Z TNM06/23Z=




XYE1061 160314 
GG TESTYZYX
160314 ZLXYYMYX
FTCI35 ZJHK 160313
TAF ZJHK 160313Z 160606 02006G13MPS 5000 BR
SCT030 TX17/06Z TN12/21Z=




XYE1062 160315 
GG TESTYZYX
160315 ZLXYYMYX
FTCI34 ZSFZ 160313
TAF ZSFZ 160313Z 160606 02006MPS 5000 BR SCT030 TX17/06Z TN10/21Z=




XYE1063 160315 
GG TESTYZYX
160315 ZLXYYMYX
FTCI35 ZGKL 160315
TAF ZGKL 160315Z 160606 05006MPS CAVOK TX16/07Z TN07/23Z=




XYE1064 160316 
GG TESTYZYX
160316 ZLXYYMYX
FTCI33 ZBYN 160313
TAF ZBYN 160313Z 160606 29007G15MPS 8000 NSC TXM02/07Z TNM13/22Z=




XYE1065 160318 
GG TESTYZYX
160318 ZLXYYMYX
FTCI39 ZWSH 160315
TAF ZWSH 160315Z 160606 33004MPS 6000 NSC TXM05/09Z TNM13/00Z
BECMG 0506 09004MPS=




XYE1066 160318 
GG TESTYZYX
160318 ZLXYYMYX
FTCI35 ZGSZ 160316
TAF ZGSZ 160316Z 160606 02010G15MPS 8000 NSC TX18/06Z TN08/22Z
BECMG 0002 03005G10MPS=




XYE1067 160319 
GG TESTYZYX
160319 ZLXYYMYX
FTCI36 ZUGY 160316
TAF ZUGY 160316Z 160606 01004MPS 6000 BKN015 OVC033 TX04/06Z
 TN00/23Z=




XYE1068 160320 
GG TESTYZYX
160320 ZLXYYMYX
FTCI35 ZGOW 160315
TAF ZGOW 160315Z 160606 02006MPS 8000 NSC TX19/07Z TN10/22Z
TEMPO 0612 01008G13MPS=




XYE1069 160320 
GG TESTYZYX
160320 ZLXYYMYX
FTCI76 ZPLJ 160320
TAF ZPLJ 160320Z 160606 21005MPS 9999 BKN040 TX17/09Z TN03/23Z
BECMG 1214 04003MPS=




XYE1070 160321 
GG TESTYZYX
160321 ZLXYYMYX
SPCI44 ZSWH 160319
SPECI ZSWH 160319Z 32011MPS 8000 -SHSN SCT005 OVC020 M04/M04 Q1025
NOSIG=




XYE1071 160321 
GG TESTYZYX
160321 ZLXYYMYX
FTCI74 ZSQZ 160318
TAF ZSQZ 160318Z 160606 02006MPS 8000 SCT030 TX17/07Z TN08/22Z=




XYE1072 160322 
GG TESTYZYX
160322 ZLXYYMYX
FTCI34 ZSHC 160321
TAF ZSHC 160321Z 160606 33008G15MPS 3100 HZ NSC TX08/06Z TNM03/21Z
BECMG 1112 32003MPS=




XYE1073 160323 
GG TESTYZYX
160323 ZLXYYMYX
FTCI38 ZYHB 160321
TAF ZYHB 160321Z 160606 32004MPS 5000 BR NSC TXM19/07Z TNM30/23Z
TEMPO
0812 2000=




XYE1074 160326 
GG TESTYZYX
160326 ZLXYYMYX
FTCI39 ZWWW 160309
TAF ZWWW 160309Z 160606 36003MPS 1600 BR NSC
TXM11/08Z TNM19/23Z
BECMG 1213 18003MPS 1100 BR
TEMPO 2204 0700 FZFG VV005
BECMG 0405 36003MPS=




XYE1075 160326 
GG TESTYZYX
160326 ZLXYYMYX
FCCI64 ZSJU 160325
TAF ZSJU 160325Z 160312 25004MPS CAVOK TX11/07Z TN03/12Z=




XYE1076 160327 
GG TESTYZYX
160327 ZLXYYMYX
FCCI76 ZPWS 160327
TAF AMD ZPWS 160327Z 160312 CNL=




XYE1077 160328 
GG TESTYZYX
160328 ZLXYYMYX
FTCI34 ZSAM 160327
TAF ZSAM 160327Z 160606 04004G09MPS 5000 BR NSC TX18/06Z TN10/21Z
BECMG 2324 05007G12MPS=




XYE1078 160328 
GG TESTYZYX
160328 ZLXYYMYX
FTCI34 ZSSS 160326
TAF ZSSS 160326Z 160606 31007G13MPS 6000 NSC
TX07/06Z TNM01/21Z =




XYE1079 160330 
GG TESTYZYX
160330 ZLXYYMYX
SACI36 ZUUU 160330
METAR ZUUU 160330Z VRB01MPS CAVOK 09/M08 Q1041 NOSIG=




XYE1080 160330 
GG TESTYZYX
160330 ZLXYYMYX
SACI33 ZBAA 160330
METAR ZBAA 160330Z 29009G16MPS CAVOK M01/M20 Q1031 NOSIG=




XYE1081 160330 
GG TESTYZYX
160330 ZLXYYMYX
SACI33 ZBTJ 160330
METAR ZBTJ 160330Z 32008MPS 280V340 CAVOK M00/M19 Q1031 NOSIG=




XYE1082 160330 
GG TESTYZYX
160330 ZLXYYMYX
SACI38 ZYTX 160330
METAR ZYTX 160330Z 31004MPS CAVOK M11/M19 Q1024 NOSIG=




XYE1083 160330 
GG TESTYZYX
160330 ZLXYYMYX
SACI35 ZGGG 160330
METAR ZGGG 160330Z 03012MPS CAVOK 16/M00 Q1029 NOSIG=




XYE1084 160330 
GG TESTYZYX
160330 ZLXYYMYX
SACI34 ZSSS 160330
METAR ZSSS 160330Z 31009MPS CAVOK 06/M11 Q1032 NOSIG=




XYE1085 160331 
GG TESTYZYX
160330 ZLXYYMYX
SACI34 ZSPD 160330
METAR ZSPD 160330Z 30011MPS CAVOK 06/M12 Q1032 NOSIG=




XYE1086 160331 
GG TESTYZYX
160330 ZLXYYMYX
SACI33 ZBYN 160330
METAR ZBYN 160330Z 29009G14MPS CAVOK M04/M25 Q1034 NOSIG=




XYE1087 160331 
GG TESTYZYX
160330 ZLXYYMYX
SPCI69 ZWBL 160329
SPECI ZWBL 160329Z 00000MPS 2000 BR FEW030 M20/M22 Q1044 NOSIG=




XYE1088 160331 
GG TESTYZYX
160330 ZLXYYMYX
SACI34 ZSHC 160330
METAR ZSHC 160330Z 31009MPS CAVOK 06/M18 Q1034 NOSIG=




XYE1089 160331 
GG TESTYZYX
160331 ZLXYYMYX
SACI35 ZGSZ 160330
METAR ZGSZ 160330Z 36010MPS CAVOK 17/03 Q1027 NOSIG=




XYE1090 160331 
GG TESTYZYX
160331 ZLXYYMYX
SACI64 ZSJU 160330
METAR ZSJU 160330Z 27003MPS 230V310 CAVOK 10/M13 Q1033 NOSIG=




XYE1091 160331 
GG TESTYZYX
160331 ZLXYYMYX
SACI39 ZWWW 160330
METAR ZWWW 160330Z VRB01MPS 1600 R25/1100N BR NSC M18/M20 Q1040
NOSIG=




XYE1092 160332 
GG TESTYZYX
160331 ZLXYYMYX
SACI38 ZYTL 160330
METAR ZYTL 160330Z 33011MPS 9999 BKN040 M04/M17 Q1026 NOSIG=




XYE1093 160333 
GG TESTYZYX
160333 ZLXYYMYX
SACI66 ZUJZ 160330
METAR ZUJZ 160330Z 22002MPS 140V260 CAVOK M06/M16 Q1030 NOSIG=




XYE1094 160333 
GG TESTYZYX
160333 ZLXYYMYX
FTCI34 ZSPD 160332
TAF ZSPD 160332Z 160606 32009G14MPS 6000 NSC
TX08/06Z TNM02/22Z =




XYE1095 160333 
GG TESTYZYX
160333 ZLXYYMYX
SPCI33 ZBHH 160331
SPECI ZBHH 160331Z 31008MPS 9999 FEW040 M08/M20 Q1029 NOSIG=




XYE1096 160334 
GG TESTYZYX
160334 ZLXYYMYX
FTCI33 ZBTJ 160329
TAF ZBTJ 160329Z 160606 32008G15MPS CAVOK TX01/07Z TNM08/22Z BECMG
 0910 26004MPS=




XYE1097 160336 
FF TESTYZYX
160336 ZLXYYMYX
FCCI86 ZUNZ 160334 AAA
TAF AMD ZUNZ 160334Z 160312 CNL=




XYE1098 160336 
GG TESTYZYX
160336 ZLXYYMYX
FTCI34 ZSNJ 160335
TAF ZSNJ 160335Z 160606 33005MPS 5000 HZ NSC TX06/07Z TNM03/22Z=




XYE1099 160340 
GG TESTYZYX
160340 ZLXYYMYX
SPCI34 ZSPD 160336
SPECI ZSPD 160336Z 31011G16MPS CAVOK 06/M12 Q1031 NOSIG=




XYE1100 160340 
GG TESTYZYX
160340 ZLXYYMYX
FTCI44 ZSXZ 160339
TAF ZSXZ 160339Z 160606 31006MPS CAVOK TX06/06Z TNM08/22Z=




XYE1101 160346 
GG TESTYZYX
160346 ZLXYYMYX
SPCI34 ZSSS 160345
SPECI ZSSS 160345Z 30010G15MPS CAVOK 05/M13 Q1032 NOSIG=




XYE1102 160358 
GG TESTYZYX
160358 ZLXYYMYX
FCCI67 ZLAK 160410
TAF ZLAK 160410Z 160615 VRB02MPS CAVOK TX10/07Z
TN00/15Z=




XYE1103 160358 
GG TESTYZYX
160358 ZLXYYMYX
SACI73 ZBDT 160400
METAR ZBDT 160400Z 28007MPS 250V320 CAVOK M10/M23 Q1028 NOSIG=




XYE1104 160359 
GG TESTYZYX
160359 ZLXYYMYX
SACI76 ZPLC 160400
METAR ZPLC 160400Z 14004MPS 110V180 9999 FEW033 16/07 Q1028 NOSIG=




XYE1105 160359 
GG TESTYZYX
160359 ZLXYYMYX
SACI67 ZLYA 160400
METAR ZLYA 160400Z 27004MPS 190V300 CAVOK M03/M23 Q1038 NOSIG=




XYE1106 160359 
FF TESTYZYX
160359 ZLXYYMYX
FCCI36 ZUAL 160400 AAA
TAF AMD ZUAL 160400Z 160312 CNL=




XYE1107 160400 
GG TESTYZYX
160400 ZLXYYMYX
SACI65 ZGBS 160400
METAR ZGBS 160400Z VRB02MPS 9999 BKN040 17/01 Q1032 NOSIG=




XYE1108 160400 
GG TESTYZYX
160400 ZLXYYMYX
SACI64 ZSNT 160400
METAR ZSNT 160400Z 32010MPS CAVOK 04/M13 Q1032 NOSIG=




XYE1109 160400 
GG TESTYZYX
160400 ZLXYYMYX
SACI35 ZGSD 160400
METAR ZGSD 160400Z 01011G16MPS CAVOK 18/05 Q1025 NOSIG=




XYE1110 160400 
GG TESTYZYX
160400 ZLXYYMYX
SACI63 ZBMZ 160400
METAR ZBMZ 160400Z 27004MPS CAVOK M19/M23 Q1018 NOSIG=




XYE1111 160400 
GG TESTYZYX
160400 ZLXYYMYX
SACI73 ZBZJ 160400
METAR ZBZJ 160400Z 31010MPS CAVOK M08/M22 Q1028 NOSIG=




XYE1112 160400 
GG TESTYZYX
160400 ZLXYYMYX
SACI67 ZLTS 160400
METAR ZLTS 160400Z 14001MPS CAVOK M01/M16 Q1041 NOSIG=




XYE1113 160400 
GG TESTYZYX
160400 ZLXYYMYX
SACI74 ZSYA 160400
METAR ZSYA 160400Z 31009MPS CAVOK 03/M14 Q1034 NOSIG=




XYE1114 160400 
GG TESTYZYX
160400 ZLXYYMYX
SACI66 ZUDC 160400
METAR ZUDC 160400Z AUTO 23010MPS 9999 /// ////// M02/M11 Q1029
NOSIG=




XYE1115 160400 
GG TESTYZYX
160400 ZLXYYMYX
SACI68 ZYJZ 160400
METAR ZYJZ 160400Z AUTO 32008MPS //// // //// M05/M25 Q1026 NOSIG=




XYE1116 160400 
GG TESTYZYX
160400 ZLXYYMYX
SACI36 ZUUU 160400
METAR ZUUU 160400Z 20002MPS CAVOK 10/M09 Q1040 NOSIG=




XYE1117 160400 
GG TESTYZYX
160400 ZLXYYMYX
SACI73 ZBSN 160400
METAR ZBSN 160400Z 30008G13MPS CAVOK M02/M18 Q1029 NOSIG=




XYE1118 160400 
GG TESTYZYX
160400 ZLXYYMYX
SACI86 ZURK 160400
METAR ZURK 160400Z AUTO VRB01MPS 9999 /// ////// 03/M14 Q1022 NOSIG=




XYE1119 160400 
GG TESTYZYX
160400 ZLXYYMYX
SACI35 ZGKL 160400
METAR ZGKL 160400Z 05007MPS 020V090 CAVOK 13/M09 Q1034 NOSIG=




XYE1120 160400 
GG TESTYZYX
160400 ZLXYYMYX
SACI35 ZGSZ 160400
METAR ZGSZ 160400Z 02009MPS CAVOK 18/03 Q1027 NOSIG=




XYE1121 160400 
GG TESTYZYX
160400 ZLXYYMYX
SACI34 ZSNJ 160400
METAR ZSNJ 160400Z 32006MPS CAVOK 04/M15 Q1035 NOSIG=




XYE1122 160400 
GG TESTYZYX
160400 ZLXYYMYX
SACI35 ZGOW 160400
METAR ZGOW 160400Z 36007MPS CAVOK 18/04 Q1026 NOSIG=




XYE1123 160400 
GG TESTYZYX
160400 ZLXYYMYX
SACI69 ZWTC 160400
METAR ZWTC 160400Z 05004MPS CAVOK M12/M20 Q1036 NOSIG=




XYE1124 160400 
GG TESTYZYX
160400 ZLXYYMYX
SACI34 ZSOF 160400
METAR ZSOF 160400Z 30006MPS 270V330 CAVOK 04/M13 Q1037 NOSIG=




XYE1125 160400 
GG TESTYZYX
160400 ZLXYYMYX
SACI65 ZGCD 160400
METAR ZGCD 160400Z 36003MPS CAVOK 08/M12 Q1041 NOSIG=




XYE1126 160400 
GG TESTYZYX
160400 ZLXYYMYX
SACI77 ZLXH 160400
METAR ZLXH 160400Z AUTO VRB01MPS //// ///////// M06/M23 Q1031=




XYE1127 160400 
GG TESTYZYX
160400 ZLXYYMYX
SACI67 ZLDH 160400
METAR ZLDH 160400Z 08002MPS CAVOK M12/M17 Q1042 NOSIG=




XYE1128 160400 
GG TESTYZYX
160400 ZLXYYMYX
SACI37 ZLXN 160400
METAR ZLXN 160400Z 28003MPS 4000 HZ NSC M08/M17 Q1035 NOSIG=




XYE1129 160400 
GG TESTYZYX
160400 ZLXYYMYX
SACI67 ZLHZ 160400
METAR ZLHZ 160400Z 26005MPS 220V290 CAVOK 07/M13 Q1040 NOSIG=




XYE1130 160400 
GG TESTYZYX
160400 ZLXYYMYX
SACI37 ZLXY 160400
METAR ZLXY 160400Z 25004MPS 210V300 CAVOK 04/M19 Q1041 NOSIG=




XYE1131 160400 
GG TESTYZYX
160400 ZLXYYMYX
SACI66 ZUNC 160400
METAR ZUNC 160400Z VRB01MPS CAVOK 09/M09 Q1040 NOSIG=




XYE1132 160400 
GG TESTYZYX
160400 ZLXYYMYX
SACI33 ZBAA 160400
METAR ZBAA 160400Z 29010MPS CAVOK M01/M19 Q1031 NOSIG=




XYE1133 160400 
GG TESTYZYX
160400 ZLXYYMYX
SACI73 ZBCZ 160400
METAR ZBCZ 160400Z 31007MPS 270V350 CAVOK M03/M23 Q1032 NOSIG=




XYE1134 160400 
GG TESTYZYX
160400 ZLXYYMYX
SACI86 ZUBJ 160400
METAR ZUBJ 160400Z 36003MPS 320V020 9999 -SG SCT009 OVC023 M00/M01
Q10
36 NOSIG=




XYE1135 160400 
GG TESTYZYX
160400 ZLXYYMYX
SACI76 ZPDL 160400
METAR ZPDL 160400Z 18006MPS 9999 BKN050 13/04 Q1027 NOSIG=




XYE1136 160400 
GG TESTYZYX
160400 ZLXYYMYX
SACI33 ZBTJ 160400
METAR ZBTJ 160400Z 31010MPS CAVOK M00/M20 Q1030 NOSIG=




XYE1137 160400 
GG TESTYZYX
160400 ZLXYYMYX
SACI68 ZYBS 160400
METAR ZYBS 160400Z 33004MPS 290V020 3000 -SN BR FEW004 SCT016
M17/M20
Q1009 NOSIG=




XYE1138 160400 
GG TESTYZYX
160400 ZLXYYMYX
SACI34 ZSAM 160400
METAR ZSAM 160400Z 03005MPS 330V050 CAVOK 18/05 Q1026 NOSIG=




XYE1139 160400 
GG TESTYZYX
160400 ZLXYYMYX
SACI35 ZGGG 160400
METAR ZGGG 160400Z 03010MPS CAVOK 17/00 Q1028 NOSIG=




XYE1140 160401 
GG TESTYZYX
160400 ZLXYYMYX
SACI89 ZWHM 160400
METAR ZWHM 160400Z 11002MPS CAVOK M10/M18 Q1043 NOSIG=




XYE1141 160401 
GG TESTYZYX
160400 ZLXYYMYX
SACI68 ZYDD 160400
METAR ZYDD 160400Z 33007MPS CAVOK M07/M19 Q1023 NOSIG=




XYE1142 160401 
GG TESTYZYX
160400 ZLXYYMYX
SACI37 ZLIC 160400
METAR ZLIC 160400Z 23006MPS CAVOK M03/M20 Q1036 NOSIG=




XYE1143 160401 
GG TESTYZYX
160400 ZLXYYMYX
SACI67 ZLZW 160400
METAR ZLZW 160400Z 30007MPS CAVOK M02/M26 Q1037 NOSIG=




XYE1144 160401 
GG TESTYZYX
160400 ZLXYYMYX
SACI77 ZLDL 160400
METAR ZLDL 160400Z AUTO 00000MPS 9999 // ////// M11/M30 Q1034=




XYE1145 160401 
GG TESTYZYX
160400 ZLXYYMYX
SACI67 ZLQY 160400
METAR ZLQY 160400Z 29005MPS CAVOK M04/M22 Q1037 NOSIG=




XYE1146 160401 
GG TESTYZYX
160400 ZLXYYMYX
SACI73 ZBSH 160400
METAR ZBSH 160400Z 31007MPS 270V350 CAVOK M03/M24 Q1028 NOSIG=




XYE1147 160401 
GG TESTYZYX
160400 ZLXYYMYX
SACI73 ZBHD 160400
METAR ZBHD 160400Z 29006MPS CAVOK 04/M22 Q1034 NOSIG=




XYE1148 160401 
GG TESTYZYX
160400 ZLXYYMYX
SACI63 ZBTL 160400
METAR ZBTL 160400Z 35003MPS CAVOK M14/M21 Q1023 NOSIG=




XYE1149 160401 
GG TESTYZYX
160400 ZLXYYMYX
SACI75 ZHNY 160400
METAR ZHNY 160400Z 29004MPS CAVOK 06/M19 Q1039 NOSIG=




XYE1150 160401 
GG TESTYZYX
160400 ZLXYYMYX
SACI34 ZSWZ 160400
METAR ZSWZ 160400Z 34005MPS 310V020 8000 NSC 13/M07 Q1028 NOSIG=




XYE1151 160401 
GG TESTYZYX
160400 ZLXYYMYX
SACI44 ZSQD 160400
METAR ZSQD 160400Z 31008MPS 270V330 CAVOK 00/M21 Q1030 NOSIG=




XYE1152 160401 
GG TESTYZYX
160400 ZLXYYMYX
SACI68 ZYJM 160400
METAR ZYJM 160400Z 30002MPS 3000 BR FU NSC M19/M23 Q1017 NOSIG=




XYE1153 160401 
GG TESTYZYX
160400 ZLXYYMYX
SACI68 ZYDQ 160400
METAR ZYDQ 160400Z 33006MPS 7000 NSC M21/M23 Q1021 NOSIG=




XYE1154 160401 
GG TESTYZYX
160400 ZLXYYMYX
SACI45 ZHCC 160400
METAR ZHCC 160400Z 30009MPS CAVOK 04/M23 Q1037 NOSIG=




XYE1155 160401 
GG TESTYZYX
160400 ZLXYYMYX
SACI35 ZJSY 160400
METAR ZJSY 160400Z 23005MPS 190V250 CAVOK 26/17 Q1019 NOSIG=




XYE1156 160401 
GG TESTYZYX
160400 ZLXYYMYX
SACI34 ZSSS 160400
METAR ZSSS 160400Z 30008G13MPS CAVOK 06/M13 Q1031 NOSIG=




XYE1157 160401 
GG TESTYZYX
160400 ZLXYYMYX
SACI34 ZSPD 160400
METAR ZSPD 160400Z 32011G16MPS CAVOK 06/M11 Q1031 NOSIG=




XYE1158 160401 
GG TESTYZYX
160400 ZLXYYMYX
SACI33 ZBSJ 160400
METAR ZBSJ 160400Z 31004MPS 260V010 CAVOK 03/M21 Q1033 NOSIG=




XYE1159 160401 
GG TESTYZYX
160400 ZLXYYMYX
SACI63 ZBUH 160400
METAR ZBUH 160400Z 28006MPS CAVOK M06/M24 Q1036 NOSIG=




XYE1160 160401 
GG TESTYZYX
160400 ZLXYYMYX
SACI73 ZBLL 160400
METAR ZBLL 160400Z 29007MPS CAVOK M10/M21 Q1034 NOSIG=




XYE1161 160401 
GG TESTYZYX
160400 ZLXYYMYX
SACI36 ZUBD 160400
METAR ZUBD 160400Z AUTO 16010MPS 140V200 9999 /// ////// 01/M15
Q1027 NOSIG=




XYE1162 160401 
GG TESTYZYX
160400 ZLXYYMYX
SACI73 ZBYC 160400
METAR ZBYC 160400Z 33005MPS 290V360 CAVOK 02/M23 Q1041 NOSIG=




XYE1163 160401 
GG TESTYZYX
160400 ZLXYYMYX
SACI63 ZBLA 160400
METAR ZBLA 160400Z 23003MPS 5000 BR NSC M27/M31 Q1017 NOSIG=




XYE1164 160401 
GG TESTYZYX
160400 ZLXYYMYX
SACI75 ZGHC 160400
METAR ZGHC 160400Z AUTO VRB03MPS 9999 // ////// 11/M05 Q1033=




XYE1165 160401 
GG TESTYZYX
160400 ZLXYYMYX
SACI45 ZGHA 160400
METAR ZGHA 160400Z 02006MPS 350V070 CAVOK 10/M16 Q1038 NOSIG=




XYE1166 160401 
GG TESTYZYX
160400 ZLXYYMYX
SACI34 ZSHC 160400
METAR ZSHC 160400Z 32007MPS CAVOK 07/M18 Q1033 NOSIG=




XYE1167 160401 
GG TESTYZYX
160401 ZLXYYMYX
SACI68 ZYAS 160400
METAR ZYAS 160400Z 30002MPS 260V330 6000 NSC M08/M18 Q1025=




XYE1168 160401 
GG TESTYZYX
160401 ZLXYYMYX
SACI36 ZUCK 160400
METAR ZUCK 160400Z 30002MPS 250V340 9999 -RA SCT030 07/M00 Q1040
NOSIG=




XYE1169 160401 
GG TESTYZYX
160401 ZLXYYMYX
SACI35 ZJHK 160400
METAR ZJHK 160400Z 02006MPS 340V050 8000 SCT030 18/12 Q1024 NOSIG=




XYE1170 160401 
GG TESTYZYX
160401 ZLXYYMYX
SACI89 ZWNL 160400
METAR ZWNL 160400Z 22002MPS CAVOK M08/M17 Q1034 NOSIG=




XYE1171 160401 
GG TESTYZYX
160401 ZLXYYMYX
SACI68 ZYJX 160400
METAR ZYJX 160400Z 34006MPS 6000 NSC M17/M22 Q1014 NOSIG=




XYE1172 160401 
GG TESTYZYX
160401 ZLXYYMYX
SACI66 ZUZH 160400
METAR ZUZH 160400Z 08002MPS 9999 SCT021 OVC040 04/M01 Q1029
NOSIG=




XYE1173 160401 
GG TESTYZYX
160401 ZLXYYMYX
SACI77 ZLZY 160400
METAR ZLZY 160400Z 09002MPS CAVOK M02/M22 Q1035 NOSIG=




XYE1174 160401 
GG TESTYZYX
160401 ZLXYYMYX
SACI67 ZLGM 160400
METAR ZLGM 160400Z 26002MPS 220V280 CAVOK M12/M28 Q1033 NOSIG=




XYE1175 160401 
GG TESTYZYX
160401 ZLXYYMYX
SACI37 ZLLL 160400
METAR ZLLL 160400Z 18003MPS 140V220 CAVOK M07/M19 Q1035 NOSIG=




XYE1176 160401 
GG TESTYZYX
160401 ZLXYYMYX
SACI67 ZLGY 160400
METAR ZLGY 160400Z 34004MPS CAVOK M06/M22 Q1035 NOSIG=




XYE1177 160401 
GG TESTYZYX
160401 ZLXYYMYX
SACI74 ZSWY 160400
METAR ZSWY 160400Z 02007MPS CAVOK 11/M08 Q1032 NOSIG=




XYE1178 160401 
GG TESTYZYX
160401 ZLXYYMYX
SACI44 ZSLG 160400
METAR ZSLG 160400Z 30005MPS CAVOK 02/M17 Q1033 NOSIG=




XYE1179 160401 
GG TESTYZYX
160401 ZLXYYMYX
SACI33 ZBHH 160400
METAR ZBHH 160400Z 31008MPS 9999 FEW040 M09/M20 Q1029 NOSIG=




XYE1180 160401 
GG TESTYZYX
160401 ZLXYYMYX
SACI65 ZGCJ 160400
METAR ZGCJ 160400Z 07004MPS 030V120 9999 SCT050 12/M11 Q1038
NOSIG=




XYE1181 160401 
GG TESTYZYX
160401 ZLXYYMYX
SACI45 ZHHH 160400
METAR ZHHH 160400Z 35004MPS 260V040 CAVOK 08/M15 Q1039 NOSIG=




XYE1182 160401 
GG TESTYZYX
160401 ZLXYYMYX
SACI65 ZGLG 160400
METAR ZGLG 160400Z 01005MPS 340V040 CAVOK 11/M14 Q1037 NOSIG=




XYE1183 160401 
GG TESTYZYX
160401 ZLXYYMYX
SACI69 ZWAK 160400
METAR ZWAK 160400Z 26001MPS 5000 FU NSC M11/M16 Q1041 NOSIG=




XYE1184 160401 
GG TESTYZYX
160401 ZLXYYMYX
SACI69 ZWAT 160400
METAR ZWAT 160400Z 00000MPS CAVOK M14/M23 Q1038 NOSIG=




XYE1185 160401 
GG TESTYZYX
160401 ZLXYYMYX
SACI38 ZYHB 160400
METAR ZYHB 160400Z 30003MPS 260V330 3000 BR NSC M21/M23 Q1020 NOSIG=




XYE1186 160401 
GG TESTYZYX
160401 ZLXYYMYX
SACI89 ZWKC 160400
METAR ZWKC 160400Z 03002MPS 4000 FU NSC M12/M16 Q1042 NOSIG=




XYE1187 160401 
GG TESTYZYX
160401 ZLXYYMYX
SACI65 ZGZJ 160400
METAR ZGZJ 160400Z 36007MPS 330V060
CAVOK
17/06 Q1025
NOSIG=




XYE1188 160401 
GG TESTYZYX
160401 ZLXYYMYX
FCCI89 ZWHM 160400
TAF ZWHM 160400Z 160615 12004MPS CAVOK TXM05/09Z TNM15/15Z=




XYE1189 160402 
GG TESTYZYX
160401 ZLXYYMYX
SACI35 ZGNN 160400
METAR ZGNN 160400Z 02006MPS CAVOK 16/04 Q1030 NOSIG=




XYE1190 160402 
GG TESTYZYX
160401 ZLXYYMYX
SACI44 ZSJN 160400
METAR ZSJN 160400Z 31007MPS 260V330 CAVOK 01/M21 Q1033 NOSIG=




XYE1191 160402 
GG TESTYZYX
160401 ZLXYYMYX
SACI44 ZSCN 160400
METAR ZSCN 160400Z 34006G11MPS 290V010 CAVOK 09/M15 Q1037 NOSIG=




XYE1192 160402 
GG TESTYZYX
160401 ZLXYYMYX
SACI86 ZUKJ 160400
METAR ZUKJ 160400Z 06004MPS 020V080 CAVOK 06/M08 Q1036 NOSIG=




XYE1193 160402 
GG TESTYZYX
160401 ZLXYYMYX
SACI65 ZGMX 160400
METAR ZGMX 160400Z 35006MPS CAVOK 16/M01 Q1028 NOSIG=




XYE1194 160402 
GG TESTYZYX
160401 ZLXYYMYX
SACI63 ZBCF 160400
METAR ZBCF 160400Z 32008MPS 280V360 9999 FEW040 M10/M26 Q1022 NOSIG=




XYE1195 160402 
GG TESTYZYX
160401 ZLXYYMYX
SACI63 ZBER 160400
METAR ZBER 160400Z 30011MPS CAVOK M13/M22 Q1027 NOSIG=




XYE1196 160402 
GG TESTYZYX
160401 ZLXYYMYX
SACI36 ZUXC 160400
METAR ZUXC 160400Z 36004MPS 9999 -RA OVC050 06/M04 Q1031 NOSIG=




XYE1197 160402 
GG TESTYZYX
160401 ZLXYYMYX
SACI45 ZHLY 160400
METAR ZHLY 160400Z 30010MPS CAVOK 04/M22 Q1037 NOSIG=




XYE1198 160402 
GG TESTYZYX
160401 ZLXYYMYX
SACI86 ZUPS 160400
METAR ZUPS 160400Z AUTO 04004MPS 9999 /// ////// M02/M03 Q1035
NOSIG=




XYE1199 160402 
GG TESTYZYX
160401 ZLXYYMYX
SACI45 ZHYC 160400
METAR ZHYC 160400Z 15002MPS CAVOK 08/M07 Q1040 NOSIG=




XYE1200 160402 
GG TESTYZYX
160401 ZLXYYMYX
SACI68 ZYLD 160400
METAR ZYLD 160400Z 26005MPS 8000 FEW033 M23/M27 Q1016 NOSIG=




XYE1201 160402 
GG TESTYZYX
160401 ZLXYYMYX
SACI39 ZWWW 160400
METAR ZWWW 160400Z 30001MPS 1600 R25/0900N BR NSC M17/M20 Q1040
NOSIG=




XYE1202 160402 
GG TESTYZYX
160401 ZLXYYMYX
SACI39 ZWTL 160400
METAR ZWTL 160400Z 04002MPS 010V070 CAVOK M07/M16 Q1048 NOSIG=




XYE1203 160402 
GG TESTYZYX
160401 ZLXYYMYX
SACI34 ZSNB 160400
METAR ZSNB 160400Z 32011G17MPS 290V350 CAVOK 07/M14 Q1032 NOSIG=




XYE1204 160402 
GG TESTYZYX
160401 ZLXYYMYX
SACI78 ZYTN 160400
METAR ZYTN 160400Z 28004MPS 7000 SCT030 M13/M18 Q1017=




XYE1205 160402 
GG TESTYZYX
160401 ZLXYYMYX
SACI67 ZLJC 160400
METAR ZLJC 160400Z 07002MPS 020V130 CAVOK M03/M27 Q1037 NOSIG=




XYE1206 160402 
GG TESTYZYX
160401 ZLXYYMYX
SACI66 ZUJZ 160400
METAR ZUJZ 160400Z 22003MPS 180V270 CAVOK M06/M18 Q1029 NOSIG=




XYE1207 160402 
GG TESTYZYX
160401 ZLXYYMYX
FCCI73 ZBLL 160401
TAF ZBLL 160401Z 160615 33006G13MPS 8000 NSC TXM04/07Z TNM10/15Z=




XYE1208 160402 
GG TESTYZYX
160401 ZLXYYMYX
SACI33 ZBYN 160400
METAR ZBYN 160400Z 30008MPS CAVOK M03/M24 Q1033 NOSIG=




XYE1209 160402 
GG TESTYZYX
160401 ZLXYYMYX
SACI44 ZSXZ 160400
METAR ZSXZ 160400Z 31006MPS 250V340 CAVOK 03/M17 Q1035 NOSIG=




XYE1210 160402 
GG TESTYZYX
160401 ZLXYYMYX
SACI34 ZSLQ 160400
METAR ZSLQ 160400Z 33008G13MPS CAVOK 10/M12 Q1029 NOSIG=




XYE1211 160402 
GG TESTYZYX
160401 ZLXYYMYX
SACI36 ZUGY 160400
METAR ZUGY 160400Z 02004MPS 9999 FEW026 OVC043 04/M02 Q1035 NOSIG=




XYE1212 160402 
GG TESTYZYX
160401 ZLXYYMYX
SACI38 ZYCC 160400
METAR ZYCC 160400Z VRB01MPS 1200 R24/1500D -SN BR SCT010 OVC020
M17/M20 Q1020 BECMG TL0530 1600 -SN BR=




XYE1213 160402 
GG TESTYZYX
160401 ZLXYYMYX
SACI63 ZBXH 160400
METAR ZBXH 160400Z 29008MPS CAVOK M17/M23 Q1021 NOSIG=




XYE1214 160402 
GG TESTYZYX
160401 ZLXYYMYX
SACI67 ZLYL 160400
METAR ZLYL 160400Z 28008MPS CAVOK M06/M23 Q1034 NOSIG=




XYE1215 160402 
GG TESTYZYX
160401 ZLXYYMYX
SACI68 ZYYJ 160400
METAR ZYYJ 160400Z 29009MPS CAVOK M10/M16 Q1013 NOSIG=




XYE1216 160402 
GG TESTYZYX
160401 ZLXYYMYX
SACI39 ZWSH 160400
METAR ZWSH 160400Z 31003MPS 6000 NSC M10/M14 Q1038 NOSIG=




XYE1217 160402 
GG TESTYZYX
160401 ZLXYYMYX
SACI78 ZYJD 160400
METAR ZYJD 160400Z 04001MPS CAVOK M24/M28 Q1018 NOSIG=




XYE1218 160402 
GG TESTYZYX
160401 ZLXYYMYX
SACI68 ZYCY 160400
METAR ZYCY 160400Z 34007MPS 9999 SCT040 M05/M24 Q1025 NOSIG=




XYE1219 160402 
GG TESTYZYX
160401 ZLXYYMYX
SACI67 ZLJQ 160400
METAR ZLJQ 160400Z 11001MPS CAVOK M04/M25 Q1036 NOSIG=




XYE1220 160402 
GG TESTYZYX
160401 ZLXYYMYX
SACI73 ZBAL 160400
METAR ZBAL 160400Z 35002MPS 280V090 CAVOK M06/M23 Q1037 NOSIG=




XYE1221 160402 
GG TESTYZYX
160401 ZLXYYMYX
SACI38 ZYTX 160400
METAR ZYTX 160400Z 31005MPS CAVOK M10/M19 Q1024 NOSIG=




XYE1222 160402 
GG TESTYZYX
160401 ZLXYYMYX
SACI39 ZWTN 160400
METAR ZWTN 160400Z 00000MPS CAVOK M10/M13 Q1039 NOSIG=




XYE1223 160402 
GG TESTYZYX
160401 ZLXYYMYX
SACI69 ZWBL 160400
METAR ZWBL 160400Z 30001MPS 2000 BR FEW030 M19/M21 Q1044 NOSIG=




XYE1224 160402 
GG TESTYZYX
160401 ZLXYYMYX
SACI34 ZSFZ 160400
METAR ZSFZ 160400Z 05006MPS 010V080 9999 FEW020 16/03 Q1027 NOSIG=




XYE1225 160402 
GG TESTYZYX
160401 ZLXYYMYX
SACI36 ZPPP 160400
METAR ZPPP 160400Z 06006MPS 020V080 9999 BKN016 OVC030 01/M01 Q1032
NOSIG=




XYE1226 160402 
GG TESTYZYX
160401 ZLXYYMYX
SACI68 ZYMH 160400
METAR ZYMH 160400Z 27003MPS CAVOK M27/M30 Q1017 NOSIG=




XYE1227 160402 
GG TESTYZYX
160401 ZLXYYMYX
SACI75 ZHSN 160400
METAR ZHSN 160400Z 24009MPS 210V300 CAVOK M10/M26 Q1030 NOSIG=




XYE1228 160402 
GG TESTYZYX
160401 ZLXYYMYX
SACI67 ZLYS 160400
METAR ZLYS 160400Z 28001MPS 4500 -SN SCT033 OVC060 M06/M08 Q1028
NOSIG=




XYE1229 160402 
GG TESTYZYX
160401 ZLXYYMYX
FCCI37 ZLLL 160400
TAF ZLLL 160400Z 160615 17003MPS 5000 FU NSC TXM03/08Z TNM12/15Z=




XYE1230 160402 
GG TESTYZYX
160401 ZLXYYMYX
SACI75 ZHXF 160400
METAR ZHXF 160400Z 33005MPS CAVOK 09/M12 Q1039 NOSIG=




XYE1231 160402 
GG TESTYZYX
160401 ZLXYYMYX
SACI76 ZPDQ 160400
METAR ZPDQ 160400Z 21005MPS 150V250 9999 SCT026 05/M09 Q1032 NOSIG=




XYE1232 160402 
GG TESTYZYX
160401 ZLXYYMYX
SACI86 ZUNP 160400
METAR ZUNP 160400Z 03006MPS 350V050 8000 FEW040 10/M05 Q1036 NOSIG=




XYE1233 160402 
GG TESTYZYX
160401 ZLXYYMYX
SACI76 ZPTC 160400
METAR ZPTC 160400Z 34002MPS 270V020 CAVOK 14/06 Q1027 NOSIG=




XYE1234 160402 
GG TESTYZYX
160401 ZLXYYMYX
SACI69 ZWKL 160400
METAR ZWKL 160400Z 00000MPS 9000 NSC M11/M14 Q1043 NOSIG=




XYE1235 160402 
GG TESTYZYX
160401 ZLXYYMYX
FCCI35 ZGGG 160400
TAF ZGGG 160400Z 160615 36010G17MPS 9999 SCT040 TX18/07Z
TN12/15Z
BECMG 1314 36005MPS=




XYE1236 160402 
GG TESTYZYX
160402 ZLXYYMYX
SACI66 ZUMY 160400 RRA
METAR ZUMY 160400Z VRB01MPS CAVOK 07/M13 Q1040 NOSIG=




XYE1237 160402 
GG TESTYZYX
160402 ZLXYYMYX
SACI76 ZPZT 160400
METAR ZPZT 160400Z 27002MPS 8000 -SN SCT010 OVC016 M01/M04 Q1037
NOSIG=




XYE1238 160402 
GG TESTYZYX
160402 ZLXYYMYX
SACI69 ZWYN 160400
METAR ZWYN 160400Z 02002MPS CAVOK M07/M14 Q1034 NOSIG=




XYE1239 160403 
GG TESTYZYX
160402 ZLXYYMYX
SACI38 ZYTL 160400
METAR ZYTL 160400Z 32010G15MPS 9999 -SN BKN026 M04/M16 Q1026 NOSIG=




XYE1240 160403 
GG TESTYZYX
160402 ZLXYYMYX
SACI64 ZSWX 160400
METAR ZSWX 160400Z 31009MPS CAVOK 05/M17 Q1033 NOSIG=




XYE1241 160403 
GG TESTYZYX
160402 ZLXYYMYX
SACI63 ZBOW 160400
METAR ZBOW 160400Z 30007MPS CAVOK M07/M21 Q1032 NOSIG=




XYE1242 160403 
GG TESTYZYX
160402 ZLXYYMYX
SACI68 ZYQQ 160400
METAR ZYQQ 160400Z 34002MPS 310V020 CAVOK M19/M24
Q1021 NOSIG=




XYE1243 160403 
GG TESTYZYX
160402 ZLXYYMYX
SACI35 ZGZH 160400
METAR ZGZH 160400Z 35005MPS CAVOK 15/M07 Q1032 NOSIG=




XYE1244 160403 
GG TESTYZYX
160402 ZLXYYMYX
SACI65 ZGWZ 160400
METAR ZGWZ 160400Z 01005MPS 340V070 CAVOK 16/M02 Q1030 NOSIG=




XYE1245 160403 
GG TESTYZYX
160402 ZLXYYMYX
SACI68 ZYMD 160400
METAR ZYMD 160400Z 28004MPS 9999 FEW030 M13/M18 Q1012 NOSIG=




XYE1246 160403 
GG TESTYZYX
160402 ZLXYYMYX
FCCI34 ZSOF 160402
TAF ZSOF 160402Z 160615 33005MPS 5000 HZ NSC TX05/07Z TNM01/15Z=




XYE1247 160403 
GG TESTYZYX
160402 ZLXYYMYX
SACI66 ZUGU 160400
METAR ZUGU 160400Z 10002MPS 060V160 CAVOK 07/M18 Q1039 NOSIG=




XYE1248 160403 
GG TESTYZYX
160402 ZLXYYMYX
SACI63 ZBUL 160400
METAR ZBUL 160400Z VRB01MPS CAVOK M15/M23 Q1020 NOSIG=




XYE1249 160403 
GG TESTYZYX
160402 ZLXYYMYX
SACI73 ZBYZ 160400
METAR ZBYZ 160400Z 26008MPS CAVOK M06/M21 Q1034 NOSIG=




XYE1250 160403 
GG TESTYZYX
160402 ZLXYYMYX
SACI44 ZSYT 160400
METAR ZSYT 160400Z 31009G14MPS 9999 -SHSN BKN033 M03/M10 Q1027
NOSIG=




XYE1251 160403 
GG TESTYZYX
160402 ZLXYYMYX
SACI86 ZUQJ 160400
METAR ZUQJ 160400Z 19002MPS 150V220 6000 SCT026 BKN040 07/02 Q1037
NOSIG=




XYE1252 160403 
GG TESTYZYX
160402 ZLXYYMYX
FCCI78 ZYJD 160402
TAF ZYJD 160402Z 160615 32004MPS CAVOK TXM22/06Z TNM32/15Z=




XYE1253 160403 
GG TESTYZYX
160403 ZLXYYMYX
SACI64 ZSTX 160400
METAR ZSTX 160400Z VRB03MPS CAVOK 08/M09 Q1034 NOSIG=




XYE1254 160403 
GG TESTYZYX
160403 ZLXYYMYX
SACI45 ZGDY 160400
METAR ZGDY 160400Z 06003MPS 020V080 CAVOK 08/M13 Q1039 NOSIG=




XYE1255 160403 
GG TESTYZYX
160403 ZLXYYMYX
SACI66 ZULZ 160400
METAR ZULZ 160400Z VRB01MPS CAVOK 09/M04 Q1041 NOSIG=
=




XYE1256 160403 
GG TESTYZYX
160403 ZLXYYMYX
SACI39 ZWKM 160400
METAR ZWKM 160400Z 05003MPS 3000 -SG BR BKN008 M21/M24 Q1046 NOSIG=




XYE1257 160403 
GG TESTYZYX
160403 ZLXYYMYX
SACI76 ZPSM 160400
METAR ZPSM 160400Z 19002MPS 120V260 9999 SCT026 20/11 Q1025 NOSIG=




XYE1258 160403 
GG TESTYZYX
160403 ZLXYYMYX
SACI86 ZULB 160400
METAR ZULB 160400Z VRB07MPS 9999 FEW020 SCT040 08/M06 Q1034 NOSIG=




XYE1259 160403 
GG TESTYZYX
160403 ZLXYYMYX
SACI86 ZUNZ 160400
METAR ZUNZ 160400Z AUTO 18004MPS 140V240 9999 /// ////// 06/M06
Q1026 NOSIG=




XYE1260 160403 
GG TESTYZYX
160403 ZLXYYMYX
SACI66 ZUDX 160400
METAR ZUDX 160400Z VRB02MPS CAVOK 11/M16 Q1039 NOSIG=




XYE1261 160403 
GG TESTYZYX
160403 ZLXYYMYX
FCCI44 ZSCN 160402
TAF ZSCN 160402Z 160615 36005G12MPS 3100 BR NSC TX09/06Z TN02/15Z=




XYE1262 160403 
GG TESTYZYX
160403 ZLXYYMYX
FCCI34 ZSWZ 160402
TAF ZSWZ 160402Z 160615 34005MPS 5000 BR NSC TX14/06Z TN06/15Z=




XYE1263 160403 
GG TESTYZYX
160403 ZLXYYMYX
FCCI67 ZLTS 160402
TAF ZLTS 160402Z 160615 VRB01MPS CAVOK TX03/08Z TNM04/15Z=




XYE1264 160403 
GG TESTYZYX
160403 ZLXYYMYX
SACI76 ZPWS 160400
METAR ZPWS 160400Z AUTO 36005MPS 330V030 //// // ///////// 03/02
Q1033=




XYE1265 160403 
GG TESTYZYX
160403 ZLXYYMYX
FCCI65 ZGZJ 160403
TAF ZGZJ 160403Z 160615 36006G11MPS CAVOK TX18/07Z TN12/15Z=




XYE1266 160403 
GG TESTYZYX
160403 ZLXYYMYX
SACI64 ZSSH 160400
METAR ZSSH 160400Z 31007G12MPS CAVOK 02/M19 Q1034 NOSIG=




XYE1267 160403 
GG TESTYZYX
160403 ZLXYYMYX
FCCI36 ZUCK 160401
TAF ZUCK 160401Z 160615 30003MPS 5000 BR SCT040 TX07/06Z
TN05/15Z=




XYE1268 160403 
GG TESTYZYX
160403 ZLXYYMYX
SACI86 ZUYI 160400
METAR ZUYI 160400Z 36005MPS 340V040 9999 SCT015 OVC040 05/02 Q1035
NOS
IG=




XYE1269 160403 
GG TESTYZYX
160403 ZLXYYMYX
SACI65 ZGBH 160400
METAR ZGBH 160400Z 36009MPS 9999 BKN040 15/03 Q1027 NOSIG=




XYE1270 160403 
GG TESTYZYX
160403 ZLXYYMYX
SACI44 ZSCG 160400
METAR ZSCG 160400Z 33009MPS CAVOK 04/M16 Q1034 NOSIG=




XYE1271 160403 
GG TESTYZYX
160403 ZLXYYMYX
SACI76 ZPLJ 160400
METAR ZPLJ 160400Z 19004MPS 170V250 9999 SCT040 14/02 Q1026 NOSIG=




XYE1272 160404 
GG TESTYZYX
160404 ZLXYYMYX
SACI86 ZUWX 160400
METAR ZUWX 160400Z 20002MPS 140V250 CAVOK 09/M00 Q1037 NIOSIG=
=




XYE1273 160404 
GG TESTYZYX
160404 ZLXYYMYX
FCCI45 ZGHA 160403
TAF ZGHA 160403Z 160615 36005MPS 6000 NSC TX12/07Z TN03/15Z=




XYE1274 160404 
GG TESTYZYX
160404 ZLXYYMYX
SACI68 ZYHE 160400
METAR ZYHE 160400Z 35003MPS CAVOK M24/M30 Q1017 NOSIG=




XYE1275 160404 
GG TESTYZYX
160404 ZLXYYMYX
SACI64 ZSZS 160400
METAR ZSZS 160400Z 32011G18MPS 290V350 CAVOK 07/M08 Q1030 NOSIG=




XYE1276 160404 
GG TESTYZYX
160404 ZLXYYMYX
SACI64 ZSFY 160400
METAR ZSFY 160400Z 32006MPS 310V020 CAVOK 04/M19 Q1037 NOSIG=




XYE1277 160404 
GG TESTYZYX
160404 ZLXYYMYX
SACI74 ZSJG 160400
METAR ZSJG 160400Z 31008MPS CAVOK 03/M17 Q1035 NOSIG=




XYE1278 160404 
GG TESTYZYX
160404 ZLXYYMYX
SACI63 ZBDS 160400
METAR ZBDS 160400Z 30011MPS CAVOK M08/M23 Q1031 NOSIG=




XYE1279 160404 
GG TESTYZYX
160404 ZLXYYMYX
FCCI64 ZSTX 160402
TAF ZSTX 160402Z 160615 05003MPS 6000 NSC TX10/07Z TN02/15Z=




XYE1280 160404 
GG TESTYZYX
160404 ZLXYYMYX
SACI74 ZSDY 160400
METAR ZSDY 160400Z AUTO 29009MPS 250V310//// // ////// M01/M20 Q1031
NOSIG=




XYE1281 160404 
GG TESTYZYX
160404 ZLXYYMYX
FCCI78 ZYTN 160404
TAF ZYTN 160404Z 160615 24005MPS 9999 SCT030 TXM10/06Z TNM18/15Z=




XYE1282 160404 
GG TESTYZYX
160404 ZLXYYMYX
SACI64 ZSYW 160400
METAR ZSYW 160400Z 30004MPS 260V330 CAVOK 08/M16 Q1032 NOSIG=




XYE1283 160404 
GG TESTYZYX
160404 ZLXYYMYX
SACI66 ZUGH 160400
METAR ZUGH 160400Z 22001MPS CAVOK 10/M12 Q1040 NOSIG=




XYE1284 160404 
GG TESTYZYX
160404 ZLXYYMYX
SACI74 ZSYC 160400
METAR ZSYC 160400Z 06004MPS 020V110 CAVOK 10/M12 Q1037 NOSIG=




XYE1285 160404 
GG TESTYZYX
160404 ZLXYYMYX
SACI78 ZYFY 160400
METAR ZYFY 160400Z 00000MPS CAVOK M22/M27 Q1017 NOSIG=




XYE1286 160404 
GG TESTYZYX
160404 ZLXYYMYX
FCCI69 ZWAK 160403
TAF ZWAK 160403Z 160615 29003MPS 6000 NSC TXM04/08Z TNM16/15Z=




XYE1287 160404 
GG TESTYZYX
160404 ZLXYYMYX
SACI86 ZUZY 160400
METAR ZUZY 160400Z 23001MPS 7000 SCT015 OVC030 05/03 Q1037 NOSIG=




XYE1288 160405 
GG TESTYZYX
160405 ZLXYYMYX
FCCI77 ZLZY 160401
TAF ZLZY 160401Z 160615 31004MPS CAVOK TXM03/08Z TNM12/15Z
BECMG 1213 12005MPS=




XYE1289 160405 
GG TESTYZYX
160405 ZLXYYMYX
SACI76 ZPJH 160400
METAR ZPJH 160400Z VRB01MPS 9999 FEW016 21/16 Q1022 NOSIG=




XYE1290 160405 
GG TESTYZYX
160405 ZLXYYMYX
SACI76 ZPMS 160400
METAR ZPMS 160400Z VRB01MPS 8000 SCT040 17/10 Q1023 NOSIG=




XYE1291 160405 
GG TESTYZYX
160405 ZLXYYMYX
SACI36 ZULS 160400
METAR ZULS 160400Z 08002MPS 320V120 9999 FEW036 06/M12 Q1024 NOSIG=




XYE1292 160405 
GG TESTYZYX
160405 ZLXYYMYX
SACI36 ZUAL 160400
METAR ZUAL 160400Z AUTO VRB01MPS 9999 /// ////// M10/M27 Q1028
NOSIG=




XYE1293 160405 
GG TESTYZYX
160405 ZLXYYMYX
SACI64 ZSJH 160400
METAR ZSJH 160400Z 31005MPS 240V010 CAVOK 06/M13 Q1036 NOSIG=




XYE1294 160405 
GG TESTYZYX
160405 ZLXYYMYX
SACI64 ZSYN 160400
METAR ZSYN 160400Z 32008MPS CAVOK 02/M17 Q1032 NOSIG=




XYE1295 160405 
GG TESTYZYX
160405 ZLXYYMYX
FCCI37 ZLXN 160404
TAF ZLXN 160404Z 160615 29004MPS 7000 FEW040 TXM03/08Z TNM12/15Z
BECMG 0809 12006MPS=




XYE1296 160405 
GG TESTYZYX
160405 ZLXYYMYX
SACI74 ZSGZ 160400
METAR ZSGZ 160400Z 36006MPS 6000 NSC 12/M04 Q1034 NOSIG=




XYE1297 160405 
FF TESTYZYX
160405 ZLXYYMYX
SACI78 ZYFY 160400 CCA
METAR COR ZYFY 160404Z 00000MPS CAVOK M22/M27 Q1017 NOSIG=




XYE1298 160405 
GG TESTYZYX
160405 ZLXYYMYX
FCCI74 ZSGS 160404
TAF ZSGS 160404Z 160615 03004G10MPS 6000 NSC TX13/07Z TN08/15Z=




XYE1299 160405 
GG TESTYZYX
160405 ZLXYYMYX
SACI75 ZHES 160400
METAR ZHES 160400Z VRB01MPS CAVOK 10/M07 Q1036 NOSIG=




XYE1300 160406 
GG TESTYZYX
160406 ZLXYYMYX
SACI63 ZBES 160400
METAR ZBES 160400Z 25004MPS CAVOK M24/M29 Q1015 NOSIG=




XYE1301 160406 
GG TESTYZYX
160406 ZLXYYMYX
FCCI63 ZBLA 160405
TAF ZBLA 160405Z 160615 24004MPS 6000 FEW026 TXM23/06Z TNM29/15Z=




XYE1302 160406 
GG TESTYZYX
160406 ZLXYYMYX
FCCI63 ZBCF 160402
TAF ZBCF 160402Z 160615 32006G11MPS 9999 SCT040 TXM07/07Z TNM12/15Z=




XYE1303 160406 
GG TESTYZYX
160406 ZLXYYMYX
SACI64 ZSJU 160400
METAR ZSJU 160400Z VRB04MPS CAVOK 11/M12 Q1033 NOSIG=




XYE1304 160406 
GG TESTYZYX
160406 ZLXYYMYX
FCCI69 ZWTC 160405
TAF ZWTC 160405Z 160615 12003MPS CAVOK TXM07/08Z TNM15/15Z=




XYE1305 160406 
GG TESTYZYX
160406 ZLXYYMYX
SACI74 ZSLO 160400
METAR ZSLO 160400Z 02007MPS 6000 NSC 12/M03 Q1031 NOSIG=




XYE1306 160406 
GG TESTYZYX
160406 ZLXYYMYX
SACI66 ZUYB 160400
METAR ZUYB 160400Z 31003MPS 270V350 CAVOK 09/M02 Q1041 NOSIG=




XYE1307 160406 
GG TESTYZYX
160406 ZLXYYMYX
FCCI36 ZPPP 160405
TAF ZPPP 160405Z 160615 04006MPS 6000 SCT002 SCT020 OVC033 TX03/08Z
TN00/15Z=




XYE1308 160407 
GG TESTYZYX
160406 ZLXYYMYX
FCCI35 ZGNN 160405
TAF ZGNN 160405Z 160615 03004MPS CAVOK TX17/07Z TN12/15Z=




XYE1309 160407 
GG TESTYZYX
160407 ZLXYYMYX
SACI86 ZUAS 160400
METAR ZUAS 160400Z 04005MPS 9999 SCT013 OVC033 01/01 Q1035 NOSIG=




XYE1310 160407 
GG TESTYZYX
160407 ZLXYYMYX
FCCI45 ZHHH 160406
TAF ZHHH 160406Z 160615 02004MPS 5000 HZ NSC TX10/06Z TN04/15Z=




XYE1311 160407 
GG TESTYZYX
160407 ZLXYYMYX
SACI44 ZSWF 160400
METAR ZSWF 160400Z 31009MPS CAVOK 00/M20 Q1031 NOSIG=




XYE1312 160407 
GG TESTYZYX
160407 ZLXYYMYX
FCCI65 ZGBS 160402
TAF ZGBS 160402Z 160615 32003MPS 9999 SCT040 TX20/07Z TN10/15Z=




XYE1313 160407 
GG TESTYZYX
160407 ZLXYYMYX
FCCI76 ZPLC 160404
TAF ZPLC 160404Z 160615 32004MPS 9999 SCT033 TX19/08Z TN08/15Z=




XYE1314 160407 
GG TESTYZYX
160407 ZLXYYMYX
SACI74 ZSGS 160400
METAR ZSGS 160400Z 04005G10MPS 330V110 7000 NSC 11/M05 Q1036 NOSIG=




XYE1315 160407 
GG TESTYZYX
160407 ZLXYYMYX
FCCI37 ZLIC 160406
TAF ZLIC 160406Z 160615 23004G09MPS 8000 NSC TXM01/08Z TNM10/15Z=




XYE1316 160407 
GG TESTYZYX
160407 ZLXYYMYX
FCCI67 ZLYL 160406
TAF ZLYL 160406Z 160618 32007MPS CAVOK TXM04/07Z TNM12/15Z
BECMG 1011 32004MPS=




XYE1317 160407 
GG TESTYZYX
160407 ZLXYYMYX
FCCI35 ZJHK 160406
TAF ZJHK 160406Z 160615 02005G11MPS 5000 BR
SCT030 TX18/06Z TN13/15Z=




XYE1318 160407 
GG TESTYZYX
160407 ZLXYYMYX
SACI74 ZSLY 160400
METAR ZSLY 160400Z 31007MPS 280V340 CAVOK 01/M19 Q1033 NOSIG=




XYE1319 160407 
GG TESTYZYX
160407 ZLXYYMYX
FCCI35 ZGSD 160406
TAF ZGSD 160406Z 160615 01009G15MPS 8000 NSC TX18/06Z TN12/15Z=




XYE1320 160407 
GG TESTYZYX
160407 ZLXYYMYX
FCCI63 ZBDS 160403
TAF ZBDS 160403Z 160615 30010G15MPS CAVOK TXM06/07Z TNM14/15Z
BECMG
1011 30005MPS=




XYE1321 160407 
GG TESTYZYX
160407 ZLXYYMYX
FCCI35 ZJSY 160405
TAF ZJSY 160405Z 160615 09004MPS 9999 SCT050 TX27/06Z TN22/15Z=




XYE1322 160407 
GG TESTYZYX
160407 ZLXYYMYX
SACI74 ZSJD 160400
METAR ZSJD 160400Z 32002MPS CAVOK 08/M13 Q1036 NOSIG=




XYE1323 160407 
GG TESTYZYX
160407 ZLXYYMYX
FCCI67 ZLDH 160404
TAF ZLDH 160404Z 160615 06003MPS CAVOK TXM06/08Z TNM15/15Z BECMG
1112 20004MPS=




XYE1324 160407 
GG TESTYZYX
160407 ZLXYYMYX
SACI44 ZSWH 160400
METAR ZSWH 160400Z 32009MPS 7000 -SHSN FEW010 SCT020 M03/M06 Q1025
NOSIG=




XYE1325 160407 
GG TESTYZYX
160407 ZLXYYMYX
FCCI86 ZULB 160401
TAF ZULB 160401Z 160615 33004MPS 5000 BR SCT015 BKN040
TX09/07Z TN07/15Z=




XYE1326 160407 
GG TESTYZYX
160407 ZLXYYMYX
FCCI64 ZSYN 160403
TAF ZSYN 160403Z 160615 34007G12MPS 6000 NSC TX02/06Z TNM03/15Z=




XYE1327 160407 
GG TESTYZYX
160407 ZLXYYMYX
FCCI68 ZYQQ 160406
TAF ZYQQ 160406Z 160615 36004MPS 8000 NSC TXM15/07Z TNM22/15Z=




XYE1328 160407 
GG TESTYZYX
160407 ZLXYYMYX
FCCI33 ZBAA 160400
TAF ZBAA 160430Z 160615 31009G17MPS CAVOK TX00/06Z TNM06/15Z BECMG
0910 32004MPS=




XYE1329 160407 
GG TESTYZYX
160407 ZLXYYMYX
FCCI86 ZUZY 160402
TAF ZUZY 160402Z 160615 18003MPS 6000 SCT015 OVC030 TX06/08Z
TN04/15Z
TEMPO
0610 -RA=




XYE1330 160408 
GG TESTYZYX
160407 ZLXYYMYX
SACI74 ZSQZ 160400
METAR ZSQZ 160400Z 33005MPS 310V010 CAVOK 17/03 Q1026 NOSIG=




XYE1331 160408 
GG TESTYZYX
160407 ZLXYYMYX
FCCI86 ZUQJ 160401
TAF ZUQJ 160401Z 160615 20002MPS 6000 SCT030 BKN040 TX08/07Z
TN04/15Z BECMG
1415 2500 BR=




XYE1332 160408 
GG TESTYZYX
160407 ZLXYYMYX
FCCI76 ZPJH 160403
TAF ZPJH 160403Z 160615 VRB01MPS 9999 FEW023 TX25/08Z TN15/15Z=




XYE1333 160408 
GG TESTYZYX
160408 ZLXYYMYX
FCCI66 ZUGU 160402
TAF ZUGU 160402Z 160615 06002MPS CAVOK TX09/07Z TN05/15Z=




XYE1334 160408 
GG TESTYZYX
160408 ZLXYYMYX
FCCI45 ZHCC 160405
TAF ZHCC 160405Z 160615 30009G15MPS CAVOK TX06/07Z TN00/15Z
BECMG 1112 27004MPS=




XYE1335 160408 
GG TESTYZYX
160408 ZLXYYMYX
FCCI63 ZBES 160405
TAF ZBES 160405Z 160615 27004MPS 9999 FEW030 TXM19/06Z TNM27/15Z=




XYE1336 160408 
GG TESTYZYX
160408 ZLXYYMYX
FCCI74 ZSLO 160403
TAF ZSLO 160403Z 160615 01005MPS 6000 FEW036 TX15/07Z
TN06/15Z=




XYE1337 160408 
GG TESTYZYX
160408 ZLXYYMYX
FCCI66 ZUDX 160407
TAF ZUDX 160407Z 160615 03002MPS 9999 SCT033 TX13/07Z TN06/15Z=




XYE1338 160408 
FF TESTYZYX
160408 ZLXYYMYX
FCCI67 ZLYL 160408 AAA
TAF AMD ZLYL 160408Z 160615 32007MPS CAVOK TXM04/07Z TNM11/15Z
BECMG 1011 32004MPS=




XYE1339 160408 
GG TESTYZYX
160408 ZLXYYMYX
FCCI86 ZUNP 160407
TAF ZUNP 160407Z 160615 03005G10MPS 9999 SCT043 TX12/07Z
TN07/15Z=




XYE1340 160409 
GG TESTYZYX
160409 ZLXYYMYX
FCCI73 ZBYC 160406
TAF ZBYC 160406Z 160615 30004MPS 8000 NSC TX04/07Z TNM04/15Z=




XYE1341 160409 
GG TESTYZYX
160409 ZLXYYMYX
FCCI86 ZUAS 160406
TAF ZUAS 160406Z 160615 05005MPS 4000 -RASN BR FEW003 SCT008
OVC023
TX01/07Z TNM01/15Z BECMG 1213 -FZRA=




XYE1342 160409 
GG TESTYZYX
160409 ZLXYYMYX
FCCI65 ZGWZ 160407
TAF ZGWZ 160407Z 160615 02004MPS 9999 SCT040 TX17/07Z TN11/15Z=




XYE1343 160409 
GG TESTYZYX
160409 ZLXYYMYX
FCCI73 ZBSH 160407
TAF ZBSH 160407Z 160615 31007G12MPS CAVOK TXM01/06Z TNM05/15Z=




XYE1344 160410 
GG TESTYZYX
160409 ZLXYYMYX
FCCI64 ZSNT 160409
TAF ZSNT 160409Z 160615 31006MPS 6000 FEW033 TX06/06Z TN00/15Z=




XYE1345 160410 
GG TESTYZYX
160409 ZLXYYMYX
FCCI44 ZSYT 160410
TAF ZSYT 160410Z 160615 31008G15MPS 6000 SCT023 TXM02/06Z TNM05/15Z=




XYE1346 160410 
GG TESTYZYX
160410 ZLXYYMYX
FCCI68 ZYCY 160410
TAF ZYCY 160410Z 160615 34006G12MPS CAVOK TXM04/06Z TNM12/15Z=




XYE1347 160410 
GG TESTYZYX
160410 ZLXYYMYX
FCCI66 ZUZH 160409
TAF ZUZH 160409Z 160615 08004MPS 9999 FEW026 BKN050 TX07/08Z
TN04/15Z=




XYE1348 160410 
FF TESTYZYX
160410 ZLXYYMYX
FCCI38 ZYCC 160412 AAA
TAF AMD ZYCC 160412Z 160312 32003MPS 2000 -SN BR SCT010 OVC020
TXM15/06Z TNM18/12Z
TEMPO 0408 1000 -SN BR=




XYE1349 160410 
GG TESTYZYX
160410 ZLXYYMYX
FCCI63 ZBUH 160410
TAF ZBUH 160410Z 160615 29006G11MPS CAVOK TXM04/07Z TNM11/15Z=




XYE1350 160410 
GG TESTYZYX
160410 ZLXYYMYX
FCCI75 ZHNY 160410
TAF ZHNY 160410Z 160615 30004MPS CAVOK TX10/06Z TN02/15Z=




XYE1351 160410 
GG TESTYZYX
160410 ZLXYYMYX
FCCI67 ZLZW 160408
TAF ZLZW 160408Z 160615 32007MPS 8000 NSC TXM01/07Z TNM13/15Z=




XYE1352 160410 
GG TESTYZYX
160410 ZLXYYMYX
FCCI68 ZYMH 160410
TAF ZYMH 160410Z 160615 28004MPS 9999 FEW033 TXM24/07Z TNM27/15Z=




XYE1353 160411 
GG TESTYZYX
160410 ZLXYYMYX
FCCI35 ZGKL 160410
TAF ZGKL 160410Z 160615 05006MPS CAVOK TX15/07Z TN10/15Z=




XYE1354 160412 
GG TESTYZYX
160412 ZLXYYMYX
FCCI68 ZYJX 160411
TAF ZYJX 160411Z 160615 35007G14MPS 6000 FEW033 TXM16/06Z
TNM22/15Z=




XYE1355 160412 
GG TESTYZYX
160412 ZLXYYMYX
FCCI38 ZYCC 160414
TAF ZYCC 160414Z 160615 32003MPS 2000 -SN BR FEW010 BKN020 TXM15/06Z
TNM19/15Z
TEMPO 0610 1000 -SN=




XYE1356 160413 
GG TESTYZYX
160413 ZLXYYMYX
FCCI63 ZBOW 160415
TAF ZBOW 160415Z 160615 30004G10MPS CAVOK TXM07/07Z TNM12/15Z=




XYE1357 160413 
GG TESTYZYX
160413 ZLXYYMYX
FCCI68 ZYAS 160411
TAF ZYAS 160411Z 160615 30004MPS 6000 NSC TXM07/06Z TNM16/15Z=




XYE1358 160413 
GG TESTYZYX
160413 ZLXYYMYX
SACI86 ZUTR 160400
METAR ZUTR 160400Z 04004MPS 350V070 9999 BKN040 06/M11 Q1037 NOSIG=




XYE1359 160413 
GG TESTYZYX
160413 ZLXYYMYX
FCCI65 ZGCJ 160412
TAF ZGCJ 160412Z 160615 05004MPS 9999 SCT040 TX12/06Z TN03/15Z=




XYE1360 160413 
GG TESTYZYX
160413 ZLXYYMYX
FCCI73 ZBZJ 160412
TAF ZBZJ 160412Z 160615 30008MPS CAVOK TXM01/06Z TNM12/15Z=




XYE1361 160413 
GG TESTYZYX
160413 ZLXYYMYX
FCCI63 ZBMZ 160412
TAF ZBMZ 160412Z 160615 30007MPS CAVOK TXM17/06Z TNM27/15Z=




XYE1362 160413 
GG TESTYZYX
160413 ZLXYYMYX
FCCI63 ZBTL 160412
TAF ZBTL 160412Z 160615 34005MPS CAVOK TXM12/06Z TNM21/15Z=




XYE1363 160413 
GG TESTYZYX
160413 ZLXYYMYX
FCCI36 ZULS 160413
TAF ZULS 160413Z 160615 09004MPS 9999 FEW040 TX14/09Z TN03/15Z
BECMG 0708 27005MPS=




XYE1364 160414 
GG TESTYZYX
160414 ZLXYYMYX
FCCI69 ZWYN 160412
TAF ZWYN 160412Z 160615 VRB02MPS CAVOK TX00/09Z TNM10/15Z=




XYE1365 160414 
GG TESTYZYX
160414 ZLXYYMYX
FCCI68 ZYBS 160412
TAF ZYBS 160412Z 160615 33004G09MPS 2000 -SHSN BR BKN020 TXM14/06Z
TNM20/15Z=




XYE1366 160414 
GG TESTYZYX
160414 ZLXYYMYX
FCCI36 ZUUU 160412
TAF ZUUU 160412Z 160615 20003MPS 5000 BR SCT050 TX13/07Z TN08/15Z=




XYE1367 160414 
GG TESTYZYX
160414 ZLXYYMYX
FCCI74 ZSLY 160412
TAF ZSLY 160412Z 160615 32007G13MPS CAVOK
TX03/06Z TNM04/15Z=




XYE1368 160414 
GG TESTYZYX
160414 ZLXYYMYX
FCCI34 ZSNJ 160413
TAF ZSNJ 160413Z 160615 33005MPS 5000 HZ NSC TX06/07Z TN00/15Z=




XYE1369 160415 
GG TESTYZYX
160415 ZLXYYMYX
FCCI67 ZLYA 160414
TAF ZLYA 160414Z 160615 23003MPS CAVOK TXM02/06Z TNM07/15Z=




XYE1370 160415 
GG TESTYZYX
160415 ZLXYYMYX
FCCI38 ZYTX 160415
TAF ZYTX 160415Z 160615 33004MPS CAVOK TXM09/06Z TNM17/15Z=




XYE1371 160415 
GG TESTYZYX
160415 ZLXYYMYX
FCCI74 ZSWY 160413
TAF ZSWY 160413Z 160615 01005MPS CAVOK
TX13/06Z TN05/15Z=




XYE1372 160415 
GG TESTYZYX
160415 ZLXYYMYX
FCCI35 ZGSZ 160412
TAF ZGSZ 160412Z 160615 02010G15MPS 8000 NSC TX18/06Z TN12/15Z=




XYE1373 160416 
GG TESTYZYX
160416 ZLXYYMYX
FCCI74 ZSGZ 160416
TAF ZSGZ 160416Z 160615 03005MPS 6000 NSC TX13/06Z TN06/15Z=




XYE1374 160416 
GG TESTYZYX
160416 ZLXYYMYX
FCCI74 ZSYA 160414
TAF ZSYA 160414Z 160615 31006MPS CAVOK TX05/06Z TNM02/15Z=




XYE1375 160416 
GG TESTYZYX
160416 ZLXYYMYX
FCCI66 ZUGH 160413
TAF ZUGH 160413Z 160615 18003MPS 9999 NSC TX13/07Z TN06/00Z=




XYE1376 160416 
GG TESTYZYX
160416 ZLXYYMYX
FCCI34 ZSHC 160415
TAF ZSHC 160415Z 160615 30005G14MPS 3100 HZ NSC TX08/06Z TN00/15Z=




XYE1377 160416 
FF TESTYZYX
160416 ZLXYYMYX
FCCI86 ZULB 160415 AAA
TAF AMD ZULB 160415Z 160615 CNL=




XYE1378 160416 
GG TESTYZYX
160416 ZLXYYMYX
FCCI44 ZSXZ 160416
TAF ZSXZ 160416Z 160615 31006MPS CAVOK TX03/06Z TNM04/15Z=




XYE1379 160416 
GG TESTYZYX
160416 ZLXYYMYX
FCCI76 ZPMS 160417
TAF ZPMS 160417Z 160615 26003MPS 9999 FEW040 TX24/08Z TN12/15Z=




XYE1380 160417 
GG TESTYZYX
160416 ZLXYYMYX
FCCI65 ZGCD 160414
TAF ZGCD 160414Z 160615 01004MPS 6000 NSC
TX11/07Z TN04/15Z=




XYE1381 160417 
GG TESTYZYX
160417 ZLXYYMYX
FCCI38 ZYTL 160416
TAF ZYTL 160416Z 160615 33008G15MPS 8000 BKN020 TXM04/06Z TNM06/15Z
TEMPO 0610 32011G17MPS 3000 -SN BECMG 1314 31005G12MPS=




XYE1382 160417 
GG TESTYZYX
160417 ZLXYYMYX
FCCI69 ZWKL 160415
TAF ZWKL 160415Z 160615 24004MPS 5000 BR NSC TXM09/09Z TNM14/15Z=




XYE1383 160417 
GG TESTYZYX
160417 ZLXYYMYX
FCCI75 ZGHY 160416
TAF ZGHY 160416Z 160615 02008MPS CAVOK TX13/07Z TN08/15Z=




XYE1384 160417 
GG TESTYZYX
160417 ZLXYYMYX
FCCI74 ZSYC 160417
TAF ZSYC 160417Z 160615 06004MPS 6000 NSC TX12/07Z TN07/15Z=




XYE1385 160418 
GG TESTYZYX
160418 ZLXYYMYX
FCCI69 ZWAT 160417
TAF ZWAT 160417Z 160615 06004MPS CAVOK TXM09/08Z TNM17/15Z=




XYE1386 160418 
GG TESTYZYX
160418 ZLXYYMYX
FCCI76 ZPZT 160417
TAF ZPZT 160417Z 160615 27002MPS 7000 -SN FEW010 OVC016 TX00/07Z
TNM03/15Z=




XYE1387 160418 
GG TESTYZYX
160418 ZLXYYMYX
FCCI44 ZSJN 160416
TAF ZSJN 160416Z 160615 30007MPS CAVOK TX02/06Z TNM08/15Z
BECMG 0809 26002MPS=




XYE1388 160419 
GG TESTYZYX
160418 ZLXYYMYX
FCCI35 ZGOW 160416
TAF ZGOW 160416Z 160615 36008G14MPS CAVOK TX17/06Z TN11/15Z=




XYE1389 160419 
FF TESTYZYX
160419 ZLXYYMYX
WSCI33 ZBAA 160400
ZBPE SIGMET A01 VALID 160430/160830 ZBAA-
ZBPE BEIJING FIR SEV TURB FCST N OF N38
E OF E116 FL080/250 STNR NC=




XYE1390 160419 
GG TESTYZYX
160419 ZLXYYMYX
FCCI33 ZBYN 160418
TAF ZBYN 160418Z 160615 29007G14MPS 8000 NSC TXM02/07Z TNM10/15Z=




XYE1391 160419 
GG TESTYZYX
160419 ZLXYYMYX
FCCI68 ZYYJ 160414
TAF ZYYJ 160414Z 160615 27008G15MPS 6000 FEW040 TXM08/06Z TNM17/15Z=




XYE1392 160419 
GG TESTYZYX
160419 ZLXYYMYX
FCCI76 ZPSM 160418
TAF ZPSM 160418Z 160615 21003MPS 9999 SCT026 TX23/08Z TN14/15Z=




XYE1393 160419 
GG TESTYZYX
160419 ZLXYYMYX
FCCI34 ZSFZ 160418
TAF ZSFZ 160418Z 160615 05006MPS CAVOK TX17/06Z TN13/15Z=




XYE1394 160420 
GG TESTYZYX
160419 ZLXYYMYX
FCCI68 ZYDD 160417
TAF ZYDD 160417Z 160615 36006G11MPS CAVOK TXM06/06Z TNM15/15Z=




XYE1395 160420 
GG TESTYZYX
160420 ZLXYYMYX
FCCI38 ZYHB 160419
TAF ZYHB 160419Z 160615 30004MPS 3000 BR NSC TXM19/06Z TNM24/15Z=




XYE1396 160421 
GG TESTYZYX
160421 ZLXYYMYX
FCCI45 ZHYC 160420
TAF ZHYC 160420Z 160615 15002MPS CAVOK TX13/07Z TN08/15Z=




XYE1397 160421 
GG TESTYZYX
160421 ZLXYYMYX
FCCI68 ZYMD 160418
TAF ZYMD 160418Z 160615 28004MPS 9999 SCT030 TXM12/06Z TNM19/15Z
TEMPO 0812 2500 FU=




XYE1398 160421 
GG TESTYZYX
160421 ZLXYYMYX
FCCI68 ZYLD 160420
TAF ZYLD 160420Z 160615 28005MPS 6000 FEW010 SCT033 TXM21/06Z
TNM30/15Z=




XYE1399 160421 
GG TESTYZYX
160421 ZLXYYMYX
FCCI64 ZSFY 160420
TAF ZSFY 160420Z 160615 35005MPS CAVOK TX09/06Z TN00/15Z=




XYE1400 160421 
GG TESTYZYX
160421 ZLXYYMYX
FCCI76 ZPTC 160420
TAF ZPTC 160420Z 160615 24004MPS 9999 SCT040 TX16/08Z TN08/15Z=




XYE1401 160422 
GG TESTYZYX
160422 ZLXYYMYX
FCCI78 ZYFY 160420
TAF ZYFY 160420Z 160615 06004MPS 9999 SCT040 TXM22/06Z TNM30/15Z=




XYE1402 160422 
GG TESTYZYX
160422 ZLXYYMYX
FCCI36 ZUGY 160420
TAF ZUGY 160420Z 160615 01004MPS 6000 BKN015 OVC033 TX05/06Z
TN02/15Z=




XYE1403 160423 
GG TESTYZYX
160423 ZLXYYMYX
FCCI68 ZYHE 160420
TAF ZYHE 160420Z 160615 01005MPS 9999 FEW033 TXM21/06Z TNM27/15Z=




XYE1404 160423 
GG TESTYZYX
160423 ZLXYYMYX
FCCI33 ZBTJ 160421
TAF ZBTJ 160421Z 160615 31009G15MPS 5000 HZ NSC TX01/06Z TNM04/15Z
BECMG 0809
31004MPS=




XYE1405 160423 
GG TESTYZYX
160423 ZLXYYMYX
FCCI86 ZUTR 160422
TAF ZUTR 160422Z 160615 06004MPS 6000 SCT020 BKN040 TX08/07Z
TN04/15Z=




XYE1406 160423 
GG TESTYZYX
160423 ZLXYYMYX
FCCI73 ZBDT 160421
TAF ZBDT 160421Z 160615 30007MPS 9999 SCT040 TXM09/07Z TNM14/15Z
TEMPO
0711 29007G14MPS=




XYE1407 160423 
GG TESTYZYX
160423 ZLXYYMYX
FCCI33 ZBHH 160422
TAF ZBHH 160422Z 160615 33008MPS CAVOK TXM07/06Z TNM13/12Z=




XYE1408 160424 
GG TESTYZYX
160424 ZLXYYMYX
FCCI34 ZSNB 160421
TAF ZSNB 160421Z 160615 32010G16MPS 5000 HZ NSC TX07/06Z TN01/15Z=




XYE1409 160424 
GG TESTYZYX
160424 ZLXYYMYX
FCCI66 ZUJZ 160423
TAF ZUJZ 160423Z 160615 21004MPS 8000 -SHSN FEW020 BKN040 TXM03/07Z
TNM10/15Z=




XYE1410 160424 
GG TESTYZYX
160424 ZLXYYMYX
FCCI75 ZHES 160423
TAF ZHES 160423Z 160615 00000MPS CAVOK TX12/07Z TN05/15Z=




XYE1411 160424 
FF TESTYZYX
160424 ZLXYYMYX
FCCI73 ZBAR 160423 AAA
TAF AMD ZBAR 160423Z 160312 CNL=




XYE1412 160425 
GG TESTYZYX
160425 ZLXYYMYX
FCCI34 ZSSS 160423
TAF ZSSS 160423Z 160615 31008G13MPS 6000 NSC
TX07/06Z TN02/15Z =




XYE1413 160425 
GG TESTYZYX
160425 ZLXYYMYX
FCCI66 ZUMY 160424
TAF ZUMY 160424Z 160615 22003MPS CAVOK TX09/07Z TN17/15Z=




XYE1414 160425 
GG TESTYZYX
160425 ZLXYYMYX
FCCI44 ZSLG 160423
TAF ZSLG 160423Z 160615 31005MPS CAVOK TX03/06Z TNM03/15Z=




XYE1415 160426 
FF TESTYZYX
160425 ZLXYYMYX
FCCI73 ZBEN 160424 AAA
TAF AMD ZBEN 160424Z 160312 CNL=




XYE1416 160426 
GG TESTYZYX
160425 ZLXYYMYX
FCCI73 ZBCZ 160425
TAF ZBCZ 160420Z 160615 32005G10MPS CAVOK TXM01/07Z TNM15/15Z=




XYE1417 160426 
GG TESTYZYX
160425 ZLXYYMYX
FCCI86 ZUPS 160425
TAF ZUPS 160425Z 160615 04004MPS 8000 SCT011 BKN020 OVC033 TXM01/08Z
T
NM02/15Z=




XYE1418 160426 
GG TESTYZYX
160425 ZLXYYMYX
FCCI65 ZGLG 160424
TAF ZGLG 160424Z 160615 01005MPS 6000 NSC TX13/07Z TN03/15Z=




XYE1419 160426 
GG TESTYZYX
160426 ZLXYYMYX
FCCI44 ZSQD 160425
TAF ZSQD 160425Z 160615 32009G15MPS CAVOK TX01/06Z TNM05/15Z
BECMG 1011 32004MPS=




XYE1420 160426 
GG TESTYZYX
160426 ZLXYYMYX
FCCI45 ZHLY 160426
TAF ZHLY 160426Z 160615 28010G16MPS CAVOK TX07/07Z TNM01/15Z
BECMG 1011 27005MPS=




XYE1421 160426 
GG TESTYZYX
160426 ZLXYYMYX
FCCI39 ZWWW 160424
TAF ZWWW 160424Z 160615 36003MPS 1600 BR NSC
TXM11/08Z TNM16/15Z
BECMG 1213 18003MPS 1100 BR=




XYE1422 160426 
GG TESTYZYX
160426 ZLXYYMYX
FCCI39 ZWSH 160423
TAF ZWSH 160423Z 160615 33004MPS 6000 NSC TXM07/09Z TNM11/15Z
BECMG 0809 09004MPS=




XYE1423 160427 
GG TESTYZYX
160427 ZLXYYMYX
FCCI63 ZBXH 160426
TAF ZBXH 160426Z 160615 29008G13MPS CAVOK TXM13/07Z TNM19/18Z=




XYE1424 160427 
GG TESTYZYX
160427 ZLXYYMYX
FCCI35 ZGZH 160427
TAF ZGZH 160427Z 160615 35005MPS CAVOK TX16/07Z TN09/15Z=




XYE1425 160427 
GG TESTYZYX
160427 ZLXYYMYX
FCCI34 ZSPD 160426
TAF ZSPD 160426Z 160615 32009G14MPS 6000 NSC
TX07/06Z TN02/15Z =




XYE1426 160427 
GG TESTYZYX
160427 ZLXYYMYX
FCCI65 ZGBH 160427
TAF ZGBH 160427Z 160615 36007MPS 9999 BKN040 TX17/07Z TN13/15Z=




XYE1427 160428 
GG TESTYZYX
160427 ZLXYYMYX
FCCI86 ZUKJ 160426
TAF ZUKJ 160426Z 160615 06003MPS 9999 FEW050 TX07/07Z TN04/15Z=




XYE1428 160428 
GG TESTYZYX
160428 ZLXYYMYX
FCCI73 ZBHD 160426
TAF ZBHD 160426Z 160615 30006MPS CAVOK TX07/07Z TNM02/15Z =




XYE1429 160429 
GG TESTYZYX
160429 ZLXYYMYX
FCCI66 ZUNC 160427
TAF ZUNC 160427Z 160615 03002MPS CAVOK TX11/08Z TN08/15Z =




XYE1430 160429 
GG TESTYZYX
160429 ZLXYYMYX
FCCI73 ZBAL 160427
TAF ZBAL 160427Z 160615 32004MPS CAVOK TXM04/07Z TNM12/15Z=




XYE1431 160429 
GG TESTYZYX
160429 ZLXYYMYX
FCCI34 ZSAM 160429
TAF ZSAM 160429Z 160615 04005G10MPS 7000 NSC TX19/06Z TN15/15Z=




XYE1432 160429 
GG TESTYZYX
160429 ZLXYYMYX
FCCI65 ZGMX 160428
TAF ZGMX 160428Z 160615 35005MPS CAVOK TX19/08Z TN11/15Z=




XYE1433 160430 
GG TESTYZYX
160430 ZLXYYMYX
FCCI66 ZUYB 160430
TAF ZUYB 160430Z 160615 29002MPS CAVOK TX10/08Z TN07/15Z=




XYE1434 160430 
GG TESTYZYX
160430 ZLXYYMYX
FCCI64 ZSZS 160429
TAF ZSZS 160429Z 160615 33011G20MPS CAVOK TX07/06Z TN02/15Z=




XYE1435 160430 
GG TESTYZYX
160430 ZLXYYMYX
FCCI67 ZLHZ 160426
TAF ZLHZ 160426Z 160615 26005MPS 8000 NSC TX08/07Z TN01/15Z=




XYE1436 160430 
GG TESTYZYX
160430 ZLXYYMYX
FCCI68 ZYDQ 160428
TAF ZYDQ 160428Z 160615 32006MPS 6000 SCT030 TXM18/07Z
TNM25/15Z=




XYE1437 160430 
GG TESTYZYX
160430 ZLXYYMYX
SACI35 ZGSZ 160430
METAR ZGSZ 160430Z 01011G16MPS 340V040 CAVOK 18/02 Q1025 NOSIG=




XYE1438 160430 
GG TESTYZYX
160430 ZLXYYMYX
SACI36 ZUUU 160430
METAR ZUUU 160430Z VRB01MPS CAVOK 10/M08 Q1039 NOSIG=




XYE1439 160430 
GG TESTYZYX
160430 ZLXYYMYX
SACI34 ZSHC 160430
METAR ZSHC 160430Z 31007MPS 290V350 CAVOK 07/M17 Q1033 NOSIG=




XYE1440 160430 
GG TESTYZYX
160430 ZLXYYMYX
FCCI69 ZWBL 160430
TAF ZWBL 160430Z 160615 VRB02MPS 3100 BR FEW040 TXM10/08Z TNM20/15Z
=




XYE1441 160430 
GG TESTYZYX
160430 ZLXYYMYX
SACI33 ZBTJ 160430
METAR ZBTJ 160430Z 32009MPS CAVOK 00/M22 Q1030 NOSIG=




XYE1442 160430 
GG TESTYZYX
160430 ZLXYYMYX
SACI38 ZYTX 160430
METAR ZYTX 160430Z 29005MPS CAVOK M10/M19 Q1024 NOSIG=




XYE1443 160430 
GG TESTYZYX
160430 ZLXYYMYX
SACI33 ZBAA 160430
METAR ZBAA 160430Z 29011MPS CAVOK M01/M19 Q1031 NOSIG=




XYE1444 160430 
GG TESTYZYX
160430 ZLXYYMYX
SACI35 ZGGG 160430
METAR ZGGG 160430Z 03010MPS CAVOK 17/01 Q1028 NOSIG=




XYE1445 160430 
GG TESTYZYX
160430 ZLXYYMYX
FCCI64 ZSJH 160428
TAF ZSJH 160428Z 160312 32004MPS CAVOK TX07/07Z TNM01/15Z=




XYE1446 160430 
GG TESTYZYX
160430 ZLXYYMYX
SACI34 ZSSS 160430
METAR ZSSS 160430Z 31010MPS CAVOK 06/M13 Q1031 NOSIG=




XYE1447 160430 
GG TESTYZYX
160430 ZLXYYMYX
FCCI68 ZYJM 160429
TAF ZYJM 160429Z 160615 30004MPS 5000 FU SCT030 TXM18/06Z TNM24/15Z
TEMPO 0812 2000=




XYE1448 160430 
GG TESTYZYX
160430 ZLXYYMYX
SACI33 ZBYN 160430
METAR ZBYN 160430Z 29007G12MPS CAVOK M03/M24 Q1032 NOSIG=




XYE1449 160431 
GG TESTYZYX
160431 ZLXYYMYX
SACI34 ZSPD 160430
METAR ZSPD 160430Z 30010G15MPS CAVOK 06/M12 Q1031 NOSIG=




XYE1450 160431 
GG TESTYZYX
160431 ZLXYYMYX
FCCI75 ZHXF 160428
TAF ZHXF 160428Z 160615 33006MPS CAVOK TX09/07Z TN04/15Z=




XYE1451 160431 
GG TESTYZYX
160431 ZLXYYMYX
SACI39 ZWWW 160430
METAR ZWWW 160430Z 33002MPS 1800 R25/1100V1500U BR NSC M17/M19 Q1040
NOSIG=




XYE1452 160431 
GG TESTYZYX
160431 ZLXYYMYX
FCCI64 ZSSH 160430
TAF ZSSH 160430Z 160615 33005MPS 6000 NSC TX03/06Z TNM01/15Z=




XYE1453 160431 
GG TESTYZYX
160431 ZLXYYMYX
FCCI86 ZUYI 160430
TAF ZUYI 160430Z 160615 36003MPS 5000 BR SCT012 BKN040 TX07/07Z
TN04/1
5Z=




XYE1454 160432 
GG TESTYZYX
160432 ZLXYYMYX
SACI38 ZYTL 160430
METAR ZYTL 160430Z 33008G14MPS 290V360 9999 -SN BKN026 M04/M15 Q1026
NOSIG=




XYE1455 160432 
GG TESTYZYX
160432 ZLXYYMYX
FCCI67 ZLJQ 160430
TAF ZLJQ 160430Z 160615 11004MPS CAVOK TXM03/07Z TNM12/15Z=




XYE1456 160432 
GG TESTYZYX
160432 ZLXYYMYX
SACI66 ZUJZ 160430
METAR ZUJZ 160430Z 22003MPS 170V270 CAVOK M06/M17 Q1029 NOSIG=




XYE1457 160432 
GG TESTYZYX
160432 ZLXYYMYX
FCCI44 ZSCG 160430
TAF ZSCG 160430Z 160615 33007MPS 6000 NSC TX06/07Z TN00/15Z=




XYE1458 160432 
GG TESTYZYX
160432 ZLXYYMYX
FCCI39 ZWTL 160431
TAF ZWTL 160431Z 160615 15002MPS CAVOK TXM04/08Z TNM09/15Z=




XYE1459 160432 
FF TESTYZYX
160432 ZLXYYMYX
FCCI86 ZURK 160432 AAA
TAF AMD ZURK 160432Z 160312 CNL=




XYE1460 160433 
GG TESTYZYX
160433 ZLXYYMYX
FCCI73 ZBYZ 160431
TAF ZBYZ 160431Z 160615 29006MPS CAVOK TXM05/07Z TNM12/15Z=




XYE1461 160433 
GG TESTYZYX
160433 ZLXYYMYX
FCCI64 ZSYW 160432
TAF ZSYW 160432Z 160615 01004MPS CAVOK TX10/06Z TN07/15Z=




XYE1462 160433 
FF TESTYZYX
160433 ZLXYYMYX
FCCI89 ZWNL 160432 AAA
TAF AMD ZWNL 160432Z 160312 CNL=




XYE1463 160433 
GG TESTYZYX
160433 ZLXYYMYX
FCCI37 ZLXY 160432
TAF ZLXY 160432Z 160615 24003MPS 6000 NSC TX05/07Z TNM03/15Z=




XYE1464 160434 
FF TESTYZYX
160434 ZLXYYMYX
FCCI44 ZSCG 160430 CCA
TAF COR ZSCG 160430Z 160615 33007G14MPS 6000 NSC TX06/07Z TN00/15Z=




XYE1465 160434 
GG TESTYZYX
160434 ZLXYYMYX
FCCI74 ZSQZ 160430
TAF ZSQZ 160430Z 160615 04006MPS 8000 SCT030 TX18/06Z TN11/15Z=




XYE1466 160434 
GG TESTYZYX
160434 ZLXYYMYX
FCCI67 ZLQY 160430
TAF ZLQY 160430Z 160615 30003MPS CAVOK TXM01/07Z TNM04/15Z=




XYE1467 160435 
GG TESTYZYX
160435 ZLXYYMYX
FCCI67 ZLGY 160434
TAF ZLGY 160434Z 160615 34006MPS 8000 NSC TXM03/07Z TNM11/15Z=




XYE1468 160435 
GG TESTYZYX
160435 ZLXYYMYX
FCCI66 ZUMY 160433
TAF AMD ZUMY 160433Z 160615 22003MPS CAVOK TX09/07Z TN06/15Z =




XYE1469 160435 
GG TESTYZYX
160435 ZLXYYMYX
FCCI75 ZHSN 160435
TAF ZHSN 160435Z 160615 28010MPS 6000 NSC TXM08/07Z TNM13/15Z=




XYE1470 160436 
GG TESTYZYX
160436 ZLXYYMYX
FCCI39 ZWKM 160435
TAF ZWKM 160435Z 160615 04004MPS 6000 FEW030 TXM15/09Z TNM18/15Z=




XYE1471 160436 
GG TESTYZYX
160436 ZLXYYMYX
FCCI86 ZUWX 160431
TAF ZUWX 160431Z 160615 20003MPS 6000 FEW050 TX11/07Z TN06/15Z=
=




XYE1472 160437 
GG TESTYZYX
160436 ZLXYYMYX
FCCI36 ZUXC 160433
TAF ZUXC 160433Z 160615 36004MPS 9999 OVC050 TX07/07Z TN05/15Z=




XYE1473 160438 
GG TESTYZYX
160438 ZLXYYMYX
FCCI44 ZSWH 160436
TAF ZSWH 160436Z 160615 33007G13MPS 6000 -SN
FEW006 SCT020 TXM03/06Z TNM05/15Z TEMPO
0610 1500 -SN SCT006 BKN020=




XYE1474 160439 
GG TESTYZYX
160439 ZLXYYMYX
FCCI63 ZBER 160436
TAF ZBER 160436Z 160615 31009G14MPS CAVOK TXM10/07Z TNM16/15Z
BECMG 1213 31006MPS=




XYE1475 160439 
GG TESTYZYX
160439 ZLXYYMYX
FCCI89 ZWKC 160437
TAF ZWKC 160437Z 160615 24004MPS 4000 FU NSC TXM06/09Z TNM12/15Z=




XYE1476 160439 
GG TESTYZYX
160439 ZLXYYMYX
FCCI76 ZPDQ 160437
TAF ZPDQ 160437Z 160615 23007MPS 9999 FEW026
TX10/07Z TNM06/15Z BECMG 1213 18004MPS=




XYE1477 160440 
GG TESTYZYX
160440 ZLXYYMYX
FCCI33 ZBSJ 160438
TAF ZBSJ 160438Z 160615 03004MPS CAVOK TX04/06Z TNM05/15Z=




XYE1478 160440 
GG TESTYZYX
160440 ZLXYYMYX
FCCI67 ZLYS 160435
TAF ZLYS 160435Z 160615 28003MPS 8000 -SN SCT033 OCV060
TXM03/06Z TNM10/15Z TEMPO 0610 4000=




XYE1479 160441 
GG TESTYZYX
160441 ZLXYYMYX
FCCI64 ZSWX 160440
TAF ZSWX 160440Z 160615 31006MPS 6000 NSC TX06/06Z TN00/15Z=




XYE1480 160442 
GG TESTYZYX
160442 ZLXYYMYX
FCCI34 ZSLQ 160440
TAF ZSLQ 160440Z 160615 33007MPS 6000 SCT025 TX12/06Z TN05/15Z
BECMG 0910 33005MPS
TEMPO 0609 33008G14MPS=




XYE1481 160442 
GG TESTYZYX
160442 ZLXYYMYX
FCCI73 ZBSN 160443
TAF ZBSN 160443Z 160615 30006MPS CAVOK TXM01/06Z TNM07/15Z=




XYE1482 160442 
GG TESTYZYX
160442 ZLXYYMYX
FCCI64 ZSJU 160440
TAF ZSJU 160440Z 160615 25007MPS CAVOK TX11/07Z TN01/15Z=




XYE1483 160442 
GG TESTYZYX
160442 ZLXYYMYX
FCCI67 ZLGM 160440
TAF ZLGM 160440Z 160615 29003MPS 9999 FEW100 TXM06/08Z
TNM12/15Z=




XYE1484 160442 
GG TESTYZYX
160442 ZLXYYMYX
FCCI86 ZUBJ 160441
TAF ZUBJ 160441Z 160615 36003MPS 7000 -SG SCT010 OVC026 TX02/08 Z
TN00
/15Z=




XYE1485 160442 
GG TESTYZYX
160442 ZLXYYMYX
FCCI45 ZGDY 160441
TAF ZGDY 160441Z 160615 VRB01MPS 6000 NSC TX12/07Z TN07/15Z=




XYE1486 160443 
GG TESTYZYX
160443 ZLXYYMYX
FCCI74 ZSJG 160441
TAF ZSJG 160441Z 160615 34005G11MPS CAVOK TX04/06Z TNM04/15Z=




XYE1487 160443 
GG TESTYZYX
160443 ZLXYYMYX
FCCI76 ZPLJ 160442
TAF ZPLJ 160442Z 160615 22005MPS 9999 BKN040 TX16/08Z TN12/15Z
BECMG 1113 04003MPS=




XYE1488 160444 
GG TESTYZYX
160444 ZLXYYMYX
FCCI76 ZPDL 160443
TAF ZPDL 160443Z 160615 18007MPS 9999 FEW030 BKN050
TX16/07Z TN10/15Z=




XYE1489 160447 
GG TESTYZYX
160447 ZLXYYMYX
FCCI39 ZWTN 160447
TAF ZWTN 160447Z 160615 06003MPS CAVOK TXM04/09Z TNM11/15Z=




XYE1490 160450 
GG TESTYZYX
160450 ZLXYYMYX
FCCI63 ZBUL 160449
TAF ZBUL 160449Z 160615 28004MPS CAVOK TXM12/06Z TNM20/15Z=




XYE1491 160450 
GG TESTYZYX
160450 ZLXYYMYX
FCCI44 ZSWF 160448
TAF ZSWF 160448Z 160615 32009MPS CAVOK TX03/06Z
TNM03/15Z=




XYE1492 160453 
GG TESTYZYX
160453 ZLXYYMYX
FCCI74 ZSJD 160450
TAF ZSJD 160450Z 160615 03004MPS 6000 NSC TX11/07Z TN01/15Z=




XYE1493 160458 
GG TESTYZYX
160458 ZLXYYMYX
SACI66 ZUNC 160500
METAR ZUNC 160500Z VRB01MPS CAVOK 09/M10 Q1039 NOSIG=




XYE1494 160458 
GG TESTYZYX
160458 ZLXYYMYX
SACI73 ZBDT 160500
METAR ZBDT 160500Z 30010MPS 9999 SCT040 M08/M24 Q1027 NOSIG=




XYE1495 160459 
GG TESTYZYX
160459 ZLXYYMYX
SACI67 ZLYA 160500
METAR ZLYA 160500Z 25005MPS CAVOK M01/M23 Q1037 NOSIG=




XYE1496 160459 
GG TESTYZYX
160459 ZLXYYMYX
SACI76 ZPLC 160500
METAR ZPLC 160500Z 14004MPS 110V180 9999 FEW033 17/07 Q1027 NOSIG=




XYE1497 160500 
GG TESTYZYX
160500 ZLXYYMYX
SACI63 ZBTL 160500
METAR ZBTL 160500Z 35003MPS CAVOK M14/M21 Q1023 NOSIG=




XYE1498 160500 
GG TESTYZYX
160500 ZLXYYMYX
SACI67 ZLTS 160500
METAR ZLTS 160500Z 36001MPS CAVOK M01/M17 Q1039 NOSIG=




XYE1499 160500 
FF TESTYZYX
160500 ZLXYYMYX
FCCI78 ZYFY 160459 AAA
TAF AMD ZYFY 160459Z 160615 CNL=




XYE1500 160500 
GG TESTYZYX
160500 ZLXYYMYX
SACI64 ZSZS 160500
METAR ZSZS 160500Z 33011G18MPS CAVOK 07/M10 Q1029 NOSIG=




XYE1501 160500 
GG TESTYZYX
160500 ZLXYYMYX
SACI65 ZGBS 160500
METAR ZGBS 160500Z VRB02MPS 9999 FEW040 18/00 Q1031 NOSIG=




XYE1502 160500 
GG TESTYZYX
160500 ZLXYYMYX
SACI35 ZGSD 160500
METAR ZGSD 160500Z 35010G16MPS 330V030 CAVOK 18/04 Q1023 NOSIG=




XYE1503 160500 
GG TESTYZYX
160500 ZLXYYMYX
SACI74 ZSYA 160500
METAR ZSYA 160500Z 31010MPS CAVOK 03/M14 Q1033 NOSIG=




XYE1504 160500 
GG TESTYZYX
160500 ZLXYYMYX
SACI67 ZLYL 160500
METAR ZLYL 160500Z 30008MPS CAVOK M05/M24 Q1033 NOSIG=




XYE1505 160500 
GG TESTYZYX
160500 ZLXYYMYX
SACI77 ZLXH 160500
METAR ZLXH 160500Z AUTO 08003MPS 030V130 //// ///////// M05/M21
Q1029=




XYE1506 160500 
GG TESTYZYX
160500 ZLXYYMYX
SACI67 ZLDH 160500
METAR ZLDH 160500Z 09002MPS CAVOK M10/M15 Q1041 NOSIG=




XYE1507 160500 
GG TESTYZYX
160500 ZLXYYMYX
SACI66 ZUDC 160500
METAR ZUDC 160500Z AUTO 22011MPS 190V250 9999 /// ////// M01/M11
Q1028 NOSIG=




XYE1508 160500 
GG TESTYZYX
160500 ZLXYYMYX
SACI76 ZPDL 160500
METAR ZPDL 160500Z 18006MPS 9999 BKN050 13/05 Q1026 NOSIG=




XYE1509 160500 
GG TESTYZYX
160500 ZLXYYMYX
SACI73 ZBZJ 160500
METAR ZBZJ 160500Z 31010MPS CAVOK M07/M21 Q1028 NOSIG=




XYE1510 160500 
GG TESTYZYX
160500 ZLXYYMYX
SACI73 ZBSN 160500
METAR ZBSN 160500Z 29009MPS CAVOK M02/M18 Q1028 NOSIG=




XYE1511 160500 
GG TESTYZYX
160500 ZLXYYMYX
SACI68 ZYJZ 160500
METAR ZYJZ 160500Z AUTO 34009MPS //// // //// M05/M25 Q1026 NOSIG=




XYE1512 160500 
GG TESTYZYX
160500 ZLXYYMYX
SACI65 ZGCD 160500
METAR ZGCD 160500Z 02004MPS CAVOK 09/M13 Q1040 NOSIG=




XYE1513 160500 
GG TESTYZYX
160500 ZLXYYMYX
SACI36 ZUUU 160500
METAR ZUUU 160500Z 22002MPS CAVOK 10/M09 Q1038 NOSIG=




XYE1514 160500 
GG TESTYZYX
160500 ZLXYYMYX
SACI35 ZGSZ 160500
METAR ZGSZ 160500Z 02009MPS CAVOK 19/02 Q1025 NOSIG=




XYE1515 160500 
GG TESTYZYX
160500 ZLXYYMYX
SACI68 ZYCY 160500
METAR ZYCY 160500Z 36006MPS 9999 SCT040 M06/M24 Q1025 NOSIG=




XYE1516 160500 
GG TESTYZYX
160500 ZLXYYMYX
SACI34 ZSSS 160500
METAR ZSSS 160500Z 29009MPS 270V330 CAVOK 06/M13 Q1031 NOSIG=




XYE1517 160500 
GG TESTYZYX
160500 ZLXYYMYX
SACI34 ZSHC 160500
METAR ZSHC 160500Z 33006G12MPS 270V020 CAVOK 07/M16 Q1032
NOSIG=




XYE1518 160500 
GG TESTYZYX
160500 ZLXYYMYX
SACI67 ZLZW 160500
METAR ZLZW 160500Z 31005MPS CAVOK M01/M29 Q1036 NOSIG=




XYE1519 160500 
GG TESTYZYX
160500 ZLXYYMYX
SACI37 ZLXN 160500
METAR ZLXN 160500Z 29004MPS 6000 NSC M04/M18 Q1033 NOSIG=




XYE1520 160500 
GG TESTYZYX
160500 ZLXYYMYX
SACI67 ZLHZ 160500
METAR ZLHZ 160500Z 22004MPS CAVOK 08/M14 Q1038 NOSIG=




XYE1521 160500 
GG TESTYZYX
160500 ZLXYYMYX
SACI37 ZLIC 160500
METAR ZLIC 160500Z 25004MPS 220V280 CAVOK M03/M20 Q1035 NOSIG=




XYE1522 160500 
GG TESTYZYX
160500 ZLXYYMYX
SACI86 ZURK 160500
METAR ZURK 160500Z AUTO VRB02MPS 9999 /// ////// 04/M16 Q1020 NOSIG=




XYE1523 160500 
GG TESTYZYX
160500 ZLXYYMYX
SACI74 ZSGZ 160500
METAR ZSGZ 160500Z 01005MPS 6000 NSC 12/M05 Q1032 NOSIG=




XYE1524 160500 
GG TESTYZYX
160500 ZLXYYMYX
SACI35 ZGKL 160500
METAR ZGKL 160500Z 07007MPS 040V100 CAVOK 14/M10 Q1033 NOSIG=




XYE1525 160500 
GG TESTYZYX
160500 ZLXYYMYX
SACI35 ZGOW 160500
METAR ZGOW 160500Z 36007MPS CAVOK 18/04 Q1024 NOSIG=




XYE1526 160500 
GG TESTYZYX
160500 ZLXYYMYX
SACI45 ZHCC 160500
METAR ZHCC 160500Z 31009G14MPS CAVOK 05/M23 Q1036 NOSIG=




XYE1527 160500 
GG TESTYZYX
160500 ZLXYYMYX
SACI34 ZSWZ 160500
METAR ZSWZ 160500Z 36005MPS 320V050 7000 NSC 14/M07 Q1027 NOSIG=




XYE1528 160500 
GG TESTYZYX
160500 ZLXYYMYX
SACI35 ZGGG 160500
METAR ZGGG 160500Z 03010MPS CAVOK 17/01 Q1027 NOSIG=




XYE1529 160500 
GG TESTYZYX
160500 ZLXYYMYX
SACI33 ZBSJ 160500
METAR ZBSJ 160500Z 01004MPS 330V050 CAVOK 02/M20 Q1032 NOSIG=




XYE1530 160500 
GG TESTYZYX
160500 ZLXYYMYX
SACI33 ZBYN 160500
METAR ZBYN 160500Z 29008MPS CAVOK M03/M24 Q1031 NOSIG=




XYE1531 160500 
GG TESTYZYX
160500 ZLXYYMYX
SACI73 ZBSH 160500
METAR ZBSH 160500Z 32008MPS 280V340 CAVOK M02/M24 Q1027 NOSIG=




XYE1532 160501 
GG TESTYZYX
160500 ZLXYYMYX
SACI75 ZHNY 160500
METAR ZHNY 160500Z 26004MPS CAVOK 07/M18 Q1037 NOSIG=




XYE1533 160501 
GG TESTYZYX
160500 ZLXYYMYX
SACI37 ZLXY 160500
METAR ZLXY 160500Z 24004MPS 210V280 CAVOK 05/M19 Q1040 NOSIG=




XYE1534 160501 
GG TESTYZYX
160500 ZLXYYMYX
SACI77 ZLDL 160500
METAR ZLDL 160500Z AUTO 00000MPS 9999 // ////// M08/M31 Q1032=




XYE1535 160501 
GG TESTYZYX
160500 ZLXYYMYX
SACI67 ZLQY 160500
METAR ZLQY 160500Z 29005MPS CAVOK M03/M22 Q1036 NOSIG=




XYE1536 160501 
GG TESTYZYX
160500 ZLXYYMYX
SACI33 ZBAA 160500
METAR ZBAA 160500Z 29011MPS CAVOK M00/M20 Q1030 NOSIG=




XYE1537 160501 
GG TESTYZYX
160500 ZLXYYMYX
SACI65 ZGLG 160500
METAR ZGLG 160500Z 01005MPS CAVOK 12/M13 Q1036 NOSIG=




XYE1538 160501 
GG TESTYZYX
160500 ZLXYYMYX
SACI63 ZBMZ 160500
METAR ZBMZ 160500Z 29008MPS CAVOK M18/M23 Q1017 NOSIG=




XYE1539 160501 
GG TESTYZYX
160500 ZLXYYMYX
SACI35 ZGNN 160500
METAR ZGNN 160500Z 01006MPS CAVOK 16/04 Q1029 NOSIG=




XYE1540 160501 
GG TESTYZYX
160500 ZLXYYMYX
SACI33 ZBTJ 160500
METAR ZBTJ 160500Z 29006MPS 9999 FEW033 01/M22 Q1030 NOSIG=




XYE1541 160501 
GG TESTYZYX
160500 ZLXYYMYX
SACI65 ZGZJ 160500
METAR ZGZJ 160500Z 36006MPS 330V070
CAVOK
18/05 Q1024
NOSIG=




XYE1542 160501 
GG TESTYZYX
160500 ZLXYYMYX
SACI68 ZYAS 160500
METAR ZYAS 160500Z 36004MPS 310V040 6000 BKN040 M09/M16 Q1025=




XYE1543 160501 
GG TESTYZYX
160500 ZLXYYMYX
SACI69 ZWTC 160500
METAR ZWTC 160500Z 06002MPS CAVOK M08/M18 Q1035 NOSIG=




XYE1544 160501 
GG TESTYZYX
160500 ZLXYYMYX
SACI34 ZSOF 160500
METAR ZSOF 160500Z 30008MPS CAVOK 04/M15 Q1036 NOSIG=




XYE1545 160501 
GG TESTYZYX
160500 ZLXYYMYX
SACI39 ZWTN 160500
METAR ZWTN 160500Z 00000MPS CAVOK M07/M13 Q1038 NOSIG=




XYE1546 160501 
GG TESTYZYX
160500 ZLXYYMYX
SACI34 ZSPD 160500
METAR ZSPD 160500Z 30011G16MPS CAVOK 06/M13 Q1030 NOSIG=




XYE1547 160501 
GG TESTYZYX
160500 ZLXYYMYX
SACI35 ZJSY 160500
METAR ZJSY 160500Z 09006MPS 070V130 9999 SCT050 26/17 Q1019 NOSIG=




XYE1548 160501 
GG TESTYZYX
160500 ZLXYYMYX
SACI78 ZYFY 160500
METAR ZYFY 160500Z 06004MPS CAVOK M23/M27 Q1016 NOSIG=




XYE1549 160501 
GG TESTYZYX
160500 ZLXYYMYX
SACI66 ZUZH 160500
METAR ZUZH 160500Z 08002MPS 9999 SCT021 OVC040 04/M00 Q1028
NOSIG=




XYE1550 160501 
GG TESTYZYX
160500 ZLXYYMYX
SACI67 ZLGM 160500
METAR ZLGM 160500Z 33002MPS 280V010 CAVOK M09/M25 Q1032 NOSIG=




XYE1551 160501 
GG TESTYZYX
160500 ZLXYYMYX
SACI63 ZBLA 160500
METAR ZBLA 160500Z 23002MPS 5000 BR NSC M26/M29 Q1017 NOSIG=




XYE1552 160501 
GG TESTYZYX
160500 ZLXYYMYX
SACI45 ZHYC 160500
METAR ZHYC 160500Z 17002MPS CAVOK 09/M08 Q1038 NOSIG=




XYE1553 160501 
GG TESTYZYX
160500 ZLXYYMYX
SACI86 ZUBJ 160500
METAR ZUBJ 160500Z 36003MPS 320V040 9999 -SG SCT010 OVC026 00/M02
Q103
5 NOSIG=




XYE1554 160501 
GG TESTYZYX
160500 ZLXYYMYX
SACI73 ZBLL 160500
METAR ZBLL 160500Z 29007MPS 270V330 CAVOK M08/M21 Q1033 NOSIG=




XYE1555 160501 
GG TESTYZYX
160500 ZLXYYMYX
SACI75 ZGHC 160500
METAR ZGHC 160500Z AUTO 02005MPS 340V080 9999 // ////// 12/M04
Q1032=




XYE1556 160501 
GG TESTYZYX
160500 ZLXYYMYX
SACI78 ZYTN 160500
METAR ZYTN 160500Z 30004MPS 260V320 7000 SCT030 M14/M18 Q1017=




XYE1557 160501 
GG TESTYZYX
160500 ZLXYYMYX
SACI45 ZGHA 160500
METAR ZGHA 160500Z 02005MPS 350V070 CAVOK 11/M15 Q1037 NOSIG=




XYE1558 160501 
GG TESTYZYX
160501 ZLXYYMYX
SACI35 ZJHK 160500
METAR ZJHK 160500Z 01006MPS 330V050 8000 SCT030 18/11 Q1023 NOSIG=




XYE1559 160501 
GG TESTYZYX
160501 ZLXYYMYX
SACI34 ZSNB 160500
METAR ZSNB 160500Z 31010G16MPS 280V350 CAVOK 07/M13 Q1030 NOSIG=




XYE1560 160501 
GG TESTYZYX
160501 ZLXYYMYX
SACI68 ZYDQ 160500
METAR ZYDQ 160500Z 33006MPS CAVOK M20/M23 Q1021 NOSIG=




XYE1561 160501 
GG TESTYZYX
160501 ZLXYYMYX
SACI39 ZWSH 160500
METAR ZWSH 160500Z 00000MPS 6000 FEW040 M07/M12 Q1038 NOSIG=




XYE1562 160501 
GG TESTYZYX
160501 ZLXYYMYX
SACI38 ZYHB 160500
METAR ZYHB 160500Z 30004MPS 260V330 3000 BR NSC M20/M23 Q1020 NOSIG=




XYE1563 160501 
GG TESTYZYX
160501 ZLXYYMYX
SACI75 ZHXF 160500
METAR ZHXF 160500Z 33006MPS CAVOK 10/M12 Q1038 NOSIG=




XYE1564 160501 
GG TESTYZYX
160501 ZLXYYMYX
SACI66 ZUYB 160500
METAR ZUYB 160500Z 33002MPS CAVOK 09/M03 Q1039 NOSIG=




XYE1565 160501 
GG TESTYZYX
160501 ZLXYYMYX
SACI77 ZLZY 160500
METAR ZLZY 160500Z 04002MPS CAVOK 01/M29 Q1034 NOSIG=




XYE1566 160501 
GG TESTYZYX
160501 ZLXYYMYX
SACI37 ZLLL 160500
METAR ZLLL 160500Z 18003MPS 150V220 CAVOK M05/M18 Q1034 NOSIG=




XYE1567 160501 
GG TESTYZYX
160501 ZLXYYMYX
SACI73 ZBYC 160500
METAR ZBYC 160500Z 31004MPS 260V360 CAVOK 03/M23 Q1040 NOSIG=




XYE1568 160501 
GG TESTYZYX
160501 ZLXYYMYX
SACI65 ZGCJ 160500
METAR ZGCJ 160500Z 05004MPS 020V110 9999 BKN050 11/M11 Q1037
NOSIG=




XYE1569 160501 
GG TESTYZYX
160501 ZLXYYMYX
SACI44 ZSLG 160500
METAR ZSLG 160500Z 28004MPS CAVOK 03/M17 Q1032 NOSIG=




XYE1570 160501 
GG TESTYZYX
160501 ZLXYYMYX
SACI86 ZUKJ 160500
METAR ZUKJ 160500Z 06004MPS 340V080 CAVOK 06/M08 Q1035 NOSIG=




XYE1571 160501 
GG TESTYZYX
160501 ZLXYYMYX
SACI73 ZBCZ 160500
METAR ZBCZ 160500Z 32010G15MPS CAVOK M02/M25 Q1030 NOSIG=




XYE1572 160501 
GG TESTYZYX
160501 ZLXYYMYX
SACI69 ZWAK 160500
METAR ZWAK 160500Z 27002MPS 6000 NSC M09/M14 Q1041 NOSIG=




XYE1573 160501 
GG TESTYZYX
160501 ZLXYYMYX
SACI44 ZSQD 160500
METAR ZSQD 160500Z 31010G16MPS 280V340 CAVOK 00/M24 Q1029 NOSIG=




XYE1574 160501 
GG TESTYZYX
160501 ZLXYYMYX
SACI34 ZSNJ 160500
METAR ZSNJ 160500Z 32005G11MPS 280V360 CAVOK 05/M15 Q1034 NOSIG=




XYE1575 160501 
GG TESTYZYX
160501 ZLXYYMYX
SACI68 ZYMD 160500
METAR ZYMD 160500Z 30005MPS 9999 FEW030 M13/M20 Q1011 NOSIG=




XYE1576 160501 
GG TESTYZYX
160501 ZLXYYMYX
SACI34 ZSAM 160500
METAR ZSAM 160500Z 03005MPS CAVOK 19/03 Q1024 NOSIG=




XYE1577 160501 
GG TESTYZYX
160501 ZLXYYMYX
SACI86 ZUYI 160500
METAR ZUYI 160500Z 36004MPS 320V040 9999 SCT015 OVC040 06/02 Q1034
NOS
IG=




XYE1578 160501 
GG TESTYZYX
160501 ZLXYYMYX
SACI69 ZWAT 160500
METAR ZWAT 160500Z 00000MPS CAVOK M12/M23 Q1038 NOSIG=




XYE1579 160501 
GG TESTYZYX
160501 ZLXYYMYX
SACI68 ZYLD 160500
METAR ZYLD 160500Z 26005MPS 9999 FEW033 M23/M27 Q1016 NOSIG=




XYE1580 160501 
GG TESTYZYX
160501 ZLXYYMYX
SACI44 ZSCN 160500
METAR ZSCN 160500Z 34007G12MPS 310V010 CAVOK 09/M15 Q1036 NOSIG=




XYE1581 160501 
GG TESTYZYX
160501 ZLXYYMYX
SACI45 ZHHH 160500
METAR ZHHH 160500Z 34003G08MPS 270V080 CAVOK 08/M14 Q1038 NOSIG=




XYE1582 160502 
GG TESTYZYX
160501 ZLXYYMYX
SACI68 ZYDD 160500
METAR ZYDD 160500Z 34007MPS CAVOK M06/M21 Q1023 NOSIG=




XYE1583 160502 
GG TESTYZYX
160501 ZLXYYMYX
SACI67 ZLGY 160500
METAR ZLGY 160500Z 35004MPS CAVOK M05/M21 Q1034 NOSIG=




XYE1584 160502 
GG TESTYZYX
160501 ZLXYYMYX
SACI64 ZSNT 160500
METAR ZSNT 160500Z 31010MPS CAVOK 04/M14 Q1032 NOSIG=




XYE1585 160502 
GG TESTYZYX
160501 ZLXYYMYX
SACI44 ZSXZ 160500
METAR ZSXZ 160500Z 29006G12MPS 250V330 CAVOK 03/M17 Q1034 NOSIG=




XYE1586 160502 
GG TESTYZYX
160501 ZLXYYMYX
SACI63 ZBXH 160500
METAR ZBXH 160500Z 29010MPS CAVOK M17/M23 Q1021 NOSIG=




XYE1587 160502 
GG TESTYZYX
160501 ZLXYYMYX
SACI89 ZWHM 160500
METAR ZWHM 160500Z VRB01MPS CAVOK M07/M18 Q1042 NOSIG=




XYE1588 160502 
GG TESTYZYX
160501 ZLXYYMYX
SACI68 ZYJX 160500
METAR ZYJX 160500Z 35006MPS CAVOK M16/M21 Q1013 NOSIG=




XYE1589 160502 
GG TESTYZYX
160501 ZLXYYMYX
SACI36 ZPPP 160500
METAR ZPPP 160500Z 07006MPS 9999 BKN016 OVC033 01/M01 Q1031 NOSIG=




XYE1590 160502 
GG TESTYZYX
160501 ZLXYYMYX
SACI44 ZSJN 160500
METAR ZSJN 160500Z 30007MPS CAVOK 02/M20 Q1032 NOSIG=




XYE1591 160502 
GG TESTYZYX
160501 ZLXYYMYX
SACI68 ZYJM 160500
METAR ZYJM 160500Z 29001MPS 6000 NSC M19/M24 Q1017 NOSIG=




XYE1592 160502 
GG TESTYZYX
160501 ZLXYYMYX
SACI68 ZYHE 160500
METAR ZYHE 160500Z 35003MPS CAVOK M23/M30 Q1017 NOSIG=




XYE1593 160502 
GG TESTYZYX
160501 ZLXYYMYX
SACI36 ZUCK 160500
METAR ZUCK 160500Z 25003MPS 220V290 9999 -RA SCT030 06/00 Q1038
NOSIG=




XYE1594 160502 
GG TESTYZYX
160501 ZLXYYMYX
SACI39 ZWTL 160500
METAR ZWTL 160500Z 15002MPS CAVOK M07/M16 Q1048 NOSIG=




XYE1595 160502 
GG TESTYZYX
160501 ZLXYYMYX
SACI36 ZUXC 160500
METAR ZUXC 160500Z 01002MPS 330V050 9999 OVC046 07/M02 Q1030 NOSIG=




XYE1596 160502 
GG TESTYZYX
160501 ZLXYYMYX
SACI63 ZBCF 160500
METAR ZBCF 160500Z 31008MPS 270V340 9999 FEW040 M10/M27 Q1022 NOSIG=




XYE1597 160502 
GG TESTYZYX
160501 ZLXYYMYX
SACI67 ZLJQ 160500
METAR ZLJQ 160500Z 05001MPS CAVOK M04/M24 Q1035 NOSIG=




XYE1598 160502 
GG TESTYZYX
160501 ZLXYYMYX
SACI67 ZLJC 160500
METAR ZLJC 160500Z 01001MPS CAVOK M01/M26 Q1036 NOSIG=




XYE1599 160502 
GG TESTYZYX
160501 ZLXYYMYX
SACI66 ZUJZ 160500
METAR ZUJZ 160500Z 19002MPS 160V240 9999 OVC050 M05/M18 Q1028 NOSIG=




XYE1600 160502 
GG TESTYZYX
160501 ZLXYYMYX
SACI75 ZHSN 160500
METAR ZHSN 160500Z 26009G14MPS 230V310 CAVOK M09/M25 Q1029 NOSIG=




XYE1601 160502 
GG TESTYZYX
160501 ZLXYYMYX
SACI76 ZPTC 160500
METAR ZPTC 160500Z VRB01MPS CAVOK 15/06 Q1026 NOSIG=




XYE1602 160502 
GG TESTYZYX
160501 ZLXYYMYX
SACI63 ZBER 160500
METAR ZBER 160500Z 30010MPS CAVOK M12/M22 Q1027 NOSIG=




XYE1603 160502 
GG TESTYZYX
160501 ZLXYYMYX
SACI34 ZSLQ 160500
METAR ZSLQ 160500Z 34009MPS CAVOK 10/M13 Q1028 NOSIG=




XYE1604 160502 
GG TESTYZYX
160501 ZLXYYMYX
SACI73 ZBAL 160500
METAR ZBAL 160500Z 30002MPS 270V340 CAVOK M05/M23 Q1036 NOSIG=




XYE1605 160502 
GG TESTYZYX
160501 ZLXYYMYX
SACI35 ZGZH 160500
METAR ZGZH 160500Z 01006MPS CAVOK 16/M09 Q1031 NOSIG=




XYE1606 160502 
GG TESTYZYX
160501 ZLXYYMYX
SACI36 ZUGY 160500
METAR ZUGY 160500Z 02005MPS 360V090 9999 OVC043 05/M03 Q1034 NOSIG=




XYE1607 160502 
GG TESTYZYX
160501 ZLXYYMYX
SACI38 ZYCC 160500
METAR ZYCC 160500Z 31003MPS 1400 R24/1800N -SN BR SCT010 OVC020
M17/M20 Q1020 BECMG TL0630 1600 -SN BR=




XYE1608 160502 
GG TESTYZYX
160501 ZLXYYMYX
SACI89 ZWKC 160500
METAR ZWKC 160500Z 06001MPS 3000 FU NSC M09/M14 Q1042 NOSIG=




XYE1609 160502 
GG TESTYZYX
160501 ZLXYYMYX
SACI34 ZSFZ 160500
METAR ZSFZ 160500Z 06008MPS CAVOK 16/03 Q1026 NOSIG=




XYE1610 160502 
GG TESTYZYX
160501 ZLXYYMYX
SACI65 ZGMX 160500
METAR ZGMX 160500Z 33007MPS CAVOK 17/M00 Q1027 NOSIG=




XYE1611 160502 
GG TESTYZYX
160501 ZLXYYMYX
SACI76 ZPDQ 160500
METAR ZPDQ 160500Z 22007G13MPS 140V310 9999 SCT026 07/M10 Q1031
NOSIG=




XYE1612 160502 
GG TESTYZYX
160501 ZLXYYMYX
SACI33 ZBHH 160500
METAR ZBHH 160500Z 30008MPS 9999 FEW040 M07/M19 Q1029 NOSIG=




XYE1613 160502 
GG TESTYZYX
160501 ZLXYYMYX
SACI69 ZWYN 160500
METAR ZWYN 160500Z 03002MPS CAVOK M04/M14 Q1033 NOSIG=




XYE1614 160502 
GG TESTYZYX
160501 ZLXYYMYX
SACI68 ZYMH 160500
METAR ZYMH 160500Z 27003MPS 240V300 CAVOK M25/M29 Q1016 NOSIG=




XYE1615 160502 
GG TESTYZYX
160501 ZLXYYMYX
SACI67 ZLYS 160500
METAR ZLYS 160500Z 20001MPS 5000 -SN SCT033 OVC060 M06/M08 Q1027
NOSIG=




XYE1616 160502 
GG TESTYZYX
160501 ZLXYYMYX
SACI63 ZBUH 160500
METAR ZBUH 160500Z 27007MPS CAVOK M05/M24 Q1035 NOSIG=




XYE1617 160502 
GG TESTYZYX
160501 ZLXYYMYX
SACI38 ZYTX 160500
METAR ZYTX 160500Z 31004MPS CAVOK M10/M19 Q1024 NOSIG=




XYE1618 160502 
GG TESTYZYX
160501 ZLXYYMYX
SACI39 ZWWW 160500
METAR ZWWW 160500Z 31002MPS 2000 BR NSC M17/M19 Q1040 NOSIG=




XYE1619 160502 
GG TESTYZYX
160502 ZLXYYMYX
SACI36 ZUBD 160500
METAR ZUBD 160500Z AUTO 20008G14MPS 160V240 9999 /// ////// 02/M19
Q1026 NOSIG=




XYE1620 160502 
GG TESTYZYX
160502 ZLXYYMYX
SACI74 ZSWY 160500
METAR ZSWY 160500Z 01008MPS CAVOK 11/M08 Q1031 NOSIG=




XYE1621 160502 
GG TESTYZYX
160502 ZLXYYMYX
SACI86 ZUNP 160500
METAR ZUNP 160500Z 03006MPS 340V060 8000 FEW050 11/M05 Q1034 NOSIG=




XYE1622 160502 
GG TESTYZYX
160502 ZLXYYMYX
SACI78 ZYJD 160500
METAR ZYJD 160500Z 05002MPS CAVOK M22/M28 Q1017 NOSIG=




XYE1623 160502 
GG TESTYZYX
160502 ZLXYYMYX
SACI45 ZHLY 160500
METAR ZHLY 160500Z 29009MPS CAVOK 04/M21 Q1036 NOSIG=




XYE1624 160502 
GG TESTYZYX
160502 ZLXYYMYX
SACI63 ZBOW 160500
METAR ZBOW 160500Z 31010MPS CAVOK M06/M22 Q1032 NOSIG=




XYE1625 160502 
GG TESTYZYX
160502 ZLXYYMYX
SACI68 ZYBS 160500
METAR ZYBS 160500Z 32004MPS 270V010 5000 BR FEW004 SCT016 M17/M21
Q1008 NOSIG=




XYE1626 160502 
GG TESTYZYX
160502 ZLXYYMYX
SACI76 ZPZT 160500
METAR ZPZT 160500Z 28002MPS 9999 -SN SCT010 OVC016 M01/M03 Q1036
NOSIG=




XYE1627 160502 
GG TESTYZYX
160502 ZLXYYMYX
SACI38 ZYTL 160500
METAR ZYTL 160500Z 32009MPS 290V350 9999 BKN026 M04/M15 Q1025 NOSIG=




XYE1628 160502 
GG TESTYZYX
160502 ZLXYYMYX
SACI66 ZUMY 160500 RRA
METAR ZUMY 160500Z VRB01MPS CAVOK 08/M12 Q1039 NOSIG=




XYE1629 160502 
GG TESTYZYX
160502 ZLXYYMYX
SACI69 ZWBL 160500
METAR ZWBL 160500Z 29001MPS 2500 BR NSC M16/M18 Q1043 NOSIG=




XYE1630 160502 
GG TESTYZYX
160502 ZLXYYMYX
SACI73 ZBYZ 160500
METAR ZBYZ 160500Z 28008MPS CAVOK M05/M21 Q1033 NOSIG=




XYE1631 160502 
GG TESTYZYX
160502 ZLXYYMYX
SACI64 ZSJU 160500
METAR ZSJU 160500Z 25007MPS CAVOK 11/M12 Q1032 NOSIG=




XYE1632 160503 
GG TESTYZYX
160502 ZLXYYMYX
SACI63 ZBUL 160500
METAR ZBUL 160500Z 31003MPS CAVOK M15/M24 Q1019 NOSIG=




XYE1633 160503 
GG TESTYZYX
160502 ZLXYYMYX
SACI64 ZSWX 160500
METAR ZSWX 160500Z 31008MPS CAVOK 06/M17 Q1032 NOSIG=




XYE1634 160503 
GG TESTYZYX
160502 ZLXYYMYX
SACI74 ZSJD 160500
METAR ZSJD 160500Z 32003MPS 310V020 CAVOK 09/M15 Q1035 NOSIG=




XYE1635 160503 
GG TESTYZYX
160502 ZLXYYMYX
SACI76 ZPSM 160500
METAR ZPSM 160500Z 02004MPS 160V220 9999 SCT026 20/09 Q1024 NOSIG=




XYE1636 160503 
GG TESTYZYX
160503 ZLXYYMYX
SACI66 ZUGU 160500
METAR ZUGU 160500Z 20002MPS 140V240 CAVOK 07/M19 Q1038 NOSIG=




XYE1637 160503 
GG TESTYZYX
160503 ZLXYYMYX
SACI39 ZWKM 160500
METAR ZWKM 160500Z 05003MPS 4000 -SG BR BKN010 M21/M23 Q1046 NOSIG=




XYE1638 160503 
GG TESTYZYX
160503 ZLXYYMYX
SACI45 ZGDY 160500
METAR ZGDY 160500Z VRB02MPS CAVOK 08/M13 Q1038 NOSIG=




XYE1639 160503 
GG TESTYZYX
160503 ZLXYYMYX
SACI44 ZSYT 160500
METAR ZSYT 160500Z 30009G14MPS 260V330 9999 SCT033 M03/M10 Q1027
NOSIG=




XYE1640 160503 
GG TESTYZYX
160503 ZLXYYMYX
SACI65 ZGBH 160500
METAR ZGBH 160500Z 36009MPS 9999 BKN040 15/02 Q1026 NOSIG=




XYE1641 160503 
GG TESTYZYX
160503 ZLXYYMYX
SACI65 ZGWZ 160500
METAR ZGWZ 160500Z 04005MPS 350V080 CAVOK 16/M02 Q1029 NOSIG=




XYE1642 160503 
GG TESTYZYX
160503 ZLXYYMYX
FCCI66 ZULZ 160450
TAF ZULZ 160450Z 160615 VRB01MPS CAVOK
TX11/08Z TN08/15Z=
=




XYE1643 160503 
GG TESTYZYX
160503 ZLXYYMYX
SACI74 ZSYC 160500
METAR ZSYC 160500Z 30005MPS 250V340 CAVOK 11/M13 Q1035 NOSIG=




XYE1644 160503 
GG TESTYZYX
160503 ZLXYYMYX
SACI64 ZSTX 160500
METAR ZSTX 160500Z 05002MPS CAVOK 08/M09 Q1033 NOSIG=




XYE1645 160503 
GG TESTYZYX
160503 ZLXYYMYX
SACI76 ZPJH 160500
METAR ZPJH 160500Z 14002MPS 080V170 9999 FEW023 23/17 Q1021 NOSIG=




XYE1646 160503 
GG TESTYZYX
160503 ZLXYYMYX
SACI86 ZUNZ 160500
METAR ZUNZ 160500Z AUTO 16007MPS 120V180 9999 /// ////// 06/M05
Q1024 NOSIG=




XYE1647 160503 
GG TESTYZYX
160503 ZLXYYMYX
SACI68 ZYYJ 160500
METAR ZYYJ 160500Z 29007MPS CAVOK M10/M17 Q1013 NOSIG=




XYE1648 160503 
GG TESTYZYX
160503 ZLXYYMYX
SACI76 ZPWS 160500
METAR ZPWS 160500Z AUTO 01005MPS //// // ///////// 03/01 Q1032=




XYE1649 160504 
GG TESTYZYX
160504 ZLXYYMYX
SACI86 ZUWX 160500
METAR ZUWX 160500Z 20003MPS 160V250 CAVOK 09/00 Q1036 NIOSIG=
=




XYE1650 160504 
GG TESTYZYX
160504 ZLXYYMYX
SACI86 ZUAS 160500
METAR ZUAS 160500Z 03005MPS 9999 BKN010 OVC033 01/01 Q1034 NOSIG=




XYE1651 160504 
GG TESTYZYX
160504 ZLXYYMYX
SACI86 ZUQJ 160500
METAR ZUQJ 160500Z 18002MPS 120V220 6000 FEW026 SCT040 08/02 Q1036
NOSIG=




XYE1652 160504 
GG TESTYZYX
160504 ZLXYYMYX
SACI74 ZSJG 160500
METAR ZSJG 160500Z 32007MPS 280V340 CAVOK 04/M16 Q1033 NOSIG=




XYE1653 160504 
GG TESTYZYX
160504 ZLXYYMYX
SACI86 ZUPS 160500
METAR ZUPS 160500Z 04005MPS 9999 SCT011 OVC030 M02/M03 Q1034 NOSIG=




XYE1654 160504 
GG TESTYZYX
160504 ZLXYYMYX
SACI74 ZSDY 160500
METAR ZSDY 160500Z AUTO 30009G14MPS//// // ////// 00/M22 Q1030
NOSIG=




XYE1655 160504 
GG TESTYZYX
160504 ZLXYYMYX
SACI64 ZSSH 160500
METAR ZSSH 160500Z 32008MPS CAVOK 02/M19 Q1033 NOSIG=




XYE1656 160504 
GG TESTYZYX
160504 ZLXYYMYX
SACI63 ZBDS 160500
METAR ZBDS 160500Z 31012MPS CAVOK M07/M23 Q1030 NOSIG=




XYE1657 160504 
GG TESTYZYX
160504 ZLXYYMYX
SACI44 ZSCG 160500
METAR ZSCG 160500Z 33009MPS CAVOK 04/M17 Q1033 NOSIG=




XYE1658 160504 
GG TESTYZYX
160504 ZLXYYMYX
SACI64 ZSFY 160500
METAR ZSFY 160500Z 29006G11MPS 260V360 CAVOK 05/M16 Q1036 NOSIG=




XYE1659 160504 
GG TESTYZYX
160504 ZLXYYMYX
SACI75 ZHES 160500
METAR ZHES 160500Z VRB01MPS CAVOK 11/M04 Q1034 NOSIG=




XYE1660 160504 
GG TESTYZYX
160504 ZLXYYMYX
SACI68 ZYQQ 160500
METAR ZYQQ 160500Z 32003MPS 280V360 CAVOK M19/M24
Q1021 NOSIG=




XYE1661 160504 
GG TESTYZYX
160504 ZLXYYMYX
SACI64 ZSYW 160500
METAR ZSYW 160500Z 36003MPS 360V060 CAVOK 09/M17 Q1031 NOSIG=




XYE1662 160504 
GG TESTYZYX
160504 ZLXYYMYX
SACI76 ZPLJ 160500
METAR ZPLJ 160500Z 22005MPS 9999 BKN040 15/02 Q1025 NOSIG=




XYE1663 160504 
GG TESTYZYX
160504 ZLXYYMYX
SACI66 ZUDX 160500
METAR ZUDX 160500Z 04003MPS 360V100 CAVOK 11/M14 Q1037 NOSIG=




XYE1664 160505 
GG TESTYZYX
160505 ZLXYYMYX
SPCI34 ZSSS 160503
SPECI ZSSS 160503Z 29008G13MPS 270V330 CAVOK 07/M12 Q1031 NOSIG=




XYE1665 160505 
GG TESTYZYX
160505 ZLXYYMYX
SACI64 ZSYN 160500
METAR ZSYN 160500Z 32009MPS CAVOK 02/M17 Q1032 NOSIG=




XYE1666 160505 
GG TESTYZYX
160505 ZLXYYMYX
SACI36 ZUAL 160500
METAR ZUAL 160500Z AUTO 36002MPS 320V040 9999 /// ////// M09/M27
Q1028 NOSIG=




XYE1667 160505 
GG TESTYZYX
160505 ZLXYYMYX
SACI64 ZSJH 160500
METAR ZSJH 160500Z 31005MPS 280V340 CAVOK 06/M13 Q1036 NOSIG=




XYE1668 160505 
GG TESTYZYX
160505 ZLXYYMYX
SACI86 ZUTR 160500
METAR ZUTR 160500Z 05003MPS 360V100 9999 BKN040 06/M11 Q1036 NOSIG=




XYE1669 160505 
GG TESTYZYX
160505 ZLXYYMYX
SACI63 ZBES 160500
METAR ZBES 160500Z 25004MPS CAVOK M23/M28 Q1014 NOSIG=




XYE1670 160505 
GG TESTYZYX
160505 ZLXYYMYX
SACI66 ZULZ 160500
METAR ZULZ 160500Z VRB01MPS CAVOK 09/M03 Q1039 NOSIG=
=




XYE1671 160506 
GG TESTYZYX
160506 ZLXYYMYX
SACI86 ZUZY 160500
METAR ZUZY 160500Z 17002MPS 9999 SCT015 OVC030 05/03 Q1036 NOSIG=




XYE1672 160506 
GG TESTYZYX
160506 ZLXYYMYX
SACI69 ZWKL 160500 RRA
METAR ZWKL 160500Z 00000MPS 9000 NSC M10/M14 Q1043 NOSIG=




XYE1673 160506 
GG TESTYZYX
160506 ZLXYYMYX
SACI76 ZPMS 160500
METAR ZPMS 160500Z VRB01MPS 9999 FEW040 19/10 Q1021 NOSIG=




XYE1674 160507 
GG TESTYZYX
160507 ZLXYYMYX
SACI66 ZUGH 160500
METAR ZUGH 160500Z 20001MPS CAVOK 10/M11 Q1038 NOSIG=




XYE1675 160507 
GG TESTYZYX
160507 ZLXYYMYX
SACI76 ZPBS 160500
METAR ZPBS 160500Z VRB01MPS 9999 BKN030 16/05 Q1025 NOSIG=




XYE1676 160507 
GG TESTYZYX
160507 ZLXYYMYX
SACI74 ZSLO 160500
METAR ZSLO 160500Z 35005MPS 6000 NSC 12/M04 Q1030 NOSIG=




XYE1677 160507 
GG TESTYZYX
160507 ZLXYYMYX
SACI74 ZSGS 160500
METAR ZSGS 160500Z 03004G09MPS 340V080 8000 NSC 11/M06 Q1034 NOSIG=




XYE1678 160507 
GG TESTYZYX
160507 ZLXYYMYX
SACI44 ZSWF 160500
METAR ZSWF 160500Z 31010G16MPS CAVOK 01/M23 Q1030
NOSIG=




XYE1679 160507 
GG TESTYZYX
160507 ZLXYYMYX
SACI44 ZSWH 160500
METAR ZSWH 160500Z 32007MPS 9000 -SHSN FEW010 SCT020 M03/M08 Q1025
NOSIG=




XYE1680 160507 
GG TESTYZYX
160507 ZLXYYMYX
SACI36 ZULS 160500
METAR ZULS 160500Z 16006MPS 120V180 9999 FEW033 SCT050 05/M11 Q1022
NOSIG=




XYE1681 160507 
GG TESTYZYX
160507 ZLXYYMYX
SACI74 ZSQZ 160500
METAR ZSQZ 160500Z 02004MPS CAVOK 18/05 Q1025 NOSIG=




XYE1682 160507 
GG TESTYZYX
160507 ZLXYYMYX
SACI74 ZSLY 160500
METAR ZSLY 160500Z 31007G12MPS 260V340 CAVOK 02/M20 Q1032 NOSIG=




XYE1683 160528 
FF TESTYZYX
160528 ZLXYYMYX
WACI39 ZWWW 160527
ZWUQ AIRMET 2 VALID 160527/160927 ZWWW-
ZWUQ URUMQI FIR MOD TURB FCST WI N4401 E08651 - N4403 E08812 - N4254
 E08821 - N4239 E08655 FL050/100 NC=




XYE1684 160530 
GG TESTYZYX
160530 ZLXYYMYX
SACI35 ZGSZ 160530
METAR ZGSZ 160530Z 01009MPS CAVOK 19/02 Q1024 NOSIG=




XYE1685 160530 
GG TESTYZYX
160530 ZLXYYMYX
SACI36 ZUUU 160530
METAR ZUUU 160530Z VRB01MPS CAVOK 10/M09 Q1038 NOSIG=




XYE1686 160530 
GG TESTYZYX
160530 ZLXYYMYX
SACI34 ZSHC 160530
METAR ZSHC 160530Z 34006MPS 290V030 CAVOK 07/M16 Q1032 NOSIG=




XYE1687 160530 
GG TESTYZYX
160530 ZLXYYMYX
SACI33 ZBAA 160530
METAR ZBAA 160530Z 30011MPS CAVOK M00/M20 Q1030 NOSIG=




XYE1688 160530 
GG TESTYZYX
160530 ZLXYYMYX
SACI33 ZBYN 160530
METAR ZBYN 160530Z 30008MPS 260V330 CAVOK M03/M24 Q1031 NOSIG=




XYE1689 160530 
GG TESTYZYX
160530 ZLXYYMYX
SACI38 ZYTX 160530
METAR ZYTX 160530Z 31006MPS CAVOK M10/M19 Q1024 NOSIG=




XYE1690 160530 
GG TESTYZYX
160530 ZLXYYMYX
SACI33 ZBTJ 160530
METAR ZBTJ 160530Z 31009MPS 9999 FEW033 00/M22 Q1030 NOSIG=




XYE1691 160530 
GG TESTYZYX
160530 ZLXYYMYX
SACI35 ZGGG 160530
METAR ZGGG 160530Z 04010MPS CAVOK 18/01 Q1026 NOSIG=




XYE1692 160530 
GG TESTYZYX
160530 ZLXYYMYX
SACI34 ZSPD 160530
METAR ZSPD 160530Z 31010G17MPS 270V340 CAVOK 07/M12 Q1030 NOSIG=




XYE1693 160531 
GG TESTYZYX
160531 ZLXYYMYX
SACI34 ZSSS 160530
METAR ZSSS 160530Z 30011MPS CAVOK 07/M14 Q1030 NOSIG=




XYE1694 160531 
GG TESTYZYX
160531 ZLXYYMYX
SACI66 ZUJZ 160530
METAR ZUJZ 160530Z 17002MPS 100V210 9999 OVC050 M05/M17 Q1027 NOSIG=




XYE1695 160531 
GG TESTYZYX
160531 ZLXYYMYX
SACI39 ZWWW 160530
METAR ZWWW 160530Z 33001MPS 2000 BR NSC M16/M19 Q1040 NOSIG=




XYE1696 160532 
GG TESTYZYX
160532 ZLXYYMYX
SACI38 ZYTL 160530
METAR ZYTL 160530Z 33009G14MPS 300V360 9999 BKN026 M04/M17 Q1025
NOSIG=




XYE1697 160534 
GG TESTYZYX
160534 ZLXYYMYX
SPCI44 ZSQD 160532
SPECI ZSQD 160532Z 30008G15MPS 260V320 CAVOK 01/M23 Q1029 WS ALL RWY
NOSIG=




XYE1698 160542 
FF TESTYZYX
160542 ZLXYYMYX
FVFE01 RJTD 160540
VA ADVISORY
DTG: 20141216/0540Z
VAAC: TOKYO
VOLCANO: SAKURAJIMA-WAKAMIKO(AIRA-CALDERA) 282080
PSN: N3136E13039
AREA: JAPAN
SUMMIT ELEV: 1117M
ADVISORY NR: 2014/613
INFO SOURCE: JMA
AVIATION COLOUR CODE: NIL
ERUPTION DETAILS: EXPLODED AT 20141216/0522Z OVER FL040 EXTD SE
OBS VA DTG: 16/0515Z
OBS VA CLD: VA NOT IDENTIFIABLE FM SATELLITE DATA WIND FL180
270/105K
T
FCST VA CLD +6 HR: NO VA EXP
FCST VA CLD +12 HR: NO VA EXP
FCST VA CLD +18 HR: NO VA EXP
RMK: WE WILL ISSUE FURTHER ADVISORY IF VA IS DETECTED IN SATELLITE
IMAGERY.
NXT ADVISORY: NO FURTHER ADVISORIES=




XYE1699 160543 
FF TESTYZYX
160543 ZLXYYMYX
WACI34 ZSSS 160538
ZSHA AIRMET 1 VALID 160600/161000 ZSSS-
ZSHA SHANGHAI FIR MOD TURB FCST
N OF N30 AND E OF E117 FL030 STNR NC =




XYE1700 160550 
FF TESTYZYX
160550 ZLXYYMYX
WVJP31 RJTD 160555
RJJJ SIGMET K02 VALID 160555/161155 RJTD-
RJJJ FUKUOKA FIR VA ERUPTION MT SAKURAJIMA-WAKAMIKO(AIRA-CALDERA)
PSN N3136 E13039 VA CLD OBS AT 0522Z ABV FL040 MOV SE INTST UNKNOWN=




XYE1701 160550 
GG TESTYZYX
160550 ZLXYYMYX
SPCI34 ZSSS 160549
SPECI ZSSS 160549Z 30013G19MPS CAVOK 06/M16 Q1030 NOSIG=




XYE1702 160555 
FF TESTYZYX
160555 ZLXYYMYX
FCCI68 ZYLD 160555 AAA
TAF AMD ZYLD 160555Z 160615 CNL=




XYE1703 160558 
GG TESTYZYX
160558 ZLXYYMYX
SACI73 ZBDT 160600
METAR ZBDT 160600Z 31012MPS 9999 SCT040 M08/M23 Q1027 NOSIG=




XYE1704 160559 
GG TESTYZYX
160559 ZLXYYMYX
SACI67 ZLYA 160600
METAR ZLYA 160600Z 33003MPS CAVOK 00/M23 Q1035 NOSIG=




XYE1705 160600 
GG TESTYZYX
160559 ZLXYYMYX
SACI76 ZPLC 160600
METAR ZPLC 160600Z 16004MPS 120V190 9999 SCT033 16/07 Q1025 NOSIG=




XYE1706 160600 
GG TESTYZYX
160600 ZLXYYMYX
SACI63 ZBMZ 160600
METAR ZBMZ 160600Z 29007MPS CAVOK M18/M23 Q1017 NOSIG=




XYE1707 160600 
GG TESTYZYX
160600 ZLXYYMYX
SACI67 ZLTS 160600
METAR ZLTS 160600Z 25002MPS CAVOK 01/M17 Q1037 NOSIG=




XYE1708 160600 
GG TESTYZYX
160600 ZLXYYMYX
SACI67 ZLYL 160600
METAR ZLYL 160600Z 30009G14MPS 270V330 CAVOK M03/M24 Q1032 NOSIG=




XYE1709 160600 
GG TESTYZYX
160600 ZLXYYMYX
SACI74 ZSYA 160600
METAR ZSYA 160600Z 30010MPS CAVOK 03/M15 Q1033 NOSIG=




XYE1710 160600 
GG TESTYZYX
160600 ZLXYYMYX
SACI63 ZBTL 160600
METAR ZBTL 160600Z 35003MPS CAVOK M13/M21 Q1023 NOSIG=




XYE1711 160600 
GG TESTYZYX
160600 ZLXYYMYX
SACI35 ZGSD 160600
METAR ZGSD 160600Z 01010G16MPS 330V030 CAVOK 18/03 Q1023 NOSIG=




XYE1712 160600 
GG TESTYZYX
160600 ZLXYYMYX
SACI34 ZSHC 160600
METAR ZSHC 160600Z 33007MPS CAVOK 07/M16 Q1032 NOSIG=




XYE1713 160600 
GG TESTYZYX
160600 ZLXYYMYX
SACI75 ZHNY 160600
METAR ZHNY 160600Z 26004MPS CAVOK 08/M17 Q1036 NOSIG=




XYE1714 160600 
GG TESTYZYX
160600 ZLXYYMYX
SACI66 ZUDC 160600
METAR ZUDC 160600Z AUTO 23011MPS 9999 /// ////// 00/M12 Q1027 NOSIG=




XYE1715 160600 
GG TESTYZYX
160600 ZLXYYMYX
SACI73 ZBZJ 160600
METAR ZBZJ 160600Z 30011MPS CAVOK M07/M21 Q1027 NOSIG=




XYE1716 160600 
GG TESTYZYX
160600 ZLXYYMYX
SACI77 ZLXH 160600
METAR ZLXH 160600Z AUTO 10003MPS 040V140 //// ///////// M04/M24
Q1028=




XYE1717 160600 
GG TESTYZYX
160600 ZLXYYMYX
SACI67 ZLHZ 160600
METAR ZLHZ 160600Z 24005MPS 210V270 CAVOK 09/M15 Q1037 NOSIG=




XYE1718 160600 
GG TESTYZYX
160600 ZLXYYMYX
SACI45 ZHYC 160600
METAR ZHYC 160600Z 14004MPS CAVOK 10/M08 Q1037 NOSIG=




XYE1719 160600 
GG TESTYZYX
160600 ZLXYYMYX
SACI86 ZURK 160600
METAR ZURK 160600Z AUTO 04004MPS 010V070 9999 /// ////// 03/M15
Q1018 NOSIG=




XYE1720 160600 
GG TESTYZYX
160600 ZLXYYMYX
SACI65 ZGCD 160600
METAR ZGCD 160600Z 05003MPS CAVOK 08/M14 Q1039 NOSIG=




XYE1721 160600 
GG TESTYZYX
160600 ZLXYYMYX
SACI68 ZYJZ 160600
METAR ZYJZ 160600Z AUTO 34008MPS //// // //// M04/M24 Q1026 NOSIG=




XYE1722 160600 
GG TESTYZYX
160600 ZLXYYMYX
SACI73 ZBSN 160600
METAR ZBSN 160600Z 30009MPS CAVOK M01/M18 Q1028 NOSIG=




XYE1723 160600 
GG TESTYZYX
160600 ZLXYYMYX
SACI33 ZBTJ 160600
METAR ZBTJ 160600Z 30009G15MPS 9999 FEW033 00/M23 Q1029 NOSIG=




XYE1724 160600 
GG TESTYZYX
160600 ZLXYYMYX
SACI35 ZGSZ 160600
METAR ZGSZ 160600Z 36009MPS CAVOK 19/02 Q1024 NOSIG=




XYE1725 160600 
GG TESTYZYX
160600 ZLXYYMYX
SACI68 ZYCY 160600
METAR ZYCY 160600Z 33007MPS 9999 SCT040 M07/M25 Q1025 NOSIG=




XYE1726 160600 
GG TESTYZYX
160600 ZLXYYMYX
SACI64 ZSNT 160600
METAR ZSNT 160600Z 31009MPS CAVOK 04/M14 Q1031 NOSIG=




XYE1727 160600 
GG TESTYZYX
160600 ZLXYYMYX
SACI86 ZUBJ 160600
METAR ZUBJ 160600Z 32003MPS 290V350 9999 SCT010 OVC023 00/M02 Q1034
NO
SIG=




XYE1728 160600 
GG TESTYZYX
160600 ZLXYYMYX
SACI67 ZLZW 160600
METAR ZLZW 160600Z 30004MPS CAVOK 00/M29 Q1035 NOSIG=




XYE1729 160600 
GG TESTYZYX
160600 ZLXYYMYX
SACI37 ZLXN 160600
METAR ZLXN 160600Z 28003MPS 7000 NSC M02/M20 Q1031 NOSIG=




XYE1730 160600 
GG TESTYZYX
160600 ZLXYYMYX
SACI67 ZLDH 160600
METAR ZLDH 160600Z 10002MPS CAVOK M07/M15 Q1039 NOSIG=




XYE1731 160600 
GG TESTYZYX
160600 ZLXYYMYX
SACI37 ZLIC 160600
METAR ZLIC 160600Z 25003MPS 220V290 CAVOK M02/M21 Q1034 NOSIG=




XYE1732 160600 
GG TESTYZYX
160600 ZLXYYMYX
SACI33 ZBAA 160600
METAR ZBAA 160600Z 30010MPS CAVOK M00/M20 Q1030 NOSIG=




XYE1733 160600 
GG TESTYZYX
160600 ZLXYYMYX
SACI33 ZBYN 160600
METAR ZBYN 160600Z 29008MPS CAVOK M02/M24 Q1031 NOSIG=




XYE1734 160600 
GG TESTYZYX
160600 ZLXYYMYX
SACI35 ZGKL 160600
METAR ZGKL 160600Z 06007MPS 020V080 CAVOK 14/M11 Q1032 NOSIG=




XYE1735 160600 
GG TESTYZYX
160600 ZLXYYMYX
SACI35 ZGGG 160600
METAR ZGGG 160600Z 03011MPS CAVOK 18/01 Q1026 NOSIG=




XYE1736 160600 
GG TESTYZYX
160600 ZLXYYMYX
SACI35 ZGOW 160600
METAR ZGOW 160600Z 36006MPS 330V030 CAVOK 18/03 Q1024 NOSIG=




XYE1737 160600 
GG TESTYZYX
160600 ZLXYYMYX
SACI34 ZSAM 160600
METAR ZSAM 160600Z 02005MPS CAVOK 19/03 Q1024 NOSIG=




XYE1738 160600 
GG TESTYZYX
160600 ZLXYYMYX
SACI34 ZSSS 160600
METAR ZSSS 160600Z 30011G16MPS 270V340 CAVOK 06/M15 Q1030 NOSIG=




XYE1739 160600 
GG TESTYZYX
160600 ZLXYYMYX
SACI78 ZYFY 160600
METAR ZYFY 160600Z AUTO 02004MPS 9999 /// ////// M22/M27 Q1016
NOSIG=




XYE1740 160601 
GG TESTYZYX
160600 ZLXYYMYX
SACI33 ZBSJ 160600
METAR ZBSJ 160600Z 01004MPS 320V040 CAVOK 02/M21 Q1031 NOSIG=




XYE1741 160601 
GG TESTYZYX
160600 ZLXYYMYX
SACI36 ZUUU 160600
METAR ZUUU 160600Z VRB01MPS CAVOK 11/M09 Q1037 NOSIG=




XYE1742 160601 
GG TESTYZYX
160600 ZLXYYMYX
SACI77 ZLDL 160600
METAR ZLDL 160600Z AUTO VRB01MPS 9999 // ////// M06/M31 Q1030=




XYE1743 160601 
GG TESTYZYX
160600 ZLXYYMYX
SACI77 ZLZY 160600
METAR ZLZY 160600Z 00000MPS CAVOK 02/M30 Q1033 NOSIG=




XYE1744 160601 
GG TESTYZYX
160600 ZLXYYMYX
SACI37 ZLXY 160600
METAR ZLXY 160600Z 24004MPS 190V280 CAVOK 05/M19 Q1038 NOSIG=




XYE1745 160601 
GG TESTYZYX
160600 ZLXYYMYX
SACI63 ZBLA 160600
METAR ZBLA 160600Z 35002MPS CAVOK M26/M29 Q1017 NOSIG=




XYE1746 160601 
GG TESTYZYX
160600 ZLXYYMYX
SACI76 ZPTC 160600
METAR ZPTC 160600Z 23002MPS 160V260 CAVOK 16/05 Q1025 NOSIG=




XYE1747 160601 
GG TESTYZYX
160600 ZLXYYMYX
SACI73 ZBLL 160600
METAR ZBLL 160600Z 31009MPS 270V340 CAVOK M07/M21 Q1032 NOSIG=




XYE1748 160601 
GG TESTYZYX
160600 ZLXYYMYX
SACI35 ZJSY 160600
METAR ZJSY 160600Z 10008MPS 8000 BKN050 25/15 Q1018 NOSIG=




XYE1749 160601 
GG TESTYZYX
160600 ZLXYYMYX
SACI75 ZGHC 160600
METAR ZGHC 160600Z AUTO 35005MPS 320V020 9999 // ////// 13/M04
Q1030=




XYE1750 160601 
GG TESTYZYX
160600 ZLXYYMYX
SACI34 ZSWZ 160600
METAR ZSWZ 160600Z 30006MPS 7000 NSC 13/M09 Q1027 NOSIG=




XYE1751 160601 
GG TESTYZYX
160600 ZLXYYMYX
SACI68 ZYDQ 160600
METAR ZYDQ 160600Z 32006MPS CAVOK M20/M23 Q1021 NOSIG=




XYE1752 160601 
GG TESTYZYX
160600 ZLXYYMYX
SACI45 ZHCC 160600
METAR ZHCC 160600Z 29009G14MPS 260V320 CAVOK 05/M22 Q1034 NOSIG=




XYE1753 160601 
GG TESTYZYX
160600 ZLXYYMYX
SACI69 ZWTC 160600
METAR ZWTC 160600Z 02003MPS CAVOK M08/M18 Q1034 NOSIG=




XYE1754 160601 
GG TESTYZYX
160600 ZLXYYMYX
SACI68 ZYBS 160600
METAR ZYBS 160600Z 31004MPS 270V010 6000 FEW004 SCT016 M17/M21 Q1009
NOSIG=




XYE1755 160601 
GG TESTYZYX
160600 ZLXYYMYX
SACI34 ZSPD 160600
METAR ZSPD 160600Z 31013G18MPS CAVOK 06/M12 Q1030 NOSIG=




XYE1756 160601 
GG TESTYZYX
160600 ZLXYYMYX
SACI45 ZGHA 160600
METAR ZGHA 160600Z 34009MPS CAVOK 12/M16 Q1036 NOSIG=




XYE1757 160601 
GG TESTYZYX
160600 ZLXYYMYX
SACI35 ZJHK 160600
METAR ZJHK 160600Z 36006MPS 8000 SCT030 18/11 Q1023 NOSIG=




XYE1758 160601 
GG TESTYZYX
160600 ZLXYYMYX
SACI66 ZUYB 160600
METAR ZUYB 160600Z VRB02MPS CAVOK 09/M04 Q1038 NOSIG=




XYE1759 160601 
GG TESTYZYX
160600 ZLXYYMYX
SACI39 ZWTN 160600
METAR ZWTN 160600Z 00000MPS CAVOK M06/M12 Q1037 NOSIG=




XYE1760 160601 
GG TESTYZYX
160600 ZLXYYMYX
SACI75 ZHXF 160600
METAR ZHXF 160600Z 35006MPS CAVOK 11/M11 Q1037 NOSIG=




XYE1761 160601 
GG TESTYZYX
160600 ZLXYYMYX
SACI67 ZLGM 160600
METAR ZLGM 160600Z VRB01MPS 9999 FEW100 M09/M25 Q1030 NOSIG=




XYE1762 160601 
GG TESTYZYX
160600 ZLXYYMYX
SACI63 ZBUH 160600
METAR ZBUH 160600Z 28006MPS CAVOK M04/M24 Q1034 NOSIG=




XYE1763 160601 
GG TESTYZYX
160601 ZLXYYMYX
SACI33 ZBHH 160600
METAR ZBHH 160600Z 30009MPS 9999 FEW040 M07/M19 Q1028 NOSIG=




XYE1764 160601 
GG TESTYZYX
160601 ZLXYYMYX
SACI44 ZSXZ 160600
METAR ZSXZ 160600Z 28007MPS 240V330 CAVOK 03/M17 Q1033 NOSIG=




XYE1765 160601 
GG TESTYZYX
160601 ZLXYYMYX
SACI36 ZUBD 160600
METAR ZUBD 160600Z AUTO 20006MPS 160V260 9999 /// ////// 02/M19
Q1025 NOSIG=




XYE1766 160601 
GG TESTYZYX
160601 ZLXYYMYX
SACI35 ZGNN 160600
METAR ZGNN 160600Z 36006MPS CAVOK 17/04 Q1027 NOSIG=




XYE1767 160601 
GG TESTYZYX
160601 ZLXYYMYX
SACI44 ZSLG 160600
METAR ZSLG 160600Z 29005MPS CAVOK 03/M17 Q1031 NOSIG=




XYE1768 160601 
GG TESTYZYX
160601 ZLXYYMYX
SACI34 ZSNB 160600
METAR ZSNB 160600Z 30012MPS CAVOK 07/M12 Q1030 NOSIG=




XYE1769 160601 
GG TESTYZYX
160601 ZLXYYMYX
SACI68 ZYAS 160600
METAR ZYAS 160600Z 36004MPS 9999 FEW040 M09/M16 Q1025=




XYE1770 160601 
GG TESTYZYX
160601 ZLXYYMYX
SACI34 ZSOF 160600
METAR ZSOF 160600Z 31008MPS 280V340 CAVOK 05/M15 Q1035 NOSIG=




XYE1771 160601 
GG TESTYZYX
160601 ZLXYYMYX
SACI39 ZWSH 160600
METAR ZWSH 160600Z 00000MPS 6000 FEW040 M04/M11 Q1038 NOSIG=




XYE1772 160601 
GG TESTYZYX
160601 ZLXYYMYX
SACI45 ZHHH 160600
METAR ZHHH 160600Z 32004MPS 280V010 CAVOK 08/M14 Q1037 NOSIG=




XYE1773 160601 
GG TESTYZYX
160601 ZLXYYMYX
SACI78 ZYTN 160600
METAR ZYTN 160600Z 29003MPS 230V330 9999 SCT030 M13/M19 Q1017=




XYE1774 160601 
GG TESTYZYX
160601 ZLXYYMYX
SACI44 ZSJN 160600
METAR ZSJN 160600Z 30007G12MPS 270V330 CAVOK 02/M22 Q1031 NOSIG=




XYE1775 160601 
GG TESTYZYX
160601 ZLXYYMYX
SACI38 ZYHB 160600
METAR ZYHB 160600Z 32005MPS 290V350 4000 BR NSC M21/M24 Q1020 NOSIG=




XYE1776 160601 
GG TESTYZYX
160601 ZLXYYMYX
SACI44 ZSCN 160600
METAR ZSCN 160600Z 35006G11MPS 290V020 CAVOK 09/M14 Q1035 NOSIG=




XYE1777 160601 
GG TESTYZYX
160601 ZLXYYMYX
SACI69 ZWAK 160600
METAR ZWAK 160600Z 26003MPS 7000 NSC M07/M13 Q1040 NOSIG=




XYE1778 160601 
GG TESTYZYX
160601 ZLXYYMYX
SACI44 ZSQD 160600
METAR ZSQD 160600Z 31009G14MPS CAVOK 00/M24 Q1029 NOSIG=




XYE1779 160601 
GG TESTYZYX
160601 ZLXYYMYX
SACI65 ZGLG 160600
METAR ZGLG 160600Z 02005MPS CAVOK 12/M16 Q1035 NOSIG=




XYE1780 160601 
GG TESTYZYX
160601 ZLXYYMYX
SACI64 ZSJU 160600
METAR ZSJU 160600Z 25009MPS CAVOK 11/M13 Q1031 NOSIG=




XYE1781 160601 
GG TESTYZYX
160601 ZLXYYMYX
SACI73 ZBCZ 160600
METAR ZBCZ 160600Z 33009MPS 290V350 CAVOK M02/M24 Q1030 NOSIG=




XYE1782 160601 
GG TESTYZYX
160601 ZLXYYMYX
SACI37 ZLLL 160600
METAR ZLLL 160600Z 18004MPS 150V220 CAVOK M04/M18 Q1032 NOSIG=




XYE1783 160601 
GG TESTYZYX
160601 ZLXYYMYX
SACI67 ZLJC 160600
METAR ZLJC 160600Z VRB02MPS CAVOK M01/M25 Q1035 NOSIG=




XYE1784 160601 
GG TESTYZYX
160601 ZLXYYMYX
SACI38 ZYTX 160600
METAR ZYTX 160600Z 31005MPS CAVOK M10/M20 Q1024 NOSIG=




XYE1785 160601 
GG TESTYZYX
160601 ZLXYYMYX
SACI63 ZBXH 160600
METAR ZBXH 160600Z 28008MPS CAVOK M15/M22 Q1021 NOSIG=




XYE1786 160601 
GG TESTYZYX
160601 ZLXYYMYX
SACI86 ZUKJ 160600
METAR ZUKJ 160600Z 04003MPS 360V060 CAVOK 07/M07 Q1033 NOSIG=




XYE1787 160601 
GG TESTYZYX
160601 ZLXYYMYX
SACI69 ZWAT 160600
METAR ZWAT 160600Z 15001MPS CAVOK M13/M22 Q1037 NOSIG=




XYE1788 160601 
GG TESTYZYX
160601 ZLXYYMYX
SACI65 ZGZJ 160600
METAR ZGZJ 160600Z 35007MPS 320V050
CAVOK
18/06 Q1023
NOSIG=




XYE1789 160602 
GG TESTYZYX
160601 ZLXYYMYX
SACI89 ZWHM 160600
METAR ZWHM 160600Z 21002MPS 170V260 CAVOK M06/M17 Q1041 NOSIG=




XYE1790 160602 
GG TESTYZYX
160601 ZLXYYMYX
SACI68 ZYJX 160600
METAR ZYJX 160600Z 35007G12MPS CAVOK M16/M21 Q1013 NOSIG=




XYE1791 160602 
GG TESTYZYX
160601 ZLXYYMYX
SACI69 ZWBL 160600
METAR ZWBL 160600Z 13002MPS 2500 BR NSC M17/M20 Q1043 NOSIG=




XYE1792 160602 
GG TESTYZYX
160601 ZLXYYMYX
SACI68 ZYMD 160600
METAR ZYMD 160600Z 29005MPS CAVOK M14/M21 Q1012 NOSIG=




XYE1793 160602 
GG TESTYZYX
160601 ZLXYYMYX
SACI65 ZGCJ 160600
METAR ZGCJ 160600Z 02005MPS 350V050 9999 FEW050 12/M09 Q1035
NOSIG=




XYE1794 160602 
GG TESTYZYX
160601 ZLXYYMYX
SACI73 ZBYC 160600
METAR ZBYC 160600Z 24005MPS CAVOK 04/M22 Q1038 NOSIG=




XYE1795 160602 
GG TESTYZYX
160601 ZLXYYMYX
SACI65 ZGMX 160600
METAR ZGMX 160600Z 33007MPS CAVOK 17/M03 Q1026 NOSIG=




XYE1796 160602 
GG TESTYZYX
160601 ZLXYYMYX
SACI73 ZBSH 160600
METAR ZBSH 160600Z 31007MPS CAVOK M02/M25 Q1026 NOSIG=




XYE1797 160602 
GG TESTYZYX
160601 ZLXYYMYX
SACI34 ZSLQ 160600
METAR ZSLQ 160600Z 33007MPS CAVOK 10/M13 Q1028 NOSIG=




XYE1798 160602 
GG TESTYZYX
160601 ZLXYYMYX
SACI45 ZHLY 160600
METAR ZHLY 160600Z 28010MPS CAVOK 05/M22 Q1035 NOSIG=




XYE1799 160602 
GG TESTYZYX
160601 ZLXYYMYX
SACI75 ZHSN 160600
METAR ZHSN 160600Z 28010G15MPS 220V300 CAVOK M08/M24 Q1028 NOSIG=




XYE1800 160602 
GG TESTYZYX
160601 ZLXYYMYX
SACI63 ZBES 160600
METAR ZBES 160600Z 26004MPS CAVOK M23/M27 Q1014 NOSIG=




XYE1801 160602 
GG TESTYZYX
160601 ZLXYYMYX
SACI36 ZUXC 160600
METAR ZUXC 160600Z 03002MPS 350V070 9999 OVC040 07/M02 Q1028 NOSIG=




XYE1802 160602 
GG TESTYZYX
160601 ZLXYYMYX
SACI68 ZYDD 160600
METAR ZYDD 160600Z 32006MPS CAVOK M06/M20 Q1023 NOSIG=




XYE1803 160602 
GG TESTYZYX
160601 ZLXYYMYX
SACI34 ZSFZ 160600
METAR ZSFZ 160600Z 07007MPS CAVOK 16/04 Q1025 NOSIG=




XYE1804 160602 
GG TESTYZYX
160601 ZLXYYMYX
SACI36 ZPPP 160600
METAR ZPPP 160600Z 05005MPS 9999 BKN016 OVC033 02/M01 Q1030 NOSIG=




XYE1805 160602 
GG TESTYZYX
160601 ZLXYYMYX
SACI38 ZYCC 160600
METAR ZYCC 160600Z 30003MPS 260V340 2000 -SN BR SCT010 OVC020
M17/M21 Q1020 BECMG TL0730 3000=




XYE1806 160602 
GG TESTYZYX
160601 ZLXYYMYX
SACI36 ZUGY 160600
METAR ZUGY 160600Z 02004MPS 9999 OVC043 05/M02 Q1033 NOSIG=




XYE1807 160602 
GG TESTYZYX
160601 ZLXYYMYX
SACI63 ZBCF 160600
METAR ZBCF 160600Z 29009MPS 270V330 9999 FEW040 M10/M27 Q1022 NOSIG=




XYE1808 160602 
GG TESTYZYX
160601 ZLXYYMYX
SACI76 ZPSM 160600
METAR ZPSM 160600Z 20004MPS 150V240 9999 SCT026 22/10 Q1023 NOSIG=




XYE1809 160602 
GG TESTYZYX
160601 ZLXYYMYX
SACI35 ZGZH 160600
METAR ZGZH 160600Z 01006MPS CAVOK 16/M09 Q1030 NOSIG=




XYE1810 160602 
GG TESTYZYX
160601 ZLXYYMYX
SACI36 ZUCK 160600
METAR ZUCK 160600Z 26003MPS 230V320 9999 -RA SCT030 06/01 Q1037
NOSIG=




XYE1811 160602 
GG TESTYZYX
160601 ZLXYYMYX
SACI34 ZSNJ 160600
METAR ZSNJ 160600Z 31006G11MPS 270V330 CAVOK 05/M16 Q1034 NOSIG=




XYE1812 160602 
GG TESTYZYX
160601 ZLXYYMYX
SACI68 ZYLD 160600
METAR ZYLD 160600Z AUTO 26005MPS 9999 // ////// M22/M26 Q1015=




XYE1813 160602 
GG TESTYZYX
160601 ZLXYYMYX
SACI69 ZWYN 160600
METAR ZWYN 160600Z VRB01MPS CAVOK M02/M15 Q1033 NOSIG=




XYE1814 160602 
GG TESTYZYX
160601 ZLXYYMYX
SACI39 ZWWW 160600
METAR ZWWW 160600Z VRB01MPS 2500 BR NSC M16/M19 Q1039 NOSIG=




XYE1815 160602 
GG TESTYZYX
160601 ZLXYYMYX
SACI63 ZBER 160600
METAR ZBER 160600Z 30010MPS CAVOK M11/M22 Q1026 NOSIG=




XYE1816 160602 
GG TESTYZYX
160601 ZLXYYMYX
SACI67 ZLGY 160600
METAR ZLGY 160600Z 33007MPS CAVOK M03/M21 Q1033 NOSIG=




XYE1817 160602 
GG TESTYZYX
160601 ZLXYYMYX
SACI86 ZUQJ 160600
METAR ZUQJ 160600Z 19002MPS 130V270 6000 SCT050 10/01 Q1034 NOSIG=




XYE1818 160602 
GG TESTYZYX
160601 ZLXYYMYX
SACI74 ZSGZ 160600
METAR ZSGZ 160600Z 01004MPS 7000 NSC 13/M05 Q1031 NOSIG=




XYE1819 160602 
GG TESTYZYX
160601 ZLXYYMYX
SACI78 ZYJD 160600
METAR ZYJD 160600Z 31003MPS CAVOK M21/M27 Q1017 NOSIG=




XYE1820 160602 
GG TESTYZYX
160601 ZLXYYMYX
SACI39 ZWKM 160600
METAR ZWKM 160600Z VRB02MPS 6000 -SG BKN010 M19/M22 Q1045 NOSIG=




XYE1821 160602 
GG TESTYZYX
160601 ZLXYYMYX
SACI66 ZUZH 160600
METAR ZUZH 160600Z 06002MPS 040V100 9999 SCT021 OVC050 05/00
Q1027 NOSIG=




XYE1822 160602 
GG TESTYZYX
160601 ZLXYYMYX
SACI86 ZUPS 160600
METAR ZUPS 160600Z 04005MPS 9999 SCT011 OVC030 M03/M03 Q1033 NOSIG=




XYE1823 160602 
GG TESTYZYX
160601 ZLXYYMYX
SACI66 ZUNC 160600
METAR ZUNC 160600Z 00000MPS CAVOK 10/M13 Q1037 NOSIG=




XYE1824 160602 
GG TESTYZYX
160601 ZLXYYMYX
SACI68 ZYMH 160600
METAR ZYMH 160600Z 26003MPS CAVOK M24/M29 Q1016 NOSIG=




XYE1825 160602 
GG TESTYZYX
160601 ZLXYYMYX
SACI86 ZUNP 160600
METAR ZUNP 160600Z 01006MPS 340V050 8000 FEW050 11/M06 Q1033 NOSIG=




XYE1826 160602 
GG TESTYZYX
160602 ZLXYYMYX
SACI66 ZUMY 160600 RRA
METAR ZUMY 160600Z VRB01MPS CAVOK 08/M11 Q1037 NOSIG=




XYE1827 160602 
GG TESTYZYX
160602 ZLXYYMYX
SACI74 ZSJD 160600
METAR ZSJD 160600Z 29003MPS 240V330 CAVOK 09/M16 Q1034 NOSIG=




XYE1828 160602 
GG TESTYZYX
160602 ZLXYYMYX
SACI69 ZWKL 160600
METAR ZWKL 160600Z VRB02MPS CAVOK M08/M14 Q1042 NOSIG=




XYE1829 160602 
GG TESTYZYX
160602 ZLXYYMYX
SACI38 ZYTL 160600
METAR ZYTL 160600Z 32010G16MPS 280V360 9999 BKN026 M04/M17 Q1025
NOSIG=




XYE1830 160602 
GG TESTYZYX
160602 ZLXYYMYX
SACI68 ZYYJ 160600
METAR ZYYJ 160600Z 29010MPS CAVOK M10/M18 Q1013 NOSIG=




XYE1831 160602 
GG TESTYZYX
160602 ZLXYYMYX
SACI76 ZPZT 160600
METAR ZPZT 160600Z 11003MPS 9999 -SN SCT010 OVC016 M02/M04 Q1034
NOSIG=




XYE1832 160602 
GG TESTYZYX
160602 ZLXYYMYX
SACI76 ZPJH 160600
METAR ZPJH 160600Z 18004MPS 150V210 9999 SCT023 25/17 Q1019 NOSIG=




XYE1833 160602 
GG TESTYZYX
160602 ZLXYYMYX
SACI68 ZYHE 160600
METAR ZYHE 160600Z 36003MPS CAVOK M23/M29 Q1017 NOSIG=




XYE1834 160602 
GG TESTYZYX
160602 ZLXYYMYX
SACI64 ZSSH 160600
METAR ZSSH 160600Z 32008MPS 290V350 CAVOK 02/M18 Q1032 NOSIG=




XYE1835 160602 
GG TESTYZYX
160602 ZLXYYMYX
SACI63 ZBUL 160600
METAR ZBUL 160600Z 31003MPS 270V340 CAVOK M14/M25 Q1019 NOSIG=




XYE1836 160602 
GG TESTYZYX
160602 ZLXYYMYX
SACI89 ZWKC 160600
METAR ZWKC 160600Z 11001MPS 4000 FU NSC M06/M14 Q1041 NOSIG=




XYE1837 160602 
GG TESTYZYX
160602 ZLXYYMYX
SACI67 ZLJQ 160600
METAR ZLJQ 160600Z 11003MPS CAVOK M03/M25 Q1034 NOSIG=




XYE1838 160602 
GG TESTYZYX
160602 ZLXYYMYX
SACI64 ZSWX 160600
METAR ZSWX 160600Z 32010MPS CAVOK 05/M19 Q1032 NOSIG=




XYE1839 160602 
GG TESTYZYX
160602 ZLXYYMYX
SACI73 ZBYZ 160600
METAR ZBYZ 160600Z 28006MPS 260V320 CAVOK M05/M22 Q1033 NOSIG=




XYE1840 160603 
GG TESTYZYX
160603 ZLXYYMYX
SACI65 ZGBH 160600
METAR ZGBH 160600Z 01007MPS 9999 BKN040 16/02 Q1024 NOSIG=




XYE1841 160603 
GG TESTYZYX
160603 ZLXYYMYX
SACI45 ZGDY 160600
METAR ZGDY 160600Z VRB01MPS CAVOK 09/M12 Q1036 NOSIG=




XYE1842 160603 
GG TESTYZYX
160603 ZLXYYMYX
SACI86 ZUAS 160600
METAR ZUAS 160600Z 04005MPS 9999 FEW007 BKN009 OVC023 01/01 Q1033
NOSIG=




XYE1843 160603 
GG TESTYZYX
160603 ZLXYYMYX
SACI86 ZUNZ 160600
METAR ZUNZ 160600Z AUTO 16007MPS 9999 /// ////// 06/M05 Q1023 NOSIG=




XYE1844 160603 
GG TESTYZYX
160603 ZLXYYMYX
SACI64 ZSTX 160600
METAR ZSTX 160600Z 07006MPS CAVOK 08/M11 Q1033 NOSIG=




XYE1845 160603 
GG TESTYZYX
160603 ZLXYYMYX
SACI66 ZUJZ 160600
METAR ZUJZ 160600Z VRB02MPS 9999 OVC050 M05/M18 Q1027 NOSIG=




XYE1846 160603 
GG TESTYZYX
160603 ZLXYYMYX
SACI76 ZPWS 160600
METAR ZPWS 160600Z AUTO 03004MPS 350V050 //// // ///////// 03/01
Q1030=




XYE1847 160603 
GG TESTYZYX
160603 ZLXYYMYX
SACI63 ZBOW 160600
METAR ZBOW 160600Z 31010G15MPS CAVOK M06/M21 Q1031 NOSIG=




XYE1848 160603 
GG TESTYZYX
160603 ZLXYYMYX
SACI66 ZULZ 160600
METAR ZULZ 160600Z 00000MPS CAVOK 09/M04 Q1038 NOSIG=
=




XYE1849 160603 
GG TESTYZYX
160603 ZLXYYMYX
SACI44 ZSYT 160600
METAR ZSYT 160600Z 30008MPS 280V340 9999 -SHSN SCT033 M03/M09 Q1027
NOSIG=




XYE1850 160603 
GG TESTYZYX
160603 ZLXYYMYX
SACI76 ZPMS 160600
METAR ZPMS 160600Z VRB01MPS 9999 FEW040 22/10 Q1020 NOSIG=




XYE1851 160603 
GG TESTYZYX
160603 ZLXYYMYX
SACI86 ZUYI 160600
METAR ZUYI 160600Z 02004MPS 340V060 9999 SCT015 OVC040 06/02 Q1032
NOS
IG=




XYE1852 160604 
GG TESTYZYX
160603 ZLXYYMYX
SACI76 ZPLJ 160600
METAR ZPLJ 160600Z 27002MPS 220V320 9999 BKN040 15/01 Q1023 NOSIG=




XYE1853 160604 
GG TESTYZYX
160603 ZLXYYMYX
SACI68 ZYJM 160600
METAR ZYJM 160600Z 30001MPS 6000 NSC M19/M24 Q1017 NOSIG=




XYE1854 160604 
GG TESTYZYX
160603 ZLXYYMYX
SACI66 ZUDX 160600
METAR ZUDX 160600Z 22003MPS 140V280 CAVOK 12/M13 Q1036 NOSIG=




XYE1855 160604 
GG TESTYZYX
160604 ZLXYYMYX
SACI67 ZLYS 160600
METAR ZLYS 160600Z 12002MPS 9000 -SN SCT033 OVC060 M05/M08 Q1025
NOSIG=




XYE1856 160604 
GG TESTYZYX
160604 ZLXYYMYX
SACI76 ZPDQ 160600
METAR ZPDQ 160600Z 23006MPS 190V270 9999 SCT026 07/M09 Q1029 NOSIG=




XYE1857 160604 
GG TESTYZYX
160604 ZLXYYMYX
SACI64 ZSFY 160600
METAR ZSFY 160600Z 30006MPS 260V010 CAVOK 05/M16 Q1035 NOSIG=




XYE1858 160604 
GG TESTYZYX
160604 ZLXYYMYX
SACI74 ZSDY 160600
METAR ZSDY 160600Z AUTO 31009G14MPS//// // ////// 00/M23 Q1029
NOSIG=




XYE1859 160604 
GG TESTYZYX
160604 ZLXYYMYX
SACI75 ZHES 160600
METAR ZHES 160600Z 00000MPS CAVOK 12/M04 Q1033 NOSIG=




XYE1860 160604 
GG TESTYZYX
160604 ZLXYYMYX
SACI64 ZSYW 160600
METAR ZSYW 160600Z 35003MPS CAVOK 09/M16 Q1030 NOSIG=




XYE1861 160604 
GG TESTYZYX
160604 ZLXYYMYX
SACI44 ZSCG 160600
METAR ZSCG 160600Z 34008MPS CAVOK 04/M18 Q1033 NOSIG=




XYE1862 160604 
GG TESTYZYX
160604 ZLXYYMYX
SACI63 ZBDS 160600
METAR ZBDS 160600Z 32012G16MPS CAVOK M06/M23 Q1029 NOSIG=




XYE1863 160604 
GG TESTYZYX
160604 ZLXYYMYX
SACI86 ZUTR 160600
METAR ZUTR 160600Z 06002MPS 9999 BKN040 06/M12 Q1035 NOSIG=




XYE1864 160604 
GG TESTYZYX
160604 ZLXYYMYX
SACI86 ZUWX 160600
METAR ZUWX 160600Z 21003MPS 170V240 CAVOK 09/03 Q1035 NIOSIG=
=




XYE1865 160604 
GG TESTYZYX
160604 ZLXYYMYX
SACI74 ZSJG 160600
METAR ZSJG 160600Z 31007MPS CAVOK 04/M16 Q1033 NOSIG=




XYE1866 160604 
GG TESTYZYX
160604 ZLXYYMYX
SACI66 ZUGU 160600
METAR ZUGU 160600Z VRB01MPS CAVOK 08/M17 Q1036 NOSIG=




XYE1867 160604 
GG TESTYZYX
160604 ZLXYYMYX
SACI74 ZSWY 160600
METAR ZSWY 160600Z 01008MPS CAVOK 11/M09 Q1030 NOSIG=




XYE1868 160605 
FF TESTYZYX
160605 ZLXYYMYX
SACI68 ZYQQ 160600 CCA
METAR COR ZYQQ 160600Z 32003MPS CAVOK M18/M24 Q1020 NOSIG=




XYE1869 160605 
GG TESTYZYX
160605 ZLXYYMYX
SACI65 ZGBS 160600
METAR ZGBS 160600Z VRB01MPS 9999 FEW040 19/01 Q1029 NOSIG=




XYE1870 160605 
GG TESTYZYX
160605 ZLXYYMYX
SACI64 ZSJH 160600
METAR ZSJH 160600Z 29003MPS 220V340 CAVOK 07/M13 Q1035 NOSIG=




XYE1871 160605 
GG TESTYZYX
160605 ZLXYYMYX
SACI36 ZUAL 160600
METAR ZUAL 160600Z AUTO 32006MPS 300V360 9999 /// ////// M07/M25
Q1028 NOSIG=




XYE1872 160605 
GG TESTYZYX
160605 ZLXYYMYX
SACI76 ZPDL 160600
METAR ZPDL 160600Z 22007MPS 9999 BKN050 14/04 Q1024 NOSIG=




XYE1873 160605 
GG TESTYZYX
160605 ZLXYYMYX
SACI73 ZBHD 160600 RRA
METAR ZBHD 160600Z 29008MPS CAVOK 05/M23 Q1031 NOSIG=




XYE1874 160605 
GG TESTYZYX
160605 ZLXYYMYX
SACI74 ZSYC 160600
METAR ZSYC 160600Z 31003MPS 270V040 CAVOK 11/M12 Q1034 NOSIG=




XYE1875 160605 
FF TESTYZYX
160605 ZLXYYMYX
FVFE01 RJTD 160604
VA ADVISORY
DTG: 20141216/0604Z
VAAC: TOKYO
VOLCANO: ASOSAN 282110
PSN: N3253E13106
AREA: JAPAN
SUMMIT ELEV: 1592M
ADVISORY NR: 2014/108
INFO SOURCE: JMA
AVIATION COLOUR CODE: NIL
ERUPTION DETAILS: ACTIVITY CONT. VA CLD UNKNOWN AT 20141216/0600Z
OBS VA DTG: 16/0515Z
OBS VA CLD: VA NOT IDENTIFIABLE FM SATELLITE DATA WIND FL180
270/105K
T
FCST VA CLD +6 HR: NO VA EXP
FCST VA CLD +12 HR: NO VA EXP
FCST VA CLD +18 HR: NO VA EXP
RMK: WE WILL ISSUE FURTHER ADVISORY IF VA IS DETECTED IN SATELLITE
IMAGERY.
NXT ADVISORY: NO FURTHER ADVISORIES=




XYE1876 160605 
GG TESTYZYX
160605 ZLXYYMYX
SACI64 ZSZS 160600
METAR ZSZS 160600Z 32009G14MPS 280V350 CAVOK 07/M010 Q1029 NOSIG=




XYE1877 160605 
GG TESTYZYX
160605 ZLXYYMYX
SACI65 ZGWZ 160600
METAR ZGWZ 160600Z 04006G11MPS 360V090 CAVOK 17/M03 Q1028 NOSIG=




XYE1878 160605 
GG TESTYZYX
160605 ZLXYYMYX
SACI86 ZUZY 160600
METAR ZUZY 160600Z 19002MPS 130V210 9999 SCT015 OVC030 05/03 Q1035
NOS
IG=




XYE1879 160606 
GG TESTYZYX
160606 ZLXYYMYX
SACI36 ZULS 160600
METAR ZULS 160600Z 06007MPS 9999 SCT050 06/M11 Q1020 NOSIG=




XYE1880 160606 
GG TESTYZYX
160606 ZLXYYMYX
SACI67 ZLQY 160600
METAR ZLQY 160600Z 32004MPS CAVOK M01/M22 Q1034 NOSIG=




XYE1881 160606 
GG TESTYZYX
160606 ZLXYYMYX
SACI74 ZSLO 160600
METAR ZSLO 160600Z 01005G10MPS 6000 NSC 13/M05 Q1029 NOSIG=




XYE1882 160607 
GG TESTYZYX
160607 ZLXYYMYX
SACI74 ZSGS 160600
METAR ZSGS 160600Z 02004MPS 340V040 8000 NSC 11/M06 Q1033 NOSIG=




XYE1883 160607 
GG TESTYZYX
160607 ZLXYYMYX
SACI44 ZSWH 160600
METAR ZSWH 160600Z 33009MPS 9999 FEW010 SCT020 M03/M08 Q1025
NOSIG=




XYE1884 160607 
GG TESTYZYX
160607 ZLXYYMYX
SACI66 ZUGH 160600
METAR ZUGH 160600Z 23002MPS CAVOK 11/M09 Q1037 NOSIG=




XYE1885 160607 
GG TESTYZYX
160607 ZLXYYMYX
SACI44 ZSWF 160600
METAR ZSWF 160600Z 32009MPS CAVOK 01/M23 Q1029 NOSIG=




XYE1886 160607 
GG TESTYZYX
160607 ZLXYYMYX
SACI74 ZSQZ 160600
METAR ZSQZ 160600Z 01004MPS CAVOK 17/04 Q1024 NOSIG=




XYE1887 160607 
GG TESTYZYX
160607 ZLXYYMYX
SACI76 ZPBS 160600
METAR ZPBS 160600Z 36002MPS 9999 SCT030 18/04 Q1023 NOSIG=




XYE1888 160607 
GG TESTYZYX
160607 ZLXYYMYX
SACI74 ZSLY 160600
METAR ZSLY 160600Z 29009MPS 250V320 CAVOK 02/M20 Q1031 NOSIG=




XYE1889 160608 
GG TESTYZYX
160607 ZLXYYMYX
SACI64 ZSYN 160600
METAR ZSYN 160600Z 31008MPS 280V340 CAVOK 03/M18 Q1031 NOSIG=




XYE1890 160610 
FF TESTYZYX
160610 ZLXYYMYX
FVFE01 RJTD 160609
VA ADVISORY
DTG: 20141216/0609Z
VAAC: TOKYO
VOLCANO: SAKURAJIMA-WAKAMIKO(AIRA-CALDERA) 282080
PSN: N3136E13039
AREA: JAPAN
SUMMIT ELEV: 1117M
ADVISORY NR: 2014/614
INFO SOURCE: JMA
AVIATION COLOUR CODE: NIL
ERUPTION DETAILS: EXPLODED AT 20141216/0552Z FL060 EXTD SE
OBS VA DTG: 16/0515Z
OBS VA CLD: VA NOT IDENTIFIABLE FM SATELLITE DATA WIND FL060
290/48KT
FCST VA CLD +6 HR: NO VA EXP
FCST VA CLD +12 HR: NO VA EXP
FCST VA CLD +18 HR: NO VA EXP
RMK: WE WILL ISSUE FURTHER ADVISORY IF VA IS DETECTED IN SATELLITE
IMAGERY.
NXT ADVISORY: NO FURTHER ADVISORIES=




XYE1891 160613 
GG TESTYZYX
160612 ZLXYYMYX
SACI73 ZBAL 160600
METAR ZBAL 160600Z 30003MPS 270V350 CAVOK M04/M24 Q1035 NOSIG=




XYE1892 160617 
FF TESTYZYX
160617 ZLXYYMYX
WVJP31 RJTD 160620
RJJJ SIGMET C03 VALID 160620/161220 RJTD-
RJJJ FUKUOKA FIR VA MT ASOSAN PSN N3253 E13106 VA CLD OBS AT 0600Z
FL UNKNOWN MOV UNKNOWN INTST UNKNOWN=




XYE1893 160617 
FF TESTYZYX
160617 ZLXYYMYX
WVJP31 RJTD 160620
RJJJ SIGMET K04 VALID 160620/161220 RJTD-
RJJJ FUKUOKA FIR VA ERUPTION MT SAKURAJIMA-WAKAMIKO(AIRA-CALDERA)
PSN N3136 E13039 VA CLD OBS AT 0552Z FL060 MOV SE INTST UNKNOWN=




XYE1894 160618 
FF TESTYZYX
160618 ZLXYYMYX
FCCI78 ZYJD 160617 AAA
TAF AMD ZYJD 160617Z 160615 CNL=




XYE1895 160619 
GG TESTYZYX
160619 ZLXYYMYX
SACI64 ZSZS 160600
METAR ZSZS 160601Z 32009G14MPS 280V350 CAVOK 07/M010 Q1029 NOSIG=




XYE1896 160630 
GG TESTYZYX
160630 ZLXYYMYX
SACI35 ZGSZ 160630
METAR ZGSZ 160630Z 36009MPS CAVOK 19/02 Q1024 NOSIG=




XYE1897 160630 
GG TESTYZYX
160630 ZLXYYMYX
SACI36 ZUUU 160630
METAR ZUUU 160630Z VRB01MPS CAVOK 10/M09 Q1036 NOSIG=




XYE1898 160630 
GG TESTYZYX
160630 ZLXYYMYX
SACI34 ZSHC 160630
METAR ZSHC 160630Z 34007MPS 310V050 CAVOK 07/M16 Q1032 NOSIG=




XYE1899 160630 
GG TESTYZYX
160630 ZLXYYMYX
SACI33 ZBTJ 160630
METAR ZBTJ 160630Z 32009G14MPS 9999 FEW033 01/M23 Q1029 NOSIG=




XYE1900 160630 
GG TESTYZYX
160630 ZLXYYMYX
SACI38 ZYTX 160630
METAR ZYTX 160630Z 31005MPS CAVOK M10/M19 Q1024 NOSIG=




XYE1901 160630 
GG TESTYZYX
160630 ZLXYYMYX
SACI33 ZBAA 160630
METAR ZBAA 160630Z 33009G15MPS CAVOK M00/M21 Q1030 NOSIG=




XYE1902 160630 
GG TESTYZYX
160630 ZLXYYMYX
SACI35 ZGGG 160630
METAR ZGGG 160630Z 02009MPS CAVOK 18/M00 Q1026 NOSIG=




XYE1903 160630 
GG TESTYZYX
160630 ZLXYYMYX
SACI34 ZSSS 160630
METAR ZSSS 160630Z 31011G16MPS CAVOK 06/M14 Q1030 NOSIG=




XYE1904 160631 
GG TESTYZYX
160631 ZLXYYMYX
SACI34 ZSPD 160630
METAR ZSPD 160630Z 30012MPS CAVOK 06/M13 Q1030 NOSIG=




XYE1905 160631 
GG TESTYZYX
160631 ZLXYYMYX
SACI33 ZBYN 160630
METAR ZBYN 160630Z 30009MPS CAVOK M02/M24 Q1030 NOSIG=




XYE1906 160631 
GG TESTYZYX
160631 ZLXYYMYX
SACI38 ZYTL 160630
METAR ZYTL 160630Z 33008G13MPS 9999 BKN026 M03/M16 Q1025 NOSIG=




XYE1907 160632 
GG TESTYZYX
160632 ZLXYYMYX
SACI39 ZWWW 160630
METAR ZWWW 160630Z VRB01MPS 2500 BR NSC M15/M19 Q1039 BECMG TL0720
3500 BR=




XYE1908 160632 
GG TESTYZYX
160632 ZLXYYMYX
SACI66 ZUJZ 160630
METAR ZUJZ 160630Z 30003MPS 240V030 9999 OVC050 M05/M17 Q1026 NOSIG=




XYE1909 160635 
GG TESTYZYX
160635 ZLXYYMYX
SPCI34 ZSPD 160633
SPECI ZSPD 160633Z 29011G16MPS CAVOK 06/M13 Q1030 NOSIG=




XYE1910 160636 
FF TESTYZYX
160636 ZLXYYMYX
WSCI37 ZLXY 160633
ZLHW SIGMET 2 VALID 160640/161040 ZLXY- ZLHW LANZHOU FIR SEV TURB
 FCST S OF N36 ABV FL230 STNR NC=




XYE1911 160638 
GG TESTYZYX
160638 ZLXYYMYX
SACI63 ZBMZ 160600 RRA
SPECI ZBMZ 160638Z 310//MPS //// // ////// ///// Q////=




XYE1912 160638 
FF TESTYZYX
160638 ZLXYYMYX
FCCI68 ZYAS 160637 AAA
TAF AMD ZYAS 160637Z 160615 CNL=




XYE1913 160642 
FF TESTYZYX
160642 ZLXYYMYX
FCCI66 ZUJZ 160641 AAA
TAF AMD ZUJZ 160641Z 160615 CNL=




XYE1914 160648 
FF TESTYZYX
160648 ZLXYYMYX
FCCI64 ZSJH 160645 CCA
TAF COR ZSJH 160645Z 160615 32004MPS CAVOK TX07/07Z TNM01/15Z=




XYE1915 160658 
FF TESTYZYX
160658 ZLXYYMYX
FCCI63 ZBUL 160657 AAA
TAF AMD ZBUL 160657Z 160615 CNL=




XYE1916 160659 
GG TESTYZYX
160659 ZLXYYMYX
SACI73 ZBDT 160700
METAR ZBDT 160700Z 31010MPS 9999 SCT040 M08/M21 Q1027 NOSIG=




XYE1917 160659 
GG TESTYZYX
160659 ZLXYYMYX
SACI74 ZSGZ 160700
METAR ZSGZ 160700Z 02005MPS 7000 NSC 12/M07 Q1031 NOSIG=




XYE1918 160700 
GG TESTYZYX
160700 ZLXYYMYX
SACI67 ZLYA 160700
METAR ZLYA 160700Z 29004MPS 250V330 CAVOK 01/M24 Q1034 NOSIG=




XYE1919 160700 
GG TESTYZYX
160700 ZLXYYMYX
SACI67 ZLYL 160700
METAR ZLYL 160700Z 30009MPS CAVOK M03/M24 Q1032 NOSIG=




XYE1920 160700 
GG TESTYZYX
160700 ZLXYYMYX
SACI66 ZUNC 160700
METAR ZUNC 160700Z 22003MPS 180V260 CAVOK 10/M10 Q1037 NOSIG=




XYE1921 160700 
GG TESTYZYX
160700 ZLXYYMYX
SACI68 ZYAS 160700
METAR ZYAS 160700Z AUTO 35002MPS 1500 // ////// M10/M17 Q1025=




XYE1922 160700 
GG TESTYZYX
160700 ZLXYYMYX
SACI45 ZHYC 160700
METAR ZHYC 160700Z 15004MPS CAVOK 09/M08 Q1036 NOSIG=




XYE1923 160700 
GG TESTYZYX
160700 ZLXYYMYX
SACI74 ZSYA 160700
METAR ZSYA 160700Z 30008MPS 260V320 CAVOK 03/M13 Q1032 NOSIG=




XYE1924 160700 
GG TESTYZYX
160700 ZLXYYMYX
SACI35 ZGSD 160700
METAR ZGSD 160700Z 01009G15MPS CAVOK 19/03 Q1022 NOSIG=




XYE1925 160700 
GG TESTYZYX
160700 ZLXYYMYX
SACI68 ZYJZ 160700
METAR ZYJZ 160700Z AUTO 01007MPS //// // //// M05/M24 Q1026 NOSIG=




XYE1926 160700 
GG TESTYZYX
160700 ZLXYYMYX
SACI77 ZLXH 160700
METAR ZLXH 160700Z AUTO VRB02MPS //// ///////// M04/M25 Q1027=




XYE1927 160700 
GG TESTYZYX
160700 ZLXYYMYX
SACI67 ZLTS 160700
METAR ZLTS 160700Z 24001MPS CAVOK 02/M17 Q1036 NOSIG=




XYE1928 160700 
GG TESTYZYX
160700 ZLXYYMYX
SACI66 ZUDC 160700
METAR ZUDC 160700Z AUTO 22011G16MPS 200V260 9999 /// ////// M01/M12
Q1026
NOSIG=




XYE1929 160700 
GG TESTYZYX
160700 ZLXYYMYX
SACI35 ZGSZ 160700
METAR ZGSZ 160700Z 35009MPS CAVOK 19/02 Q1024 NOSIG=




XYE1930 160700 
GG TESTYZYX
160700 ZLXYYMYX
SACI34 ZSHC 160700
METAR ZSHC 160700Z 33007G12MPS 300V010 CAVOK 06/M16 Q1032
NOSIG=




XYE1931 160700 
GG TESTYZYX
160700 ZLXYYMYX
SACI63 ZBTL 160700
METAR ZBTL 160700Z 35002MPS CAVOK M13/M21 Q1023 NOSIG=




XYE1932 160700 
GG TESTYZYX
160700 ZLXYYMYX
SACI73 ZBZJ 160700
METAR ZBZJ 160700Z 32011MPS CAVOK M07/M20 Q1027 NOSIG=




XYE1933 160700 
GG TESTYZYX
160700 ZLXYYMYX
SACI33 ZBTJ 160700
METAR ZBTJ 160700Z 32009MPS 9999 FEW033 00/M23 Q1029 NOSIG=




XYE1934 160700 
GG TESTYZYX
160700 ZLXYYMYX
SACI67 ZLDH 160700
METAR ZLDH 160700Z 11002MPS CAVOK M06/M15 Q1038 NOSIG=




XYE1935 160700 
GG TESTYZYX
160700 ZLXYYMYX
SACI67 ZLZW 160700
METAR ZLZW 160700Z 31004MPS CAVOK 01/M27 Q1034 NOSIG=




XYE1936 160700 
GG TESTYZYX
160700 ZLXYYMYX
SACI37 ZLXN 160700
METAR ZLXN 160700Z 25002MPS 200V270 7000 NSC 00/M21 Q1030 NOSIG=




XYE1937 160700 
GG TESTYZYX
160700 ZLXYYMYX
SACI67 ZLHZ 160700
METAR ZLHZ 160700Z 24004MPS 200V290 CAVOK 09/M13 Q1036 NOSIG=




XYE1938 160700 
GG TESTYZYX
160700 ZLXYYMYX
SACI67 ZLQY 160700
METAR ZLQY 160700Z 33007MPS CAVOK M00/M22 Q1034 NOSIG=




XYE1939 160700 
GG TESTYZYX
160700 ZLXYYMYX
SACI68 ZYCY 160700
METAR ZYCY 160700Z 33007MPS 9999 SCT040 M07/M25 Q1025 NOSIG=




XYE1940 160700 
GG TESTYZYX
160700 ZLXYYMYX
SACI34 ZSAM 160700
METAR ZSAM 160700Z 36004MPS CAVOK 19/03 Q1023 NOSIG=




XYE1941 160700 
GG TESTYZYX
160700 ZLXYYMYX
SACI35 ZGGG 160700
METAR ZGGG 160700Z 02009MPS CAVOK 17/M00 Q1026 NOSIG=




XYE1942 160700 
GG TESTYZYX
160700 ZLXYYMYX
SACI36 ZUUU 160700
METAR ZUUU 160700Z 16003MPS 070V230 CAVOK 11/M08 Q1036 NOSIG=




XYE1943 160700 
GG TESTYZYX
160700 ZLXYYMYX
SACI86 ZURK 160700
METAR ZURK 160700Z AUTO 29004MPS 250V350 9999 /// ////// 04/M15
Q1017 NOSIG=




XYE1944 160700 
GG TESTYZYX
160700 ZLXYYMYX
SACI65 ZGCD 160700
METAR ZGCD 160700Z 04003MPS CAVOK 09/M13 Q1037 NOSIG=




XYE1945 160700 
GG TESTYZYX
160700 ZLXYYMYX
SACI63 ZBES 160700
METAR ZBES 160700Z 26003MPS CAVOK M24/M28 Q1014 NOSIG=




XYE1946 160700 
GG TESTYZYX
160700 ZLXYYMYX
SACI63 ZBMZ 160700
METAR ZBMZ 160700Z 31007MPS CAVOK M17/M25 Q1017 NOSIG=




XYE1947 160700 
GG TESTYZYX
160700 ZLXYYMYX
SACI44 ZSLG 160700
METAR ZSLG 160700Z 30005MPS CAVOK 03/M17 Q1031 NOSIG=




XYE1948 160700 
GG TESTYZYX
160700 ZLXYYMYX
SACI73 ZBSN 160700
METAR ZBSN 160700Z 31006MPS CAVOK M02/M19 Q1028 NOSIG=




XYE1949 160700 
GG TESTYZYX
160700 ZLXYYMYX
SACI78 ZYFY 160700
METAR ZYFY 160700Z AUTO 04005MPS 9999 /// ////// M23/M28 Q1015
NOSIG=




XYE1950 160700 
GG TESTYZYX
160700 ZLXYYMYX
SACI37 ZLIC 160700
METAR ZLIC 160700Z 25003MPS CAVOK M01/M21 Q1034 NOSIG=




XYE1951 160700 
GG TESTYZYX
160700 ZLXYYMYX
SACI77 ZLDL 160700
METAR ZLDL 160700Z AUTO 05002MPS 350V110 9999 // //////
M06/M31 Q1029=




XYE1952 160701 
GG TESTYZYX
160700 ZLXYYMYX
SACI63 ZBUH 160700
METAR ZBUH 160700Z 26006MPS 220V290 CAVOK M04/M24 Q1033 NOSIG=




XYE1953 160701 
GG TESTYZYX
160700 ZLXYYMYX
SACI37 ZLXY 160700
METAR ZLXY 160700Z 25002MPS 170V300 CAVOK 06/M17 Q1037 NOSIG=




XYE1954 160701 
GG TESTYZYX
160700 ZLXYYMYX
SACI73 ZBSH 160700
METAR ZBSH 160700Z 32006MPS CAVOK M03/M25 Q1026 NOSIG=




XYE1955 160701 
GG TESTYZYX
160700 ZLXYYMYX
SACI33 ZBAA 160700
METAR ZBAA 160700Z 33009MPS CAVOK M01/M21 Q1030 NOSIG=




XYE1956 160701 
GG TESTYZYX
160700 ZLXYYMYX
SACI45 ZHCC 160700
METAR ZHCC 160700Z 29010G15MPS CAVOK 05/M23 Q1034 NOSIG=




XYE1957 160701 
GG TESTYZYX
160700 ZLXYYMYX
SACI34 ZSOF 160700
METAR ZSOF 160700Z 31008MPS CAVOK 05/M15 Q1034 NOSIG=




XYE1958 160701 
GG TESTYZYX
160700 ZLXYYMYX
SACI44 ZSJN 160700
METAR ZSJN 160700Z 32007MPS CAVOK 02/M23 Q1031 BECMG TL0830
25002MPS=




XYE1959 160701 
GG TESTYZYX
160700 ZLXYYMYX
SACI75 ZHXF 160700
METAR ZHXF 160700Z 35004MPS CAVOK 10/M12 Q1036 NOSIG=




XYE1960 160701 
GG TESTYZYX
160700 ZLXYYMYX
SACI65 ZGLG 160700
METAR ZGLG 160700Z 01005MPS CAVOK 12/M16 Q1034 NOSIG=




XYE1961 160701 
GG TESTYZYX
160700 ZLXYYMYX
SACI66 ZUZH 160700
METAR ZUZH 160700Z 08002MPS 040V100 9999 SCT019 OVC046 05/00
Q1026 NOSIG=




XYE1962 160701 
GG TESTYZYX
160700 ZLXYYMYX
SACI63 ZBLA 160700
METAR ZBLA 160700Z 30003MPS CAVOK M26/M29 Q1017 NOSIG=




XYE1963 160701 
GG TESTYZYX
160700 ZLXYYMYX
SACI34 ZSLQ 160700
METAR ZSLQ 160700Z 34008MPS CAVOK 10/M12 Q1028 NOSIG=




XYE1964 160701 
GG TESTYZYX
160700 ZLXYYMYX
SACI67 ZLGM 160700
METAR ZLGM 160700Z VRB01MPS 9999 FEW100 M07/M25 Q1029 NOSIG=




XYE1965 160701 
GG TESTYZYX
160700 ZLXYYMYX
SACI38 ZYTX 160700
METAR ZYTX 160700Z 31004MPS CAVOK M11/M20 Q1025 NOSIG=




XYE1966 160701 
GG TESTYZYX
160700 ZLXYYMYX
SACI75 ZGHC 160700
METAR ZGHC 160700Z AUTO 07004MPS 360V170 9999 // ////// 13/M04
Q1029=




XYE1967 160701 
GG TESTYZYX
160701 ZLXYYMYX
SACI45 ZGHA 160700
METAR ZGHA 160700Z 36009MPS CAVOK 11/M17 Q1035 NOSIG=




XYE1968 160701 
GG TESTYZYX
160701 ZLXYYMYX
SACI69 ZWTC 160700
METAR ZWTC 160700Z 09002MPS CAVOK M06/M18 Q1034 NOSIG=




XYE1969 160701 
GG TESTYZYX
160701 ZLXYYMYX
SACI35 ZGOW 160700
METAR ZGOW 160700Z 36006MPS 320V040 CAVOK 19/03 Q1023 NOSIG=




XYE1970 160701 
GG TESTYZYX
160701 ZLXYYMYX
SACI68 ZYHE 160700
METAR ZYHE 160700Z 01001MPS CAVOK M24/M30 Q1017 NOSIG=




XYE1971 160701 
GG TESTYZYX
160701 ZLXYYMYX
SACI35 ZJSY 160700
METAR ZJSY 160700Z 10007MPS 8000 BKN050 25/15 Q1017 NOSIG=




XYE1972 160701 
GG TESTYZYX
160701 ZLXYYMYX
SACI34 ZSWZ 160700
METAR ZSWZ 160700Z 32007MPS 290V350 CAVOK 13/M11 Q1027 NOSIG=




XYE1973 160701 
GG TESTYZYX
160701 ZLXYYMYX
SACI39 ZWTN 160700
METAR ZWTN 160700Z 01002MPS CAVOK M05/M12 Q1036 NOSIG=




XYE1974 160701 
GG TESTYZYX
160701 ZLXYYMYX
SACI35 ZJHK 160700
METAR ZJHK 160700Z 36005MPS 8000 SCT030 18/11 Q1022 NOSIG=




XYE1975 160701 
GG TESTYZYX
160701 ZLXYYMYX
SACI69 ZWAK 160700
METAR ZWAK 160700Z 25002MPS 6000 NSC M06/M12 Q1039 NOSIG=




XYE1976 160701 
GG TESTYZYX
160701 ZLXYYMYX
SACI34 ZSSS 160700
METAR ZSSS 160700Z 32010G15MPS 280V350 CAVOK 05/M14 Q1031 NOSIG=




XYE1977 160701 
GG TESTYZYX
160701 ZLXYYMYX
SACI35 ZGNN 160700
METAR ZGNN 160700Z 36006MPS CAVOK 17/03 Q1027 NOSIG=




XYE1978 160701 
GG TESTYZYX
160701 ZLXYYMYX
SACI33 ZBSJ 160700
METAR ZBSJ 160700Z 35004MPS CAVOK 03/M22 Q1031 NOSIG=




XYE1979 160701 
GG TESTYZYX
160701 ZLXYYMYX
SACI33 ZBHH 160700
METAR ZBHH 160700Z 30008MPS 9999 FEW040 M06/M19 Q1027 NOSIG=




XYE1980 160701 
GG TESTYZYX
160701 ZLXYYMYX
FCCI63 ZBLA 160700
TAF ZBLA 160700Z 160918 24004MPS 9999 FEW026 TXM26/09Z TNM29/18Z=




XYE1981 160701 
GG TESTYZYX
160701 ZLXYYMYX
SACI73 ZBLL 160700
METAR ZBLL 160700Z 30006G11MPS 270V340 CAVOK M06/M21 Q1031 NOSIG=




XYE1982 160701 
GG TESTYZYX
160701 ZLXYYMYX
SACI65 ZGCJ 160700
METAR ZGCJ 160700Z 03005MPS 350V050 9999 FEW050 12/M09 Q1034
NOSIG=




XYE1983 160701 
GG TESTYZYX
160701 ZLXYYMYX
SACI37 ZLLL 160700
METAR ZLLL 160700Z 18003MPS 140V220 CAVOK M03/M18 Q1032 NOSIG=




XYE1984 160701 
GG TESTYZYX
160701 ZLXYYMYX
SACI77 ZLZY 160700
METAR ZLZY 160700Z 34003MPS 290V050 CAVOK 01/M28 Q1032 NOSIG=




XYE1985 160701 
GG TESTYZYX
160701 ZLXYYMYX
SACI67 ZLJC 160700
METAR ZLJC 160700Z 20001MPS CAVOK 00/M28 Q1034 NOSIG=




XYE1986 160701 
GG TESTYZYX
160701 ZLXYYMYX
FCCI73 ZBLL 160701
TAF ZBLL 160701Z 160918 33006G13MPS 8000 NSC TXM08/09Z TNM12/18Z=




XYE1987 160701 
GG TESTYZYX
160701 ZLXYYMYX
SACI68 ZYBS 160700
METAR ZYBS 160700Z 32003MPS 280V360 6000 FEW004 SCT016 M17/M22 Q1009
NOSIG=




XYE1988 160701 
GG TESTYZYX
160701 ZLXYYMYX
SACI44 ZSCN 160700
METAR ZSCN 160700Z 33005G10MPS 280V010 CAVOK 09/M15 Q1034 NOSIG=




XYE1989 160701 
GG TESTYZYX
160701 ZLXYYMYX
SACI34 ZSPD 160700
METAR ZSPD 160700Z 30010G15MPS CAVOK 06/M12 Q1030 NOSIG=




XYE1990 160701 
GG TESTYZYX
160701 ZLXYYMYX
SACI34 ZSFZ 160700
METAR ZSFZ 160700Z 07007MPS CAVOK 15/03 Q1025 NOSIG=




XYE1991 160701 
GG TESTYZYX
160701 ZLXYYMYX
SACI35 ZGKL 160700
METAR ZGKL 160700Z 05006MPS CAVOK 14/M10 Q1031 NOSIG=




XYE1992 160701 
GG TESTYZYX
160701 ZLXYYMYX
SACI34 ZSNB 160700
METAR ZSNB 160700Z 31007G12MPS 280V340 CAVOK 07/M12 Q1030 NOSIG=




XYE1993 160701 
GG TESTYZYX
160701 ZLXYYMYX
SACI45 ZHHH 160700
METAR ZHHH 160700Z 32005MPS 280V010 CAVOK 08/M13 Q1036 NOSIG=




XYE1994 160701 
GG TESTYZYX
160701 ZLXYYMYX
SACI39 ZWSH 160700
METAR ZWSH 160700Z 00000MPS 6000 NSC M04/M11 Q1037 NOSIG=




XYE1995 160701 
GG TESTYZYX
160701 ZLXYYMYX
SACI36 ZUCK 160700
METAR ZUCK 160700Z 26003MPS 230V310 9999 -RA SCT030 06/00 Q1036
NOSIG=




XYE1996 160701 
GG TESTYZYX
160701 ZLXYYMYX
SACI68 ZYJX 160700
METAR ZYJX 160700Z 35008MPS CAVOK M17/M22 Q1013 NOSIG=




XYE1997 160701 
GG TESTYZYX
160701 ZLXYYMYX
SACI73 ZBYC 160700
METAR ZBYC 160700Z 26004MPS 220V310 CAVOK 04/M24 Q1037 NOSIG=




XYE1998 160701 
GG TESTYZYX
160701 ZLXYYMYX
SACI63 ZBXH 160700
METAR ZBXH 160700Z 29009MPS CAVOK M15/M22 Q1021 NOSIG=




XYE1999 160701 
GG TESTYZYX
160701 ZLXYYMYX
SACI63 ZBUL 160700
METAR ZBUL 160700Z AUTO 29002MPS //// // //// M14/M24 Q1019=




XYE2000 160702 
GG TESTYZYX
160701 ZLXYYMYX
SACI36 ZUBD 160700
METAR ZUBD 160700Z AUTO 24007G13MPS 200V280 9999 /// ////// 01/M21
Q1024 NOSIG=




XYE2001 160702 
GG TESTYZYX
160701 ZLXYYMYX
SACI75 ZHSN 160700
METAR ZHSN 160700Z 28009MPS 240V310 CAVOK M08/M23 Q1027 NOSIG=




XYE2002 160702 
GG TESTYZYX
160701 ZLXYYMYX
SACI33 ZBYN 160700
METAR ZBYN 160700Z 29009MPS CAVOK M02/M24 Q1030 NOSIG=




XYE2003 160702 
GG TESTYZYX
160701 ZLXYYMYX
SACI44 ZSQD 160700
METAR ZSQD 160700Z 30008MPS 270V330 CAVOK 00/M23 Q1029 NOSIG=




XYE2004 160702 
GG TESTYZYX
160701 ZLXYYMYX
SACI65 ZGZJ 160700
METAR ZGZJ 160700Z 34007G12MPS 310V010
CAVOK
18/05 Q1022
NOSIG=




XYE2005 160702 
GG TESTYZYX
160701 ZLXYYMYX
SACI69 ZWYN 160700
METAR ZWYN 160700Z 07002MPS CAVOK M02/M14 Q1032 NOSIG=




XYE2006 160702 
GG TESTYZYX
160701 ZLXYYMYX
SACI89 ZWKC 160700
METAR ZWKC 160700Z 20001MPS 5000 FU NSC M05/M14 Q1040 NOSIG=




XYE2007 160702 
GG TESTYZYX
160701 ZLXYYMYX
FCCI34 ZSOF 160700
TAF ZSOF 160700Z 160918 32004MPS 5000 HZ NSC TX03/09Z TNM01/18Z=




XYE2008 160702 
GG TESTYZYX
160701 ZLXYYMYX
SACI89 ZWHM 160700
METAR ZWHM 160700Z 25002MPS 190V290 CAVOK M05/M17 Q1040 NOSIG=




XYE2009 160702 
GG TESTYZYX
160701 ZLXYYMYX
SACI34 ZSNJ 160700
METAR ZSNJ 160700Z 31006MPS 280V360 CAVOK 05/M16 Q1033 NOSIG=




XYE2010 160702 
GG TESTYZYX
160701 ZLXYYMYX
SACI78 ZYTN 160700
METAR ZYTN 160700Z 28002MPS 250V320 9999 SCT030 M14/M18 Q1017=




XYE2011 160702 
GG TESTYZYX
160701 ZLXYYMYX
SACI66 ZUJZ 160700
METAR ZUJZ 160700Z AUTO 31002MPS 220V350 9999 /// ////// M05/M15
Q1026 NOSIG=




XYE2012 160702 
GG TESTYZYX
160701 ZLXYYMYX
SACI36 ZUXC 160700
METAR ZUXC 160700Z 00000MPS 9999 OVC033 06/M02 Q1027 NOSIG=




XYE2013 160702 
GG TESTYZYX
160701 ZLXYYMYX
SACI76 ZPLC 160700
METAR ZPLC 160700Z 16004MPS 9999 FEW033 17/07 Q1024 NOSIG=




XYE2014 160702 
GG TESTYZYX
160701 ZLXYYMYX
SACI86 ZUPS 160700
METAR ZUPS 160700Z AUTO 04005MPS 9999 /// ////// M03/M03 Q1032
NOSIG=




XYE2015 160702 
GG TESTYZYX
160701 ZLXYYMYX
SACI38 ZYCC 160700
METAR ZYCC 160700Z 30003MPS 260V320 2000 -SN BR SCT010 OVC020
M18/M21 Q1021 BECMG TL0830 3000=




XYE2016 160702 
GG TESTYZYX
160701 ZLXYYMYX
SACI36 ZPPP 160700
METAR ZPPP 160700Z 05005MPS 9999 BKN016 OVC033 02/M01 Q1029 NOSIG=




XYE2017 160702 
GG TESTYZYX
160701 ZLXYYMYX
SACI38 ZYHB 160700
METAR ZYHB 160700Z 32004MPS 4000 FU NSC M21/M25 Q1021 NOSIG=




XYE2018 160702 
GG TESTYZYX
160701 ZLXYYMYX
SACI68 ZYYJ 160700
METAR ZYYJ 160700Z 28010MPS CAVOK M11/M18 Q1013 NOSIG=




XYE2019 160702 
GG TESTYZYX
160701 ZLXYYMYX
SACI68 ZYLD 160700
METAR ZYLD 160700Z AUTO 25002MPS 9999 // ////// M23/M27 Q1016=




XYE2020 160702 
GG TESTYZYX
160701 ZLXYYMYX
SACI69 ZWAT 160700
METAR ZWAT 160700Z 00000MPS CAVOK M11/M20 Q1037 NOSIG=




XYE2021 160702 
GG TESTYZYX
160701 ZLXYYMYX
SACI63 ZBCF 160700
METAR ZBCF 160700Z 29008G14MPS 9999 FEW040 M11/M26 Q1022 NOSIG=




XYE2022 160702 
GG TESTYZYX
160701 ZLXYYMYX
SACI65 ZGMX 160700
METAR ZGMX 160700Z 36005MPS CAVOK 17/M04 Q1026 NOSIG=




XYE2023 160702 
GG TESTYZYX
160701 ZLXYYMYX
SACI86 ZUYI 160700
METAR ZUYI 160700Z 36003MPS 320V020 9999 SCT015 OVC040 05/02 Q1031
NOS
IG=




XYE2024 160702 
GG TESTYZYX
160701 ZLXYYMYX
SACI67 ZLGY 160700
METAR ZLGY 160700Z 34009MPS CAVOK M02/M22 Q1032 NOSIG=




XYE2025 160702 
GG TESTYZYX
160701 ZLXYYMYX
SACI35 ZGZH 160700
METAR ZGZH 160700Z 01007MPS CAVOK 16/M10 Q1029 NOSIG=




XYE2026 160702 
GG TESTYZYX
160701 ZLXYYMYX
SACI68 ZYDQ 160700
METAR ZYDQ 160700Z 31005MPS CAVOK M20/M23 Q1021 NOSIG=




XYE2027 160702 
GG TESTYZYX
160701 ZLXYYMYX
SACI69 ZWBL 160700
METAR ZWBL 160700Z 11001MPS 3000 BR NSC M17/M21 Q1042 NOSIG=




XYE2028 160702 
GG TESTYZYX
160701 ZLXYYMYX
SACI78 ZYJD 160700
METAR ZYJD 160700Z AUTO 12001MPS 9999 // ////// M21/M28 Q1017=




XYE2029 160702 
GG TESTYZYX
160701 ZLXYYMYX
SACI73 ZBAL 160700
METAR ZBAL 160700Z 33003MPS 260V030 CAVOK M04/M23 Q1034 NOSIG=




XYE2030 160702 
GG TESTYZYX
160701 ZLXYYMYX
SACI86 ZUKJ 160700
METAR ZUKJ 160700Z 34005MPS 300V040 CAVOK 07/M06 Q1033 NOSIG=




XYE2031 160702 
GG TESTYZYX
160701 ZLXYYMYX
SACI63 ZBER 160700
METAR ZBER 160700Z 30012MPS CAVOK M11/M22 Q1026 NOSIG=




XYE2032 160702 
GG TESTYZYX
160701 ZLXYYMYX
SACI68 ZYDD 160700
METAR ZYDD 160700Z 34006MPS CAVOK M06/M22 Q1023 NOSIG=




XYE2033 160702 
GG TESTYZYX
160701 ZLXYYMYX
SACI69 ZWKL 160700
METAR ZWKL 160700Z VRB02MPS CAVOK M07/M14 Q1041 NOSIG=




XYE2034 160702 
GG TESTYZYX
160701 ZLXYYMYX
SACI36 ZUGY 160700
METAR ZUGY 160700Z 01004MPS 9999 OVC043 05/M01 Q1032 NOSIG=




XYE2035 160702 
GG TESTYZYX
160701 ZLXYYMYX
SACI86 ZUBJ 160700
METAR ZUBJ 160700Z 33003MPS 310V010 9999 -SG SCT010 OVC023 00/M02
Q103
3 NOSIG=




XYE2036 160702 
GG TESTYZYX
160701 ZLXYYMYX
SACI64 ZSJU 160700
METAR ZSJU 160700Z 24007MPS CAVOK 11/M12 Q1031 NOSIG=




XYE2037 160702 
GG TESTYZYX
160701 ZLXYYMYX
SACI64 ZSNT 160700
METAR ZSNT 160700Z 31010G15MPS CAVOK 04/M15 Q1031 NOSIG=




XYE2038 160702 
GG TESTYZYX
160701 ZLXYYMYX
SACI39 ZWWW 160700
METAR ZWWW 160700Z VRB01MPS 2500 FU FEW010 M15/M19 Q1038 NOSIG=




XYE2039 160702 
GG TESTYZYX
160702 ZLXYYMYX
SACI68 ZYMH 160700
METAR ZYMH 160700Z 27002MPS 240V300 CAVOK M25/M30 Q1016 NOSIG=




XYE2040 160702 
GG TESTYZYX
160702 ZLXYYMYX
SACI86 ZUNP 160700
METAR ZUNP 160700Z 01006MPS 340V070 8000 SCT050 12/M07 Q1032 NOSIG=




XYE2041 160702 
GG TESTYZYX
160702 ZLXYYMYX
SPCI73 ZBHD 160657
SPECI ZBHD 160700Z 31007MPS CAVOK 06/M23 Q1031 NOSIG=




XYE2042 160702 
GG TESTYZYX
160702 ZLXYYMYX
SACI66 ZUMY 160700 RRA
METAR ZUMY 160700Z VRB01MPS CAVOK 08/M10 Q1036 NOSIG=




XYE2043 160702 
GG TESTYZYX
160702 ZLXYYMYX
SACI38 ZYTL 160700
METAR ZYTL 160700Z 31008MPS 9999 SCT010 BKN026 M04/M15 Q1025 NOSIG=




XYE2044 160702 
GG TESTYZYX
160702 ZLXYYMYX
SACI67 ZLJQ 160700
METAR ZLJQ 160700Z 03002MPS CAVOK M03/M22 Q1033 NOSIG=




XYE2045 160702 
GG TESTYZYX
160702 ZLXYYMYX
SACI39 ZWKM 160700
METAR ZWKM 160700Z 04002MPS 8000 -SG BKN010 M19/M22 Q1044 NOSIG=




XYE2046 160702 
GG TESTYZYX
160702 ZLXYYMYX
SACI86 ZUQJ 160700
METAR ZUQJ 160700Z 21002MPS 100V250 6000 SCT050 10/M01 Q1032
NOSIG=




XYE2047 160702 
GG TESTYZYX
160702 ZLXYYMYX
SACI76 ZPTC 160700
METAR ZPTC 160700Z 21003MPS 150V230 CAVOK 15/05 Q1024 NOSIG=




XYE2048 160702 
GG TESTYZYX
160702 ZLXYYMYX
SACI65 ZGBH 160700
METAR ZGBH 160700Z 01007MPS 9999 BKN040 17/04 Q1024 NOSIG=




XYE2049 160702 
GG TESTYZYX
160702 ZLXYYMYX
SACI76 ZPSM 160700
METAR ZPSM 160700Z 17003MPS 130V200 9999 BKN026 21/10 Q1022 NOSIG=




XYE2050 160703 
GG TESTYZYX
160702 ZLXYYMYX
SACI66 ZUGU 160700
METAR ZUGU 160700Z VRB01MPS CAVOK 09/M16 Q1035 NOSIG=




XYE2051 160703 
GG TESTYZYX
160702 ZLXYYMYX
SACI45 ZHLY 160700
METAR ZHLY 160700Z 29009MPS CAVOK 05/M21 Q1035 NOSIG=




XYE2052 160703 
GG TESTYZYX
160702 ZLXYYMYX
SACI73 ZBYZ 160700
METAR ZBYZ 160700Z 26005MPS CAVOK M05/M21 Q1032 NOSIG=




XYE2053 160703 
GG TESTYZYX
160702 ZLXYYMYX
SACI76 ZPJH 160700
METAR ZPJH 160700Z 17004MPS 130V210 9999 SCT023 26/17 Q1018 NOSIG=




XYE2054 160703 
GG TESTYZYX
160702 ZLXYYMYX
SACI75 ZHNY 160700
METAR ZHNY 160700Z 26003MPS CAVOK 08/M19 Q1035 NOSIG=




XYE2055 160703 
GG TESTYZYX
160702 ZLXYYMYX
FCCI77 ZLZY 160701
TAF ZLZY 160701Z 160918 31004MPS CAVOK TX02/09Z TNM15/18Z
BECMG 1213 12006MPS=




XYE2056 160703 
GG TESTYZYX
160702 ZLXYYMYX
SACI68 ZYJM 160700
METAR ZYJM 160700Z 31002MPS 4000 FU BR NSC M20/M24 Q1017 NOSIG=




XYE2057 160703 
GG TESTYZYX
160702 ZLXYYMYX
SACI64 ZSWX 160700
METAR ZSWX 160700Z 30008MPS CAVOK 05/M17 Q1032 NOSIG=




XYE2058 160703 
GG TESTYZYX
160702 ZLXYYMYX
SACI65 ZGWZ 160700
METAR ZGWZ 160700Z 02004MPS 350V080 CAVOK 17/M03 Q1027 NOSIG=




XYE2059 160703 
GG TESTYZYX
160702 ZLXYYMYX
FCCI73 ZBZJ 160702
TAF ZBZJ 160702Z 160918 30008MPS CAVOK TXM07/09Z TNM13/18Z=




XYE2060 160703 
GG TESTYZYX
160703 ZLXYYMYX
SACI76 ZPMS 160700
METAR ZPMS 160700Z VRB01MPS 9999 SCT040 24/10 Q1018 NOSIG=




XYE2061 160703 
GG TESTYZYX
160703 ZLXYYMYX
SACI64 ZSYW 160700
METAR ZSYW 160700Z 35003MPS CAVOK 10/M16 Q1030 NOSIG=




XYE2062 160703 
GG TESTYZYX
160703 ZLXYYMYX
FCCI65 ZGCJ 160702
TAF ZGCJ 160702Z 160918 05004MPS 9999 BKN040 TX09/09Z TN02/18Z=




XYE2063 160703 
GG TESTYZYX
160703 ZLXYYMYX
SACI68 ZYMD 160700
METAR ZYMD 160700Z 29004MPS CAVOK M15/M22 Q1012 NOSIG=




XYE2064 160703 
FF TESTYZYX
160703 ZLXYYMYX
FCCI86 ZUPS 160700 AAA
TAF AMD ZUPS 160700Z 160615 CNL=




XYE2065 160703 
GG TESTYZYX
160703 ZLXYYMYX
SACI63 ZBOW 160700
METAR ZBOW 160700Z 31010G15MPS CAVOK M06/M21 Q1031 NOSIG=




XYE2066 160703 
GG TESTYZYX
160703 ZLXYYMYX
SACI44 ZSXZ 160700
METAR ZSXZ 160700Z 28006MPS 250V340 CAVOK 04/M16 Q1033 NOSIG=




XYE2067 160703 
GG TESTYZYX
160703 ZLXYYMYX
SACI66 ZUDX 160700
METAR ZUDX 160700Z 26002MPS 220V320 CAVOK 13/M14 Q1035 NOSIG=




XYE2068 160703 
GG TESTYZYX
160703 ZLXYYMYX
FCCI33 ZBHH 160700
TAF ZBHH 160700Z 160918 33009MPS CAVOK TXM09/09Z TNM15/18Z BECMG
1213
33004MPS=




XYE2069 160703 
GG TESTYZYX
160703 ZLXYYMYX
SACI76 ZPWS 160700
METAR ZPWS 160700Z AUTO 04005MPS //// // ///////// 03/01 Q1030=




XYE2070 160703 
GG TESTYZYX
160703 ZLXYYMYX
SACI64 ZSTX 160700
METAR ZSTX 160700Z 06005MPS CAVOK 08/M11 Q1032 NOSIG=




XYE2071 160703 
GG TESTYZYX
160703 ZLXYYMYX
SACI74 ZSYC 160700
METAR ZSYC 160700Z VRB02MPS CAVOK 11/M11 Q1033 NOSIG=




XYE2072 160703 
GG TESTYZYX
160703 ZLXYYMYX
FCCI64 ZSTX 160701
TAF ZSTX 160701Z 160918 05003MPS 6000 NSC TX06/09Z TN00/18Z=




XYE2073 160703 
GG TESTYZYX
160703 ZLXYYMYX
FCCI45 ZHHH 160702
TAF ZHHH 160702Z 160918 01004MPS 5000 HZ NSC TX08/09Z TN02/18Z=




XYE2074 160703 
GG TESTYZYX
160703 ZLXYYMYX
SACI45 ZGDY 160700
METAR ZGDY 160700Z VRB01MPS CAVOK 10/M12 Q1035 NOSIG=




XYE2075 160703 
GG TESTYZYX
160703 ZLXYYMYX
SACI76 ZPZT 160700
METAR ZPZT 160700Z 09002MPS 9999 -SN SCT010 OVC016 M02/M04 Q1033
NOSIG=




XYE2076 160703 
GG TESTYZYX
160703 ZLXYYMYX
SACI76 ZPLJ 160700
METAR ZPLJ 160700Z VRB02G08MPS 9999 BKN040 17/M01 Q1021 NOSIG=




XYE2077 160703 
GG TESTYZYX
160703 ZLXYYMYX
SACI66 ZUYB 160700
METAR ZUYB 160700Z 35002MPS CAVOK 09/M05 Q1037 NOSIG=




XYE2078 160703 
GG TESTYZYX
160703 ZLXYYMYX
SACI86 ZUNZ 160700
METAR ZUNZ 160700Z AUTO 16008MPS 9999 /// ////// 06/M06 Q1022 NOSIG=




XYE2079 160703 
GG TESTYZYX
160703 ZLXYYMYX
SACI44 ZSYT 160700
METAR ZSYT 160700Z 29006G11MPS 9000 -SHSN BKN036 M02/M10 Q1027
NOSIG=




XYE2080 160703 
GG TESTYZYX
160703 ZLXYYMYX
SACI74 ZSJD 160700
METAR ZSJD 160700Z 30004MPS 250V010 CAVOK 09/M17 Q1034 NOSIG=




XYE2081 160703 
GG TESTYZYX
160703 ZLXYYMYX
SACI75 ZHES 160700
METAR ZHES 160700Z VRB01MPS CAVOK 12/M05 Q1031 NOSIG=




XYE2082 160703 
GG TESTYZYX
160703 ZLXYYMYX
SACI68 ZYQQ 160700
METAR ZYQQ 160700Z 33004MPS CAVOK M18/M26 Q1021 NOSIG=




XYE2083 160703 
GG TESTYZYX
160703 ZLXYYMYX
SACI44 ZSCG 160700
METAR ZSCG 160700Z 33006MPS CAVOK 04/M16 Q1033 NOSIG=




XYE2084 160703 
GG TESTYZYX
160703 ZLXYYMYX
SACI86 ZUWX 160700
METAR ZUWX 160700Z 21004MPS 180V250 CAVOK 09/03 Q1034 NIOSIG=
=




XYE2085 160704 
GG TESTYZYX
160704 ZLXYYMYX
SACI73 ZBCZ 160700
METAR ZBCZ 160700Z 32009G16MPS CAVOK M02/M24 Q1030 NOSIG=




XYE2086 160704 
GG TESTYZYX
160704 ZLXYYMYX
SACI63 ZBDS 160700
METAR ZBDS 160700Z 31010MPS CAVOK M06/M22 Q1029 NOSIG=




XYE2087 160704 
GG TESTYZYX
160704 ZLXYYMYX
SACI67 ZLYS 160700
METAR ZLYS 160700Z 06002MPS 9999 -SN SCT033 FEW033B M04/M08 Q1024
NOSIG=




XYE2088 160704 
GG TESTYZYX
160704 ZLXYYMYX
SACI64 ZSSH 160700
METAR ZSSH 160700Z 31007MPS CAVOK 02/M19 Q1032 NOSIG=




XYE2089 160704 
GG TESTYZYX
160704 ZLXYYMYX
SACI76 ZPBS 160700
METAR ZPBS 160700Z 20005MPS 130V230 9999 SCT030 21/03 Q1021 NOSIG=




XYE2090 160704 
GG TESTYZYX
160704 ZLXYYMYX
SACI64 ZSFY 160700
METAR ZSFY 160700Z 31005MPS 280V020 CAVOK 05/M16 Q1035 NOSIG=




XYE2091 160704 
GG TESTYZYX
160704 ZLXYYMYX
FCCI69 ZWAK 160702
TAF ZWAK 160702Z 160918 27003MPS 5000 FU NSC TXM05/09Z TNM17/18Z=




XYE2092 160704 
GG TESTYZYX
160704 ZLXYYMYX
SACI64 ZSYN 160700
METAR ZSYN 160700Z 30007MPS CAVOK 03/M18 Q1031 NOSIG=




XYE2093 160704 
GG TESTYZYX
160704 ZLXYYMYX
SACI74 ZSDY 160700
METAR ZSDY 160700Z AUTO 30009MPS//// // ////// 01/M23 Q1029 NOSIG=




XYE2094 160704 
GG TESTYZYX
160704 ZLXYYMYX
SACI76 ZPDQ 160700
METAR ZPDQ 160700Z 20005G10MPS 150V230 9999 SCT020 BKN040 07/M09
Q1028 NOSIG=




XYE2095 160704 
GG TESTYZYX
160704 ZLXYYMYX
FCCI36 ZUCK 160702
TAF ZUCK 160702Z 160918 34003MPS 5000 BR SCT040 TX05/09Z
TN04/18Z=




XYE2096 160704 
GG TESTYZYX
160704 ZLXYYMYX
SACI86 ZUTR 160700
METAR ZUTR 160700Z VRB01MPS 9999 OVC040 06/M10 Q1034 NOSIG=




XYE2097 160705 
GG TESTYZYX
160704 ZLXYYMYX
SACI65 ZGBS 160700
METAR ZGBS 160700Z VRB01MPS 9999 FEW040 19/M00 Q1028 NOSIG=




XYE2098 160705 
GG TESTYZYX
160704 ZLXYYMYX
FCCI74 ZSJD 160704
TAF ZSJD 160704Z 160918 03004MPS 6000 NSC TX08/09Z TN00/18Z=




XYE2099 160705 
GG TESTYZYX
160704 ZLXYYMYX
SACI76 ZPDL 160700
METAR ZPDL 160700Z 23007MPS 9999 BKN050 14/03 Q1023 NOSIG=




XYE2100 160705 
GG TESTYZYX
160704 ZLXYYMYX
FCCI66 ZUZH 160703
TAF ZUZH 160703Z 160918 09004MPS 9999 SCT020 BKN050 TX06/09Z
TN02/18Z=




XYE2101 160705 
GG TESTYZYX
160705 ZLXYYMYX
SACI66 ZUGH 160700
METAR ZUGH 160700Z 24001MPS CAVOK 11/M09 Q1036 NOSIG=




XYE2102 160705 
GG TESTYZYX
160705 ZLXYYMYX
SACI74 ZSJG 160700
METAR ZSJG 160700Z 31007MPS CAVOK 04/M16 Q1033 NOSIG=




XYE2103 160705 
GG TESTYZYX
160705 ZLXYYMYX
SACI64 ZSJH 160700
METAR ZSJH 160700Z 31005G10MPS 270V350 CAVOK 07/M15 Q1035 NOSIG=




XYE2104 160705 
GG TESTYZYX
160705 ZLXYYMYX
SACI36 ZUAL 160700
METAR ZUAL 160700Z AUTO 34006MPS 300V360 9999 /// ////// M06/M25
Q1027 NOSIG=




XYE2105 160705 
GG TESTYZYX
160705 ZLXYYMYX
FCCI33 ZBSJ 160704
TAF ZBSJ 160704Z 160918 36004MPS CAVOK TX02/09Z TNM06/18Z=




XYE2106 160705 
FF TESTYZYX
160705 ZLXYYMYX
WSCI45 ZHHH 160704
ZHWH SIGMET 2 VALID 160720/161120 ZHHH-
ZHWH WUHAN FIR SEV TURB FCST
N OF N28 ABV FL230 STNR NC=




XYE2107 160705 
GG TESTYZYX
160705 ZLXYYMYX
FCCI67 ZLDH 160702
TAF ZLDH 160702Z 160918 VRB02MPS CAVOK TXM05/09Z TNM15/18Z=




XYE2108 160705 
GG TESTYZYX
160705 ZLXYYMYX
SACI36 ZULS 160700
METAR ZULS 160700Z 06005MPS 020V080 9999 BKN050 06/M12 Q1018 NOSIG=




XYE2109 160705 
GG TESTYZYX
160705 ZLXYYMYX
SACI86 ZUZY 160700
METAR ZUZY 160700Z 19002MPS 160V240 9999 SCT020 OVC033 06/03 Q1034
NOS
IG=




XYE2110 160706 
GG TESTYZYX
160706 ZLXYYMYX
FCCI68 ZYQQ 160705
TAF ZYQQ 160705Z 160918 36004MPS 3000 FU NSC TXM20/09Z TNM25/18Z=




XYE2111 160706 
GG TESTYZYX
160706 ZLXYYMYX
FCCI45 ZGHA 160705
TAF ZGHA 160705Z 160918 36005MPS 6000 NSC TX09/09Z TN01/18Z=




XYE2112 160706 
GG TESTYZYX
160706 ZLXYYMYX
SACI66 ZULZ 160700
METAR ZULZ 160700Z 01001MPS CAVOK 09/M03 Q1037 NOSIG=
=




XYE2113 160706 
GG TESTYZYX
160706 ZLXYYMYX
SACI74 ZSWY 160700
METAR ZSWY 160700Z 01009G15MPS CAVOK 10/M08 Q1030 NOSIG=




XYE2114 160706 
GG TESTYZYX
160706 ZLXYYMYX
SACI64 ZSZS 160700
METAR ZSZS 160700Z 32010G16MPS 280V350 CAVOK 06/M11 Q1029 NOSIG=




XYE2115 160706 
GG TESTYZYX
160706 ZLXYYMYX
FCCI65 ZGZJ 160706
TAF ZGZJ 160706Z 160918 36005G11MPS CAVOK TX17/09Z TN11/18Z=




XYE2116 160706 
GG TESTYZYX
160706 ZLXYYMYX
SACI74 ZSGS 160700
METAR ZSGS 160700Z 05005MPS 360V090 CAVOK 11/M09 Q1033 NOSIG=




XYE2117 160706 
GG TESTYZYX
160706 ZLXYYMYX
FTCI33 ZBSJ 160704
TAF ZBSJ 160704Z 161212 36004MPS CAVOK TX05/06Z TNM09/23Z=




XYE2118 160707 
GG TESTYZYX
160707 ZLXYYMYX
SACI74 ZSLO 160700
METAR ZSLO 160700Z 35005G10MPS 7000 NSC 13/M07 Q1029 NOSIG=




XYE2119 160707 
GG TESTYZYX
160707 ZLXYYMYX
FCCI69 ZWTC 160703
TAF ZWTC 160703Z 160918 12003MPS CAVOK TXM06/09Z TNM19/18Z=




XYE2120 160707 
GG TESTYZYX
160707 ZLXYYMYX
SACI74 ZSQZ 160700
METAR ZSQZ 160700Z 02004MPS CAVOK 19/03 Q1024 NOSIG=




XYE2121 160707 
GG TESTYZYX
160707 ZLXYYMYX
FCCI86 ZUNP 160706
TAF ZUNP 160706Z 160918 01005G10MPS 9999 SCT040 TX11/09Z
TN06/18Z=




XYE2122 160707 
GG TESTYZYX
160707 ZLXYYMYX
FCCI35 ZGKL 160706
TAF ZGKL 160706Z 160918 05004MPS 8000 NSC TX14/09Z TN08/18Z=




XYE2123 160707 
GG TESTYZYX
160707 ZLXYYMYX
SACI44 ZSWH 160700
METAR ZSWH 160700Z 33008MPS 9999 FEW010 SCT020 M03/M09 Q1025
NOSIG=




XYE2124 160707 
GG TESTYZYX
160707 ZLXYYMYX
FCCI86 ZUAS 160701
TAF ZUAS 160701Z 160918 03005MPS 6000 -SN BKN006 OVC023 TX01/09Z
TNM02/18Z=




XYE2125 160707 
GG TESTYZYX
160707 ZLXYYMYX
SACI86 ZUAS 160700
METAR ZUAS 160700Z 04005MPS 9999 SCT007 OVC023 01/01 Q1032 NOSIG=




XYE2126 160707 
GG TESTYZYX
160707 ZLXYYMYX
SACI44 ZSWF 160700
METAR ZSWF 160700Z 32009MPS CAVOK 01/M24 Q1029 NOSIG=




XYE2127 160707 
GG TESTYZYX
160707 ZLXYYMYX
FCCI86 ZUZY 160702
TAF ZUZY 160702Z 160918 18003MPS 6000 SCT015 OVC030 TX05/09Z
TN03/18Z=




XYE2128 160707 
GG TESTYZYX
160707 ZLXYYMYX
SACI74 ZSLY 160700
METAR ZSLY 160700Z 28007MPS 250V320 CAVOK 02/M19 Q1031 NOSIG=




XYE2129 160707 
GG TESTYZYX
160707 ZLXYYMYX
FCCI76 ZPJH 160703
TAF ZPJH 160703Z 160918 17003MPS 9999 FEW023 TX27/09Z TN14/18Z=




XYE2130 160707 
GG TESTYZYX
160707 ZLXYYMYX
FCCI86 ZUTR 160703
TAF ZUTR 160703Z 161918 06003MPS 6000 SCT020 OVC040 TX06/09Z
TN04/18Z=




XYE2131 160708 
GG TESTYZYX
160708 ZLXYYMYX
FCCI66 ZUGU 160703
TAF ZUGU 160703Z 160918 VRB01MPS CAVOK TX08/09Z TN04/18Z=




XYE2132 160708 
GG TESTYZYX
160708 ZLXYYMYX
FCCI86 ZUQJ 160703
TAF ZUQJ 160703Z 160918 20002MPS 6000 FEW040 TX10/09Z TN03/18Z
BECMG 1516 2000 BR=




XYE2133 160708 
GG TESTYZYX
160708 ZLXYYMYX
FCCI34 ZSNJ 160706
TAF ZSNJ 160706Z 160918 31004MPS 4000 HZ NSC TX03/09Z TNM01/18Z=




XYE2134 160708 
GG TESTYZYX
160708 ZLXYYMYX
FCCI63 ZBMZ 160706
TAF ZBMZ 160706Z 160918 29004MPS CAVOK TXM20/09Z TNM30/18Z=




XYE2135 160708 
GG TESTYZYX
160708 ZLXYYMYX
FCCI63 ZBOW 160705
TAF ZBOW 160705Z 160918 30004G10MPS CAVOK TXM06/09Z TNM14/18Z=




XYE2136 160708 
GG TESTYZYX
160708 ZLXYYMYX
FCCI36 ZUGY 160705
TAF ZUGY 160705Z 160918 04003MPS 6000 BKN020 OVC030 TX04/09Z
TN02/18Z=




XYE2137 160708 
FF TESTYZYX
160708 ZLXYYMYX
SACI67 ZLYS 160700 CCA
METAR COR ZLYS 160700Z 06002MPS 9999 -SN SCT033 FEW033CB M04/M08
Q102
4 NOSIG=




XYE2138 160708 
GG TESTYZYX
160708 ZLXYYMYX
FCCI35 ZJSY 160705
TAF ZJSY 160705Z 160918 09006MPS 9999 SCT050 TX25/09Z TN20/18Z=




XYE2139 160708 
GG TESTYZYX
160708 ZLXYYMYX
FCCI75 ZHNY 160708
TAF ZHNY 160708Z 160918 21004MPS 6000 NSC TX07/09Z TN00/18Z=




XYE2140 160708 
GG TESTYZYX
160708 ZLXYYMYX
FCCI66 ZULZ 160705
TAF ZULZ 160705Z 160918 VRB01MPS CAVOK
TX09/09Z TN07/18Z=
=




XYE2141 160708 
GG TESTYZYX
160708 ZLXYYMYX
FCCI36 ZUUU 160707
TAF ZUUU 160707Z 160918 20003MPS 5000 BR SCT050 TX10/09Z TN05/18Z=




XYE2142 160709 
GG TESTYZYX
160709 ZLXYYMYX
FCCI67 ZLZW 160708
TAF ZLZW 160708Z 160918 32006MPS 8000 NSC TXM02/09Z TNM15/18Z=




XYE2143 160709 
GG TESTYZYX
160709 ZLXYYMYX
FCCI35 ZGNN 160706
TAF ZGNN 160706Z 160918 02004MPS CAVOK TX16/09Z TN08/18Z=




XYE2144 160709 
GG TESTYZYX
160709 ZLXYYMYX
FCCI33 ZBAA 160700
TAF ZBAA 160720Z 160918 32004MPS CAVOK TXM02/09Z TNM07/18Z=




XYE2145 160709 
GG TESTYZYX
160709 ZLXYYMYX
FCCI74 ZSGZ 160707
TAF ZSGZ 160707Z 160918 03004MPS 4000 HZ NSC TX11/09Z TN05/18Z=




XYE2146 160709 
GG TESTYZYX
160709 ZLXYYMYX
FCCI64 ZSNT 160709
TAF ZSNT 160709Z 160918 31005MPS 6000 FEW033 TX02/09Z TNM01/18Z=




XYE2147 160709 
GG TESTYZYX
160709 ZLXYYMYX
FCCI38 ZYHB 160708
TAF ZYHB 160708Z 160918 32004MPS 3000 BR NSC TXM23/09Z TNM27/18Z=




XYE2148 160709 
GG TESTYZYX
160709 ZLXYYMYX
FCCI75 ZHES 160708
TAF ZHES 160708Z 160918 VRB01MPS CAVOK TX11/09Z TN04/18Z=




XYE2149 160709 
GG TESTYZYX
160709 ZLXYYMYX
FCCI63 ZBUH 160710
TAF ZBUH 160710Z 160918 29005MPS CAVOK TXM05/09Z TNM12/18Z=




XYE2150 160710 
GG TESTYZYX
160709 ZLXYYMYX
FCCI35 ZGZH 160709
TAF ZGZH 160709Z 160918 35004MPS CAVOK TX15/09Z TN07/18Z=




XYE2151 160710 
GG TESTYZYX
160709 ZLXYYMYX
FCCI76 ZPZT 160710
TAF ZPZT 160710Z 160918 33002MPS 8000 -SN SCT010 OVC016 TXM02/09Z
TNM04/18Z=




XYE2152 160710 
GG TESTYZYX
160710 ZLXYYMYX
FCCI35 ZGGG 160703
TAF ZGGG 160703Z 160918 01007G13MPS 9999 SCT040 TX15/09Z
TN10/18Z=




XYE2153 160710 
GG TESTYZYX
160710 ZLXYYMYX
FCCI66 ZUDX 160709
TAF ZUDX 160709Z 160918 33003MPS 8000 NSC TX10/09Z TN06/18Z=




XYE2154 160710 
GG TESTYZYX
160710 ZLXYYMYX
FCCI75 ZHSN 160709
TAF ZHSN 160709Z 160918 28009G14MPS 6000 NSC TXM09/09Z TNM13/18Z=




XYE2155 160710 
GG TESTYZYX
160710 ZLXYYMYX
FCCI38 ZYTX 160710
TAF ZYTX 160710Z 160918 33004MPS 6000 NSC TXM12/09Z TNM19/18Z=




XYE2156 160710 
GG TESTYZYX
160710 ZLXYYMYX
FCCI44 ZSLG 160707
TAF ZSLG 160707Z 160918 31005MPS CAVOK TX00/09Z TNM04/18Z=




XYE2157 160710 
GG TESTYZYX
160710 ZLXYYMYX
FCCI65 ZGBS 160709
TAF ZGBS 160709Z 160918 32003MPS 9999 FEW040 TX19/09Z TN08/18Z=




XYE2158 160711 
GG TESTYZYX
160711 ZLXYYMYX
FCCI35 ZGSD 160710
TAF ZGSD 160710Z 160918 01009G15MPS 8000 NSC TX17/09Z TN10/18Z=




XYE2159 160711 
GG TESTYZYX
160711 ZLXYYMYX
FCCI39 ZWWW 160706
TAF ZWWW 160706Z 160918 36003MPS 2500 FU NSC TXM12/09Z TNM17/18Z
BECMG 1112 18003MPS 1600 FU=




XYE2160 160711 
GG TESTYZYX
160711 ZLXYYMYX
FCCI63 ZBDS 160710
TAF ZBDS 160710Z 160918 30007MPS CAVOK TXM08/09Z TNM15/18Z=




XYE2161 160711 
GG TESTYZYX
160711 ZLXYYMYX
FCCI69 ZWYN 160709
TAF ZWYN 160709Z 160918 VRB02MPS CAVOK TX00/09Z TNM15/18Z=




XYE2162 160711 
GG TESTYZYX
160711 ZLXYYMYX
FCCI44 ZSJN 160710
TAF ZSJN 160710Z 160918 30003MPS 5000 HZ NSC TX01/09Z TNM08/18Z=




XYE2163 160711 
GG TESTYZYX
160711 ZLXYYMYX
FCCI34 ZSWZ 160710
TAF ZSWZ 160710Z 160918 34005MPS 5000 BR NSC TX11/09Z TN06/18Z=




XYE2164 160711 
GG TESTYZYX
160711 ZLXYYMYX
FCCI44 ZSCG 160710
TAF ZSCG 160710Z 160918 33007G14MPS 6000 NSC TX03/09Z TNM01/18Z=




XYE2165 160711 
GG TESTYZYX
160711 ZLXYYMYX
FCCI44 ZSCN 160710
TAF ZSCN 160710Z 160918 35004G11MPS 3100 BR NSC TX07/09Z TN00/18Z=




XYE2166 160711 
FF TESTYZYX
160711 ZLXYYMYX
FCCI86 ZUTR 160710 CCA
TAF COR ZUTR 160710Z 160918 06003MPS 6000 SCT020 OVC040
TX06/09Z TN04/18Z=




XYE2167 160712 
GG TESTYZYX
160712 ZLXYYMYX
FCCI86 ZUWX 160709
TAF ZUWX 160709Z 160918 20003MPS 6000 FEW050 TX09/09Z TN06/18Z=
=




XYE2168 160712 
GG TESTYZYX
160712 ZLXYYMYX
FCCI35 ZJHK 160711
TAF ZJHK 160711Z 160918 02005MPS 5000 BR NSC TX17/09Z TN13/18Z=




XYE2169 160712 
GG TESTYZYX
160712 ZLXYYMYX
FCCI64 ZSZS 160712
TAF ZSZS 160712Z 160918 33010G18MPS CAVOK TX06/09Z TN01/18Z=




XYE2170 160712 
GG TESTYZYX
160712 ZLXYYMYX
FCCI37 ZLXN 160710
TAF ZLXN 160710Z 160918 12004MPS 8000 FEW040 TX01/09Z TNM13/18Z=




XYE2171 160712 
FF TESTYZYX
160712 ZLXYYMYX
FCCI39 ZWWW 160711 AAA
TAF AMD ZWWW 160711Z 160918 36003MPS 2500 FU NSC TXM12/09Z TNM17/18Z
 BECMG 1112 18003MPS 1400 FU=




XYE2172 160713 
GG TESTYZYX
160713 ZLXYYMYX
FCCI33 ZBYN 160712
TAF ZBYN 160712Z 160918 29009G15MPS 8000 NSC TXM04/09Z TNM12/18Z
BECMG 1112 29004G10MPS=




XYE2173 160713 
GG TESTYZYX
160713 ZLXYYMYX
FCCI74 ZSYC 160712
TAF ZSYC 160712Z 160918 06004MPS 6000 NSC TX11/09Z TN05/18Z=




XYE2174 160713 
GG TESTYZYX
160713 ZLXYYMYX
FCCI63 ZBES 160713
TAF ZBES 160713Z 160918 27004MPS 9999 FEW030 TXM26/09Z TNM31/18Z=




XYE2175 160714 
GG TESTYZYX
160714 ZLXYYMYX
FCCI37 ZLIC 160712
TAF ZLIC 160712Z 160918 24004MPS 8000 NSC TXM01/09Z TNM10/18Z=




XYE2176 160714 
GG TESTYZYX
160714 ZLXYYMYX
FTCI44 ZSCN 160712
TAF ZSCN 160712Z 161212 35004G12MPS 3100 BR NSC TX09/06Z TNM02/22Z=




XYE2177 160715 
GG TESTYZYX
160715 ZLXYYMYX
FCCI65 ZGCD 160712
TAF ZGCD 160712Z 160918 03004MPS 6000 NSC
TX08/09Z TN03/18Z=




XYE2178 160715 
GG TESTYZYX
160715 ZLXYYMYX
FCCI68 ZYYJ 160710
TAF ZYYJ 160710Z 160918 27008G15MPS 6000 NSC TXM13/09Z TNM19/18Z=




XYE2179 160715 
GG TESTYZYX
160715 ZLXYYMYX
FCCI45 ZHLY 160715
TAF ZHLY 160715Z 160918 27008MPS CAVOK TX02/09Z TNM04/18Z=




XYE2180 160715 
GG TESTYZYX
160715 ZLXYYMYX
FCCI89 ZWHM 160712
TAF ZWHM 160712Z 160918 29004MPS CAVOK TXM05/09Z TNM16/18Z=




XYE2181 160715 
GG TESTYZYX
160715 ZLXYYMYX
FCCI45 ZHCC 160712
TAF ZHCC 160712Z 160918 30009G15MPS CAVOK TX04/09Z TN00/18Z
BECMG 1112 27004MPS=




XYE2182 160715 
GG TESTYZYX
160715 ZLXYYMYX
FCCI35 ZGSZ 160712
TAF ZGSZ 160712Z 160918 01010G15MPS CAVOK TX17/09Z TN10/18Z=




XYE2183 160715 
GG TESTYZYX
160715 ZLXYYMYX
FCCI38 ZYCC 160717
TAF ZYCC 160717Z 160918 31004MPS 2400 -SN BR SCT010 OVC020 TXM18/09Z
TNM22/18Z
TEMPO 0913 1400 -SN BR=




XYE2184 160716 
GG TESTYZYX
160716 ZLXYYMYX
FCCI65 ZGWZ 160715
TAF ZGWZ 160715Z 160918 04005MPS CAVOK TX16/09Z TN10/18Z=




XYE2185 160716 
GG TESTYZYX
160716 ZLXYYMYX
FCCI73 ZBSH 160713
TAF ZBSH 160713Z 160918 31006MPS CAVOK TXM05/09Z TNM08/18Z=




XYE2186 160716 
GG TESTYZYX
160716 ZLXYYMYX
FCCI35 ZGOW 160714
TAF ZGOW 160714Z 160918 36006MPS 8000 NSC TX17/09Z TN10/18Z=




XYE2187 160716 
GG TESTYZYX
160716 ZLXYYMYX
FCCI64 ZSYW 160713
TAF ZSYW 160713Z 160918 34004MPS CAVOK TX08/09Z TNM01/18Z=




XYE2188 160716 
GG TESTYZYX
160716 ZLXYYMYX
FCCI73 ZBAL 160715
TAF ZBAL 160715Z 160918 32004MPS CAVOK TXM08/09Z TNM14/18Z=




XYE2189 160717 
GG TESTYZYX
160717 ZLXYYMYX
FCCI66 ZUNC 160715
TAF ZUNC 160715Z 160918 33002MPS CAVOK TX10/09Z TN07/18Z =




XYE2190 160717 
GG TESTYZYX
160717 ZLXYYMYX
FCCI68 ZYJM 160715
TAF ZYJM 160715Z 160918 30004MPS 4000 FU SCT030 TXM21/09Z TNM25/18Z
TEMPO 0913 2000=




XYE2191 160717 
GG TESTYZYX
160717 ZLXYYMYX
FCCI74 ZSGS 160714
TAF ZSGS 160714Z 160918 04005G10MPS 6000 NSC TX09/09Z TN06/18Z=




XYE2192 160717 
GG TESTYZYX
160717 ZLXYYMYX
FCCI76 ZPLC 160718
TAF ZPLC 160718Z 160918 32004MPS 9999 FEW033 TX17/09Z TN06/18Z=




XYE2193 160717 
GG TESTYZYX
160717 ZLXYYMYX
FCCI36 ZULS 160716
TAF ZULS 160716Z 160918 09003MPS 9999 FEW040 SCT060 TX12/09Z
TNM02/18Z
BECMG 0910 18006MPS=




XYE2194 160717 
GG TESTYZYX
160717 ZLXYYMYX
FCCI89 ZWKC 160715
TAF ZWKC 160715Z 160918 24004MPS 4000 FU NSC TXM03/09Z TNM14/18Z
BECMG 1516 04004MPS 2200 FU=




XYE2195 160717 
GG TESTYZYX
160717 ZLXYYMYX
FCCI38 ZYTL 160716
TAF ZYTL 160716Z 160918 32007G15MPS 6000 BKN026 TXM04/09Z TNM07/18Z
TEMPO 0913 3000 -SHSN SCT010 BKN026=




XYE2196 160717 
GG TESTYZYX
160717 ZLXYYMYX
FCCI64 ZSYN 160718
TAF ZSYN 160718Z 160918 30006MPS 3100 BR NSC TX02/09Z TNM05/18Z=




XYE2197 160717 
GG TESTYZYX
160717 ZLXYYMYX
FCCI68 ZYDD 160715
TAF ZYDD 160715Z 160918 36006MPS CAVOK TXM09/09Z TNM15/18Z=




XYE2198 160718 
GG TESTYZYX
160718 ZLXYYMYX
FCCI36 ZPPP 160716
TAF ZPPP 160716Z 160918 04006MPS 6000 FEW002 SCT020 OVC033 TX03/09Z
TN00/18Z=




XYE2199 160718 
GG TESTYZYX
160718 ZLXYYMYX
FCCI65 ZGBH 160717
TAF ZGBH 160717Z 160918 36007MPS 9999 FEW010 BKN036 TX16/09Z
TN12/18Z=




XYE2200 160718 
GG TESTYZYX
160718 ZLXYYMYX
FCCI45 ZHYC 160717
TAF ZHYC 160717Z 160918 15003MPS CAVOK TX10/09Z TN03/18Z=




XYE2201 160718 
GG TESTYZYX
160718 ZLXYYMYX
FCCI63 ZBCF 160717
TAF ZBCF 160717Z 160918 31006G11MPS 9999 FEW040 TXM13/09Z TNM16/18Z=




XYE2202 160718 
GG TESTYZYX
160718 ZLXYYMYX
FCCI37 ZLLL 160716
TAF ZLLL 160716Z 160918 35003MPS 5000 FU NSC TXM05/09Z TNM14/18Z=




XYE2203 160719 
GG TESTYZYX
160719 ZLXYYMYX
FCCI63 ZBXH 160718
TAF ZBXH 160718Z 160918 29007MPS CAVOK TXM17/09Z TNM23/23Z=




XYE2204 160719 
GG TESTYZYX
160719 ZLXYYMYX
FTCI36 ZPPP 160718
TAF ZPPP 160718Z 161212 04006MPS 6000 FEW002 SCT020 OVC033 TX04/08Z
TNM02/23Z=




XYE2205 160719 
GG TESTYZYX
160719 ZLXYYMYX
FCCI86 ZUKJ 160718
TAF ZUKJ 160718Z 160918 36004MPS 9999 FEW050 TX07/09Z TN04/18Z=




XYE2206 160719 
GG TESTYZYX
160719 ZLXYYMYX
FCCI65 ZGLG 160718
TAF ZGLG 160718Z 160918 01005MPS 6000 NSC TX11/09Z TN03/18Z=




XYE2207 160720 
GG TESTYZYX
160720 ZLXYYMYX
FCCI36 ZUXC 160718
TAF ZUXC 160718Z 160918 36004MPS 9999 OVC040 TX06/09Z TN03/18Z=




XYE2208 160721 
GG TESTYZYX
160721 ZLXYYMYX
FCCI69 ZWKL 160719
TAF ZWKL 160719Z 160918 24004MPS 6000 NSC TXM06/09Z TNM12/18Z BECMG
1
516 04004MPS=




XYE2209 160721 
GG TESTYZYX
160721 ZLXYYMYX
FCCI34 ZSHC 160720
TAF ZSHC 160720Z 160918 31005G13MPS 3100 HZ NSC TX05/09Z TNM01/18Z=




XYE2210 160721 
GG TESTYZYX
160721 ZLXYYMYX
FCCI45 ZGDY 160719
TAF ZGDY 160719Z 160918 VRB01MPS 6000 NSC TX08/09Z
TN04/18Z=




XYE2211 160721 
GG TESTYZYX
160721 ZLXYYMYX
FCCI34 ZSSS 160720
TAF ZSSS 160720Z 160918 31008MPS 6000 NSC
TX04/09Z TN00/18Z =




XYE2212 160721 
GG TESTYZYX
160721 ZLXYYMYX
FCCI68 ZYMH 160721
TAF ZYMH 160721Z 160918 28004MPS 9999 FEW033 TXM25/09Z TNM29/18Z=




XYE2213 160722 
GG TESTYZYX
160722 ZLXYYMYX
FCCI67 ZLJQ 160720
TAF ZLJQ 160720Z 160918 06004MPS CAVOK TXM05/09Z TNM14/18Z=




XYE2214 160722 
GG TESTYZYX
160722 ZLXYYMYX
FCCI67 ZLQY 160720
TAF ZLQY 160720Z 160918 33003MPS CAVOK TXM02/09Z TNM07/18Z=




XYE2215 160722 
GG TESTYZYX
160722 ZLXYYMYX
FCCI78 ZYTN 160721
TAF ZYTN 160721Z 160918 27003MPS 6000 SCT030
TXM15/09Z TNM22/18Z=




XYE2216 160722 
GG TESTYZYX
160722 ZLXYYMYX
SACI73 ZBHD 160700 RRA
METAR ZBHD 160700Z 31008MPS CAVOK 06/M23 Q1031 NOSIG=




XYE2217 160722 
GG TESTYZYX
160722 ZLXYYMYX
FCCI66 ZUMY 160720
TAF ZUMY 160720Z 160918 15003MPS CAVOK TX07/09Z TN05/18Z=




XYE2218 160722 
GG TESTYZYX
160722 ZLXYYMYX
FCCI34 ZSNB 160721
TAF ZSNB 160721Z 160918 32010G16MPS 5000 BR NSC TX05/09Z TN00/18Z=




XYE2219 160723 
FF TESTYZYX
160723 ZLXYYMYX
FCCI39 ZWKM 160722 CCA
TAF COR ZWKM 160722Z 160918 04004MPS 6000 FEW030 TXM15/09Z
TNM20/18Z=




XYE2220 160723 
GG TESTYZYX
160723 ZLXYYMYX
FCCI44 ZSQD 160722
TAF ZSQD 160722Z 160918 32006G12MPS CAVOK TXM01/09Z TNM05/18Z
BECMG 1011 32003MPS=




XYE2221 160723 
GG TESTYZYX
160723 ZLXYYMYX
FCCI67 ZLTS 160722
TAF ZLTS 160722Z 160918 27003MPS CAVOK TX01/09Z TNM07/18Z=




XYE2222 160724 
GG TESTYZYX
160724 ZLXYYMYX
FCCI39 ZWSH 160721
TAF ZWSH 160721Z 170918 06004MPS 6000 FEW040 TXM04/09Z TNM11/18Z=




XYE2223 160724 
GG TESTYZYX
160724 ZLXYYMYX
FCCI73 ZBYC 160722
TAF ZBYC 160722Z 160918 30004MPS 8000 NSC TX02/09Z TNM06/18Z=




XYE2224 160724 
GG TESTYZYX
160724 ZLXYYMYX
FCCI67 ZLYS 160720
TAF ZLYS 160720Z 160918 28003MPS 9999 FEW033 FEW033CB SCT060
TXM04/09Z TNM12/18Z TEMPO 0913 4000 -SHSN=




XYE2225 160725 
GG TESTYZYX
160725 ZLXYYMYX
FCCI64 ZSJH 160721
TAF ZSJH 160721Z 160918 32004MPS CAVOK TX05/09Z TNM02/18Z=




XYE2226 160725 
GG TESTYZYX
160725 ZLXYYMYX
FCCI67 ZLYL 160723
TAF ZLYL 160723Z 160918 32008MPS CAVOK TXM05/09Z TNM13/18Z
BECMG 1112 32005MPS=




XYE2227 160725 
GG TESTYZYX
160725 ZLXYYMYX
FCCI68 ZYJX 160724
TAF ZYJX 160724Z 160918 35007G14MPS 6000 FEW033 TXM19/09Z
TNM22/18Z=




XYE2228 160725 
GG TESTYZYX
160725 ZLXYYMYX
FCCI76 ZPSM 160723
TAF ZPSM 160723Z 160918 14003MPS 9999 BKN026 TX20/09Z TN11/18Z=




XYE2229 160725 
FF TESTYZYX
160725 ZLXYYMYX
FCCI67 ZLJC 160724 AAA
TAF AMD ZLJC 160724Z 160615 CNL=




XYE2230 160726 
GG TESTYZYX
160726 ZLXYYMYX
FCCI64 ZSSH 160724
TAF ZSSH 160724Z 160918 33004MPS 6000 NSC TX02/09Z TNM03/18Z=




XYE2231 160726 
GG TESTYZYX
160726 ZLXYYMYX
FCCI65 ZGMX 160724
TAF ZGMX 160724Z 160918 35005MPS CAVOK TX15/09Z TN08/18Z=




XYE2232 160727 
GG TESTYZYX
160727 ZLXYYMYX
FCCI67 ZLHZ 160723
TAF ZLHZ 160723Z 160918 25004MPS 6000 NSC TX07/09Z TN01/18Z=




XYE2233 160727 
GG TESTYZYX
160727 ZLXYYMYX
FCCI73 ZBCZ 160725
TAF ZBCZ 160720Z 160918 32006MPS CAVOK TXM03/09Z TNM16/18Z=




XYE2234 160728 
GG TESTYZYX
160728 ZLXYYMYX
FCCI39 ZWTN 160727
TAF ZWTN 160727Z 160918 06003MPS CAVOK TXM04/09Z TNM12/18Z BECMG
1516
18003MPS=




XYE2235 160728 
GG TESTYZYX
160728 ZLXYYMYX
FCCI64 ZSWX 160727
TAF ZSWX 160727Z 160918 30006MPS CAVOK TX04/09Z TN00/18Z=




XYE2236 160728 
GG TESTYZYX
160728 ZLXYYMYX
FCCI37 ZLXY 160726
TAF ZLXY 160726Z 160918 23003MPS 6000 NSC TX05/09Z TNM04/18Z=




XYE2237 160728 
GG TESTYZYX
160728 ZLXYYMYX
FCCI76 ZPMS 160727
TAF ZPMS 160727Z 160918 18002MPS 9999 SCT040 TX24/09Z TN11/18Z=




XYE2238 160728 
FF TESTYZYX
160728 ZLXYYMYX
FCCI39 ZWSH 160727 CCA
TAF COR ZWSH 160727Z 160918 11004MPS 6000 FEW040 TXM04/09Z
TNM11/18Z=




XYE2239 160728 
GG TESTYZYX
160728 ZLXYYMYX
FCCI74 ZSLY 160726
TAF ZSLY 160726Z 160918 30005MPS CAVOK TXM01/09Z TNM06/18Z=




XYE2240 160728 
GG TESTYZYX
160728 ZLXYYMYX
FCCI63 ZBER 160727
TAF ZBER 160727Z 160918 31009G14MPS CAVOK TXM12/09Z TNM17/18Z
BECMG 1213 31006MPS=




XYE2241 160728 
GG TESTYZYX
160728 ZLXYYMYX
FCCI34 ZSPD 160728
TAF ZSPD 160728Z 160918 32009G14MPS 6000 NSC
TX04/09Z TN00/18Z =




XYE2242 160729 
GG TESTYZYX
160729 ZLXYYMYX
FCCI73 ZBHD 160725
TAF ZBHD 160725Z 160918 31006MPS CAVOK TX02/09Z TNM04/18Z =




XYE2243 160730 
GG TESTYZYX
160730 ZLXYYMYX
FCCI68 ZYDQ 160728
TAF ZYDQ 160728Z 160918 32005MPS 5000 BR SCT030 TXM22/09Z
TNM25/18Z=




XYE2244 160730 
GG TESTYZYX
160730 ZLXYYMYX
FTCI64 ZSWX 160729
TAF ZSWX 160729Z 161212 31006MPS CAVOK TX06/06Z TNM03/22Z=




XYE2245 160730 
GG TESTYZYX
160730 ZLXYYMYX
SACI35 ZGSZ 160730
METAR ZGSZ 160730Z 01007MPS CAVOK 19/02 Q1023 NOSIG=




XYE2246 160730 
GG TESTYZYX
160730 ZLXYYMYX
SACI34 ZSHC 160730
METAR ZSHC 160730Z 33008G14MPS 300V010 CAVOK 06/M15 Q1032
NOSIG=




XYE2247 160730 
GG TESTYZYX
160730 ZLXYYMYX
FCCI68 ZYMD 160728
TAF ZYMD 160728Z 160918 29003MPS 5000 FU SCT030 TXM17/09Z TNM21/18Z
TEMPO 0913 2500=




XYE2248 160730 
GG TESTYZYX
160730 ZLXYYMYX
SACI36 ZUUU 160730
METAR ZUUU 160730Z VRB01MPS CAVOK 11/M10 Q1036 NOSIG=




XYE2249 160730 
GG TESTYZYX
160730 ZLXYYMYX
SACI38 ZYTX 160730
METAR ZYTX 160730Z 33004MPS CAVOK M11/M20 Q1025 NOSIG=




XYE2250 160730 
GG TESTYZYX
160730 ZLXYYMYX
SACI33 ZBTJ 160730
METAR ZBTJ 160730Z 33012MPS CAVOK M00/M22 Q1029 NOSIG=




XYE2251 160730 
GG TESTYZYX
160730 ZLXYYMYX
SACI33 ZBAA 160730
METAR ZBAA 160730Z 34007MPS CAVOK M01/M21 Q1030 NOSIG=




XYE2252 160730 
GG TESTYZYX
160730 ZLXYYMYX
SACI35 ZGGG 160730
METAR ZGGG 160730Z 02009MPS CAVOK 17/M01 Q1026 NOSIG=




XYE2253 160730 
GG TESTYZYX
160730 ZLXYYMYX
SACI34 ZSSS 160730
METAR ZSSS 160730Z 32011G16MPS CAVOK 05/M14 Q1031 NOSIG=




XYE2254 160731 
GG TESTYZYX
160730 ZLXYYMYX
SACI34 ZSPD 160730
METAR ZSPD 160730Z 31010G15MPS CAVOK 05/M13 Q1030 NOSIG=




XYE2255 160731 
GG TESTYZYX
160731 ZLXYYMYX
SACI39 ZWWW 160730
METAR ZWWW 160730Z VRB01MPS 3000 FU FEW010 M14/M18 Q1038 NOSIG=




XYE2256 160731 
GG TESTYZYX
160731 ZLXYYMYX
SACI33 ZBYN 160730
METAR ZBYN 160730Z 29010G15MPS CAVOK M02/M25 Q1030 NOSIG=




XYE2257 160731 
GG TESTYZYX
160731 ZLXYYMYX
FCCI76 ZPBS 160730
TAF ZPBS 160730Z 160918 22005MPS 9999 SCT030 TX19/09Z TN07/18Z=




XYE2258 160731 
GG TESTYZYX
160731 ZLXYYMYX
FCCI75 ZHXF 160729
TAF ZHXF 160729Z 160918 34004MPS CAVOK TX08/09Z TN03/18Z=




XYE2259 160731 
GG TESTYZYX
160731 ZLXYYMYX
FCCI68 ZYBS 160730
TAF ZYBS 160730Z 160918 33003MPS 4000 BR BKN020 TXM20/09Z TNM24/18Z
TEMPO 0912 2000 -SHSN BR=




XYE2260 160732 
GG TESTYZYX
160731 ZLXYYMYX
FCCI34 ZSAM 160731
TAF ZSAM 160731Z 160918 02005G10MPS 6000 NSC TX17/09Z TN11/18Z=




XYE2261 160732 
GG TESTYZYX
160732 ZLXYYMYX
FCCI69 ZWAT 160730
TAF ZWAT 160730Z 160918 VRB02MPS CAVOK TXM14/09Z TNM18/15Z=




XYE2262 160732 
GG TESTYZYX
160732 ZLXYYMYX
SACI38 ZYTL 160730
METAR ZYTL 160730Z 33006MPS 300V360 9999 SCT010 BKN026 M04/M14 Q1025
NOSIG=




XYE2263 160732 
GG TESTYZYX
160732 ZLXYYMYX
FCCI86 ZUBJ 160729
TAF ZUBJ 160729Z 160918 36003MPS 7000 -SG FEW006 SCT016 OVC026
TX00/09
Z
TNM01/18Z=




XYE2264 160732 
GG TESTYZYX
160732 ZLXYYMYX
FCCI74 ZSJJ 160730
TAF ZSJJ 160730Z 160918 32006MPS 9999 FEW013 TX07/09Z TN02/18Z=




XYE2265 160732 
GG TESTYZYX
160732 ZLXYYMYX
FCCI34 ZSLQ 160732
TAF ZSLQ 160732Z 160918 34005MPS 6000 SCT025 TX07/09Z TN03/18Z=




XYE2266 160733 
GG TESTYZYX
160733 ZLXYYMYX
FCCI74 ZSWY 16073